{
  "type": "FeatureCollection",
  "name": "04_Foehr_Nord_West",
  "features": [
    {
      "type": "Feature",
      "id": "214",
      "geometry": {
        "type": "Point",
        "coordinates": [
          8.461855,
          54.729247
        ]
      },
      "properties": {
        "id": "214",
        "typ": "Bohrbrunnen",
        "menge_l_min": null,
        "quellkarte": "04_Foehr_Nord_West.pdf",
        "ortsname": "Föhr (Nordwest)",
        "ortsquelle": "04_Foehr_Nord_West.pdf",
        "zuordnungsabstand_relativ": 0.935,
        "pdf_x_pt": 2227.955,
        "pdf_y_von_oben_pt": 1190.741,
        "koordinatenquelle": "eingebettete GeoPDF-Georeferenzierung",
        "lagehinweis": "kartografische Symbolposition; nicht vermessungstechnisch oder vor Ort bestätigt",
        "marker-color": "#f9a825",
        "marker-symbol": "water",
        "marker-size": "medium",
        "title": "214 - Bohrbrunnen"
      }
    },
    {
      "type": "Feature",
      "id": "614",
      "geometry": {
        "type": "Point",
        "coordinates": [
          8.493936,
          54.733482
        ]
      },
      "properties": {
        "id": "614",
        "typ": "Hydrant",
        "menge_l_min": 800,
        "quellkarte": "04_Foehr_Nord_West.pdf",
        "ortsname": "Föhr (Nordwest)",
        "ortsquelle": "04_Foehr_Nord_West.pdf",
        "zuordnungsabstand_relativ": 0.816,
        "pdf_x_pt": 3294.443,
        "pdf_y_von_oben_pt": 956.304,
        "koordinatenquelle": "eingebettete GeoPDF-Georeferenzierung",
        "lagehinweis": "kartografische Symbolposition; nicht vermessungstechnisch oder vor Ort bestätigt",
        "marker-color": "#1565c0",
        "marker-symbol": "fire-station",
        "marker-size": "medium",
        "title": "614 - Hydrant"
      }
    },
    {
      "type": "Feature",
      "id": "767",
      "geometry": {
        "type": "Point",
        "coordinates": [
          8.444219,
          54.708378
        ]
      },
      "properties": {
        "id": "767",
        "typ": "Hydrant",
        "menge_l_min": 400,
        "quellkarte": "04_Foehr_Nord_West.pdf",
        "ortsname": "Föhr (Nordwest)",
        "ortsquelle": "04_Foehr_Nord_West.pdf",
        "zuordnungsabstand_relativ": 0.881,
        "pdf_x_pt": 1633.105,
        "pdf_y_von_oben_pt": 2382.841,
        "koordinatenquelle": "eingebettete GeoPDF-Georeferenzierung",
        "lagehinweis": "kartografische Symbolposition; nicht vermessungstechnisch oder vor Ort bestätigt",
        "marker-color": "#1565c0",
        "marker-symbol": "fire-station",
        "marker-size": "medium",
        "title": "767 - Hydrant"
      }
    },
    {
      "type": "Feature",
      "id": "774",
      "geometry": {
        "type": "Point",
        "coordinates": [
          8.479298,
          54.719917
        ]
      },
      "properties": {
        "id": "774",
        "typ": "Hydrant",
        "menge_l_min": 800,
        "quellkarte": "04_Foehr_Nord_West.pdf",
        "ortsname": "Föhr (Nordwest)",
        "ortsquelle": "04_Foehr_Nord_West.pdf",
        "zuordnungsabstand_relativ": 0.814,
        "pdf_x_pt": 2802.857,
        "pdf_y_von_oben_pt": 1730.273,
        "koordinatenquelle": "eingebettete GeoPDF-Georeferenzierung",
        "lagehinweis": "kartografische Symbolposition; nicht vermessungstechnisch oder vor Ort bestätigt",
        "marker-color": "#1565c0",
        "marker-symbol": "fire-station",
        "marker-size": "medium",
        "title": "774 - Hydrant"
      }
    },
    {
      "type": "Feature",
      "id": "775",
      "geometry": {
        "type": "Point",
        "coordinates": [
          8.475659,
          54.719941
        ]
      },
      "properties": {
        "id": "775",
        "typ": "Hydrant",
        "menge_l_min": 800,
        "quellkarte": "04_Foehr_Nord_West.pdf",
        "ortsname": "Föhr (Nordwest)",
        "ortsquelle": "04_Foehr_Nord_West.pdf",
        "zuordnungsabstand_relativ": 0.923,
        "pdf_x_pt": 2682.059,
        "pdf_y_von_oben_pt": 1727.967,
        "koordinatenquelle": "eingebettete GeoPDF-Georeferenzierung",
        "lagehinweis": "kartografische Symbolposition; nicht vermessungstechnisch oder vor Ort bestätigt",
        "marker-color": "#1565c0",
        "marker-symbol": "fire-station",
        "marker-size": "medium",
        "title": "775 - Hydrant"
      }
    },
    {
      "type": "Feature",
      "id": "795",
      "geometry": {
        "type": "Point",
        "coordinates": [
          8.464169,
          54.729758
        ]
      },
      "properties": {
        "id": "795",
        "typ": "Hydrant",
        "menge_l_min": 800,
        "quellkarte": "04_Foehr_Nord_West.pdf",
        "ortsname": "Föhr (Nordwest)",
        "ortsquelle": "04_Foehr_Nord_West.pdf",
        "zuordnungsabstand_relativ": 1.123,
        "pdf_x_pt": 2304.964,
        "pdf_y_von_oben_pt": 1162.027,
        "koordinatenquelle": "eingebettete GeoPDF-Georeferenzierung",
        "lagehinweis": "kartografische Symbolposition; nicht vermessungstechnisch oder vor Ort bestätigt",
        "marker-color": "#1565c0",
        "marker-symbol": "fire-station",
        "marker-size": "medium",
        "title": "795 - Hydrant"
      }
    },
    {
      "type": "Feature",
      "id": "796",
      "geometry": {
        "type": "Point",
        "coordinates": [
          8.464307,
          54.729231
        ]
      },
      "properties": {
        "id": "796",
        "typ": "Hydrant",
        "menge_l_min": 800,
        "quellkarte": "04_Foehr_Nord_West.pdf",
        "ortsname": "Föhr (Nordwest)",
        "ortsquelle": "04_Foehr_Nord_West.pdf",
        "zuordnungsabstand_relativ": 0.957,
        "pdf_x_pt": 2309.304,
        "pdf_y_von_oben_pt": 1192.287,
        "koordinatenquelle": "eingebettete GeoPDF-Georeferenzierung",
        "lagehinweis": "kartografische Symbolposition; nicht vermessungstechnisch oder vor Ort bestätigt",
        "marker-color": "#1565c0",
        "marker-symbol": "fire-station",
        "marker-size": "medium",
        "title": "796 - Hydrant"
      }
    },
    {
      "type": "Feature",
      "id": "797",
      "geometry": {
        "type": "Point",
        "coordinates": [
          8.463858,
          54.731298
        ]
      },
      "properties": {
        "id": "797",
        "typ": "Saugstelle",
        "menge_l_min": null,
        "quellkarte": "04_Foehr_Nord_West.pdf",
        "ortsname": "Föhr (Nordwest)",
        "ortsquelle": "04_Foehr_Nord_West.pdf",
        "zuordnungsabstand_relativ": 1.091,
        "pdf_x_pt": 2295.338,
        "pdf_y_von_oben_pt": 1073.635,
        "koordinatenquelle": "eingebettete GeoPDF-Georeferenzierung",
        "lagehinweis": "kartografische Symbolposition; nicht vermessungstechnisch oder vor Ort bestätigt",
        "marker-color": "#00897b",
        "marker-symbol": "harbor",
        "marker-size": "medium",
        "title": "797 - Saugstelle"
      }
    },
    {
      "type": "Feature",
      "id": "798",
      "geometry": {
        "type": "Point",
        "coordinates": [
          8.463358,
          54.730276
        ]
      },
      "properties": {
        "id": "798",
        "typ": "Hydrant",
        "menge_l_min": 800,
        "quellkarte": "04_Foehr_Nord_West.pdf",
        "ortsname": "Föhr (Nordwest)",
        "ortsquelle": "04_Foehr_Nord_West.pdf",
        "zuordnungsabstand_relativ": 1.105,
        "pdf_x_pt": 2278.291,
        "pdf_y_von_oben_pt": 1132.123,
        "koordinatenquelle": "eingebettete GeoPDF-Georeferenzierung",
        "lagehinweis": "kartografische Symbolposition; nicht vermessungstechnisch oder vor Ort bestätigt",
        "marker-color": "#1565c0",
        "marker-symbol": "fire-station",
        "marker-size": "medium",
        "title": "798 - Hydrant"
      }
    },
    {
      "type": "Feature",
      "id": "799",
      "geometry": {
        "type": "Point",
        "coordinates": [
          8.463598,
          54.72888
        ]
      },
      "properties": {
        "id": "799",
        "typ": "Hydrant",
        "menge_l_min": 800,
        "quellkarte": "04_Foehr_Nord_West.pdf",
        "ortsname": "Föhr (Nordwest)",
        "ortsquelle": "04_Foehr_Nord_West.pdf",
        "zuordnungsabstand_relativ": 0.863,
        "pdf_x_pt": 2285.62,
        "pdf_y_von_oben_pt": 1212.249,
        "koordinatenquelle": "eingebettete GeoPDF-Georeferenzierung",
        "lagehinweis": "kartografische Symbolposition; nicht vermessungstechnisch oder vor Ort bestätigt",
        "marker-color": "#1565c0",
        "marker-symbol": "fire-station",
        "marker-size": "medium",
        "title": "799 - Hydrant"
      }
    },
    {
      "type": "Feature",
      "id": "801",
      "geometry": {
        "type": "Point",
        "coordinates": [
          8.46277,
          54.728923
        ]
      },
      "properties": {
        "id": "801",
        "typ": "Hydrant",
        "menge_l_min": 800,
        "quellkarte": "04_Foehr_Nord_West.pdf",
        "ortsname": "Föhr (Nordwest)",
        "ortsquelle": "04_Foehr_Nord_West.pdf",
        "zuordnungsabstand_relativ": 1.247,
        "pdf_x_pt": 2258.173,
        "pdf_y_von_oben_pt": 1209.565,
        "koordinatenquelle": "eingebettete GeoPDF-Georeferenzierung",
        "lagehinweis": "kartografische Symbolposition; nicht vermessungstechnisch oder vor Ort bestätigt",
        "marker-color": "#1565c0",
        "marker-symbol": "fire-station",
        "marker-size": "medium",
        "title": "801 - Hydrant"
      }
    },
    {
      "type": "Feature",
      "id": "802",
      "geometry": {
        "type": "Point",
        "coordinates": [
          8.462198,
          54.728109
        ]
      },
      "properties": {
        "id": "802",
        "typ": "Hydrant",
        "menge_l_min": 800,
        "quellkarte": "04_Foehr_Nord_West.pdf",
        "ortsname": "Föhr (Nordwest)",
        "ortsquelle": "04_Foehr_Nord_West.pdf",
        "zuordnungsabstand_relativ": 0.973,
        "pdf_x_pt": 2238.823,
        "pdf_y_von_oben_pt": 1256.096,
        "koordinatenquelle": "eingebettete GeoPDF-Georeferenzierung",
        "lagehinweis": "kartografische Symbolposition; nicht vermessungstechnisch oder vor Ort bestätigt",
        "marker-color": "#1565c0",
        "marker-symbol": "fire-station",
        "marker-size": "medium",
        "title": "802 - Hydrant"
      }
    },
    {
      "type": "Feature",
      "id": "803",
      "geometry": {
        "type": "Point",
        "coordinates": [
          8.460789,
          54.727915
        ]
      },
      "properties": {
        "id": "803",
        "typ": "Hydrant",
        "menge_l_min": 800,
        "quellkarte": "04_Foehr_Nord_West.pdf",
        "ortsname": "Föhr (Nordwest)",
        "ortsquelle": "04_Foehr_Nord_West.pdf",
        "zuordnungsabstand_relativ": 1.127,
        "pdf_x_pt": 2191.965,
        "pdf_y_von_oben_pt": 1266.809,
        "koordinatenquelle": "eingebettete GeoPDF-Georeferenzierung",
        "lagehinweis": "kartografische Symbolposition; nicht vermessungstechnisch oder vor Ort bestätigt",
        "marker-color": "#1565c0",
        "marker-symbol": "fire-station",
        "marker-size": "medium",
        "title": "803 - Hydrant"
      }
    },
    {
      "type": "Feature",
      "id": "804",
      "geometry": {
        "type": "Point",
        "coordinates": [
          8.462119,
          54.73089
        ]
      },
      "properties": {
        "id": "804",
        "typ": "Hydrant",
        "menge_l_min": 800,
        "quellkarte": "04_Foehr_Nord_West.pdf",
        "ortsname": "Föhr (Nordwest)",
        "ortsquelle": "04_Foehr_Nord_West.pdf",
        "zuordnungsabstand_relativ": 0.842,
        "pdf_x_pt": 2237.433,
        "pdf_y_von_oben_pt": 1096.555,
        "koordinatenquelle": "eingebettete GeoPDF-Georeferenzierung",
        "lagehinweis": "kartografische Symbolposition; nicht vermessungstechnisch oder vor Ort bestätigt",
        "marker-color": "#1565c0",
        "marker-symbol": "fire-station",
        "marker-size": "medium",
        "title": "804 - Hydrant"
      }
    },
    {
      "type": "Feature",
      "id": "805",
      "geometry": {
        "type": "Point",
        "coordinates": [
          8.461062,
          54.730986
        ]
      },
      "properties": {
        "id": "805",
        "typ": "Hydrant",
        "menge_l_min": 800,
        "quellkarte": "04_Foehr_Nord_West.pdf",
        "ortsname": "Föhr (Nordwest)",
        "ortsquelle": "04_Foehr_Nord_West.pdf",
        "zuordnungsabstand_relativ": 0.855,
        "pdf_x_pt": 2202.384,
        "pdf_y_von_oben_pt": 1090.78,
        "koordinatenquelle": "eingebettete GeoPDF-Georeferenzierung",
        "lagehinweis": "kartografische Symbolposition; nicht vermessungstechnisch oder vor Ort bestätigt",
        "marker-color": "#1565c0",
        "marker-symbol": "fire-station",
        "marker-size": "medium",
        "title": "805 - Hydrant"
      }
    },
    {
      "type": "Feature",
      "id": "807",
      "geometry": {
        "type": "Point",
        "coordinates": [
          8.461167,
          54.729247
        ]
      },
      "properties": {
        "id": "807",
        "typ": "Hydrant",
        "menge_l_min": 800,
        "quellkarte": "04_Foehr_Nord_West.pdf",
        "ortsname": "Föhr (Nordwest)",
        "ortsquelle": "04_Foehr_Nord_West.pdf",
        "zuordnungsabstand_relativ": 0.767,
        "pdf_x_pt": 2205.124,
        "pdf_y_von_oben_pt": 1190.539,
        "koordinatenquelle": "eingebettete GeoPDF-Georeferenzierung",
        "lagehinweis": "kartografische Symbolposition; nicht vermessungstechnisch oder vor Ort bestätigt",
        "marker-color": "#1565c0",
        "marker-symbol": "fire-station",
        "marker-size": "medium",
        "title": "807 - Hydrant"
      }
    },
    {
      "type": "Feature",
      "id": "808",
      "geometry": {
        "type": "Point",
        "coordinates": [
          8.460075,
          54.729436
        ]
      },
      "properties": {
        "id": "808",
        "typ": "Hydrant",
        "menge_l_min": 800,
        "quellkarte": "04_Foehr_Nord_West.pdf",
        "ortsname": "Föhr (Nordwest)",
        "ortsquelle": "04_Foehr_Nord_West.pdf",
        "zuordnungsabstand_relativ": 0.848,
        "pdf_x_pt": 2168.939,
        "pdf_y_von_oben_pt": 1179.444,
        "koordinatenquelle": "eingebettete GeoPDF-Georeferenzierung",
        "lagehinweis": "kartografische Symbolposition; nicht vermessungstechnisch oder vor Ort bestätigt",
        "marker-color": "#1565c0",
        "marker-symbol": "fire-station",
        "marker-size": "medium",
        "title": "808 - Hydrant"
      }
    },
    {
      "type": "Feature",
      "id": "809",
      "geometry": {
        "type": "Point",
        "coordinates": [
          8.459231,
          54.729567
        ]
      },
      "properties": {
        "id": "809",
        "typ": "Hydrant",
        "menge_l_min": 800,
        "quellkarte": "04_Foehr_Nord_West.pdf",
        "ortsname": "Föhr (Nordwest)",
        "ortsquelle": "04_Foehr_Nord_West.pdf",
        "zuordnungsabstand_relativ": 1.011,
        "pdf_x_pt": 2141.004,
        "pdf_y_von_oben_pt": 1171.658,
        "koordinatenquelle": "eingebettete GeoPDF-Georeferenzierung",
        "lagehinweis": "kartografische Symbolposition; nicht vermessungstechnisch oder vor Ort bestätigt",
        "marker-color": "#1565c0",
        "marker-symbol": "fire-station",
        "marker-size": "medium",
        "title": "809 - Hydrant"
      }
    },
    {
      "type": "Feature",
      "id": "811",
      "geometry": {
        "type": "Point",
        "coordinates": [
          8.45917,
          54.731003
        ]
      },
      "properties": {
        "id": "811",
        "typ": "Hydrant",
        "menge_l_min": 800,
        "quellkarte": "04_Foehr_Nord_West.pdf",
        "ortsname": "Föhr (Nordwest)",
        "ortsquelle": "04_Foehr_Nord_West.pdf",
        "zuordnungsabstand_relativ": 0.815,
        "pdf_x_pt": 2139.609,
        "pdf_y_von_oben_pt": 1089.337,
        "koordinatenquelle": "eingebettete GeoPDF-Georeferenzierung",
        "lagehinweis": "kartografische Symbolposition; nicht vermessungstechnisch oder vor Ort bestätigt",
        "marker-color": "#1565c0",
        "marker-symbol": "fire-station",
        "marker-size": "medium",
        "title": "811 - Hydrant"
      }
    },
    {
      "type": "Feature",
      "id": "812",
      "geometry": {
        "type": "Point",
        "coordinates": [
          8.457777,
          54.731353
        ]
      },
      "properties": {
        "id": "812",
        "typ": "Hydrant",
        "menge_l_min": 800,
        "quellkarte": "04_Foehr_Nord_West.pdf",
        "ortsname": "Föhr (Nordwest)",
        "ortsquelle": "04_Foehr_Nord_West.pdf",
        "zuordnungsabstand_relativ": 1.339,
        "pdf_x_pt": 2093.557,
        "pdf_y_von_oben_pt": 1068.883,
        "koordinatenquelle": "eingebettete GeoPDF-Georeferenzierung",
        "lagehinweis": "kartografische Symbolposition; nicht vermessungstechnisch oder vor Ort bestätigt",
        "marker-color": "#1565c0",
        "marker-symbol": "fire-station",
        "marker-size": "medium",
        "title": "812 - Hydrant"
      }
    },
    {
      "type": "Feature",
      "id": "813",
      "geometry": {
        "type": "Point",
        "coordinates": [
          8.456276,
          54.72853
        ]
      },
      "properties": {
        "id": "813",
        "typ": "Hydrant",
        "menge_l_min": 800,
        "quellkarte": "04_Foehr_Nord_West.pdf",
        "ortsname": "Föhr (Nordwest)",
        "ortsquelle": "04_Foehr_Nord_West.pdf",
        "zuordnungsabstand_relativ": 0.888,
        "pdf_x_pt": 2042.473,
        "pdf_y_von_oben_pt": 1230.347,
        "koordinatenquelle": "eingebettete GeoPDF-Georeferenzierung",
        "lagehinweis": "kartografische Symbolposition; nicht vermessungstechnisch oder vor Ort bestätigt",
        "marker-color": "#1565c0",
        "marker-symbol": "fire-station",
        "marker-size": "medium",
        "title": "813 - Hydrant"
      }
    },
    {
      "type": "Feature",
      "id": "814",
      "geometry": {
        "type": "Point",
        "coordinates": [
          8.455751,
          54.731699
        ]
      },
      "properties": {
        "id": "814",
        "typ": "Hydrant",
        "menge_l_min": 800,
        "quellkarte": "04_Foehr_Nord_West.pdf",
        "ortsname": "Föhr (Nordwest)",
        "ortsquelle": "04_Foehr_Nord_West.pdf",
        "zuordnungsabstand_relativ": 0.832,
        "pdf_x_pt": 2026.45,
        "pdf_y_von_oben_pt": 1048.535,
        "koordinatenquelle": "eingebettete GeoPDF-Georeferenzierung",
        "lagehinweis": "kartografische Symbolposition; nicht vermessungstechnisch oder vor Ort bestätigt",
        "marker-color": "#1565c0",
        "marker-symbol": "fire-station",
        "marker-size": "medium",
        "title": "814 - Hydrant"
      }
    },
    {
      "type": "Feature",
      "id": "815",
      "geometry": {
        "type": "Point",
        "coordinates": [
          8.456247,
          54.732599
        ]
      },
      "properties": {
        "id": "815",
        "typ": "Saugstelle",
        "menge_l_min": null,
        "quellkarte": "04_Foehr_Nord_West.pdf",
        "ortsname": "Föhr (Nordwest)",
        "ortsquelle": "04_Foehr_Nord_West.pdf",
        "zuordnungsabstand_relativ": 1.1,
        "pdf_x_pt": 2043.335,
        "pdf_y_von_oben_pt": 997.007,
        "koordinatenquelle": "eingebettete GeoPDF-Georeferenzierung",
        "lagehinweis": "kartografische Symbolposition; nicht vermessungstechnisch oder vor Ort bestätigt",
        "marker-color": "#00897b",
        "marker-symbol": "harbor",
        "marker-size": "medium",
        "title": "815 - Saugstelle"
      }
    },
    {
      "type": "Feature",
      "id": "816",
      "geometry": {
        "type": "Point",
        "coordinates": [
          8.454458,
          54.731712
        ]
      },
      "properties": {
        "id": "816",
        "typ": "Hydrant",
        "menge_l_min": 800,
        "quellkarte": "04_Foehr_Nord_West.pdf",
        "ortsname": "Föhr (Nordwest)",
        "ortsquelle": "04_Foehr_Nord_West.pdf",
        "zuordnungsabstand_relativ": 0.798,
        "pdf_x_pt": 1983.57,
        "pdf_y_von_oben_pt": 1047.402,
        "koordinatenquelle": "eingebettete GeoPDF-Georeferenzierung",
        "lagehinweis": "kartografische Symbolposition; nicht vermessungstechnisch oder vor Ort bestätigt",
        "marker-color": "#1565c0",
        "marker-symbol": "fire-station",
        "marker-size": "medium",
        "title": "816 - Hydrant"
      }
    },
    {
      "type": "Feature",
      "id": "817",
      "geometry": {
        "type": "Point",
        "coordinates": [
          8.453006,
          54.730264
        ]
      },
      "properties": {
        "id": "817",
        "typ": "Bohrbrunnen",
        "menge_l_min": null,
        "quellkarte": "04_Foehr_Nord_West.pdf",
        "ortsname": "Föhr (Nordwest)",
        "ortsquelle": "04_Foehr_Nord_West.pdf",
        "zuordnungsabstand_relativ": 0.987,
        "pdf_x_pt": 1934.706,
        "pdf_y_von_oben_pt": 1130.056,
        "koordinatenquelle": "eingebettete GeoPDF-Georeferenzierung",
        "lagehinweis": "kartografische Symbolposition; nicht vermessungstechnisch oder vor Ort bestätigt",
        "marker-color": "#f9a825",
        "marker-symbol": "water",
        "marker-size": "medium",
        "title": "817 - Bohrbrunnen"
      }
    },
    {
      "type": "Feature",
      "id": "818",
      "geometry": {
        "type": "Point",
        "coordinates": [
          8.452384,
          54.73005
        ]
      },
      "properties": {
        "id": "818",
        "typ": "Hydrant",
        "menge_l_min": 800,
        "quellkarte": "04_Foehr_Nord_West.pdf",
        "ortsname": "Föhr (Nordwest)",
        "ortsquelle": "04_Foehr_Nord_West.pdf",
        "zuordnungsabstand_relativ": 0.903,
        "pdf_x_pt": 1913.984,
        "pdf_y_von_oben_pt": 1142.168,
        "koordinatenquelle": "eingebettete GeoPDF-Georeferenzierung",
        "lagehinweis": "kartografische Symbolposition; nicht vermessungstechnisch oder vor Ort bestätigt",
        "marker-color": "#1565c0",
        "marker-symbol": "fire-station",
        "marker-size": "medium",
        "title": "818 - Hydrant"
      }
    },
    {
      "type": "Feature",
      "id": "819",
      "geometry": {
        "type": "Point",
        "coordinates": [
          8.453086,
          54.732106
        ]
      },
      "properties": {
        "id": "819",
        "typ": "Hydrant",
        "menge_l_min": 800,
        "quellkarte": "04_Foehr_Nord_West.pdf",
        "ortsname": "Föhr (Nordwest)",
        "ortsquelle": "04_Foehr_Nord_West.pdf",
        "zuordnungsabstand_relativ": 0.931,
        "pdf_x_pt": 1938.196,
        "pdf_y_von_oben_pt": 1024.461,
        "koordinatenquelle": "eingebettete GeoPDF-Georeferenzierung",
        "lagehinweis": "kartografische Symbolposition; nicht vermessungstechnisch oder vor Ort bestätigt",
        "marker-color": "#1565c0",
        "marker-symbol": "fire-station",
        "marker-size": "medium",
        "title": "819 - Hydrant"
      }
    },
    {
      "type": "Feature",
      "id": "821",
      "geometry": {
        "type": "Point",
        "coordinates": [
          8.452081,
          54.732743
        ]
      },
      "properties": {
        "id": "821",
        "typ": "Hydrant",
        "menge_l_min": 800,
        "quellkarte": "04_Foehr_Nord_West.pdf",
        "ortsname": "Föhr (Nordwest)",
        "ortsquelle": "04_Foehr_Nord_West.pdf",
        "zuordnungsabstand_relativ": 1.035,
        "pdf_x_pt": 1905.15,
        "pdf_y_von_oben_pt": 987.702,
        "koordinatenquelle": "eingebettete GeoPDF-Georeferenzierung",
        "lagehinweis": "kartografische Symbolposition; nicht vermessungstechnisch oder vor Ort bestätigt",
        "marker-color": "#1565c0",
        "marker-symbol": "fire-station",
        "marker-size": "medium",
        "title": "821 - Hydrant"
      }
    },
    {
      "type": "Feature",
      "id": "822",
      "geometry": {
        "type": "Point",
        "coordinates": [
          8.449828,
          54.7311
        ]
      },
      "properties": {
        "id": "822",
        "typ": "Hydrant",
        "menge_l_min": 800,
        "quellkarte": "04_Foehr_Nord_West.pdf",
        "ortsname": "Föhr (Nordwest)",
        "ortsquelle": "04_Foehr_Nord_West.pdf",
        "zuordnungsabstand_relativ": 0.847,
        "pdf_x_pt": 1829.626,
        "pdf_y_von_oben_pt": 1081.301,
        "koordinatenquelle": "eingebettete GeoPDF-Georeferenzierung",
        "lagehinweis": "kartografische Symbolposition; nicht vermessungstechnisch oder vor Ort bestätigt",
        "marker-color": "#1565c0",
        "marker-symbol": "fire-station",
        "marker-size": "medium",
        "title": "822 - Hydrant"
      }
    },
    {
      "type": "Feature",
      "id": "823",
      "geometry": {
        "type": "Point",
        "coordinates": [
          8.448762,
          54.730397
        ]
      },
      "properties": {
        "id": "823",
        "typ": "Hydrant",
        "menge_l_min": 800,
        "quellkarte": "04_Foehr_Nord_West.pdf",
        "ortsname": "Föhr (Nordwest)",
        "ortsquelle": "04_Foehr_Nord_West.pdf",
        "zuordnungsabstand_relativ": 1.207,
        "pdf_x_pt": 1793.935,
        "pdf_y_von_oben_pt": 1121.345,
        "koordinatenquelle": "eingebettete GeoPDF-Georeferenzierung",
        "lagehinweis": "kartografische Symbolposition; nicht vermessungstechnisch oder vor Ort bestätigt",
        "marker-color": "#1565c0",
        "marker-symbol": "fire-station",
        "marker-size": "medium",
        "title": "823 - Hydrant"
      }
    },
    {
      "type": "Feature",
      "id": "824",
      "geometry": {
        "type": "Point",
        "coordinates": [
          8.448168,
          54.72996
        ]
      },
      "properties": {
        "id": "824",
        "typ": "Hydrant",
        "menge_l_min": 800,
        "quellkarte": "04_Foehr_Nord_West.pdf",
        "ortsname": "Föhr (Nordwest)",
        "ortsquelle": "04_Foehr_Nord_West.pdf",
        "zuordnungsabstand_relativ": 1.023,
        "pdf_x_pt": 1774.025,
        "pdf_y_von_oben_pt": 1146.234,
        "koordinatenquelle": "eingebettete GeoPDF-Georeferenzierung",
        "lagehinweis": "kartografische Symbolposition; nicht vermessungstechnisch oder vor Ort bestätigt",
        "marker-color": "#1565c0",
        "marker-symbol": "fire-station",
        "marker-size": "medium",
        "title": "824 - Hydrant"
      }
    },
    {
      "type": "Feature",
      "id": "825",
      "geometry": {
        "type": "Point",
        "coordinates": [
          8.45045,
          54.732994
        ]
      },
      "properties": {
        "id": "825",
        "typ": "Hydrant",
        "menge_l_min": 800,
        "quellkarte": "04_Foehr_Nord_West.pdf",
        "ortsname": "Föhr (Nordwest)",
        "ortsquelle": "04_Foehr_Nord_West.pdf",
        "zuordnungsabstand_relativ": 0.791,
        "pdf_x_pt": 1851.123,
        "pdf_y_von_oben_pt": 972.861,
        "koordinatenquelle": "eingebettete GeoPDF-Georeferenzierung",
        "lagehinweis": "kartografische Symbolposition; nicht vermessungstechnisch oder vor Ort bestätigt",
        "marker-color": "#1565c0",
        "marker-symbol": "fire-station",
        "marker-size": "medium",
        "title": "825 - Hydrant"
      }
    },
    {
      "type": "Feature",
      "id": "826",
      "geometry": {
        "type": "Point",
        "coordinates": [
          8.449364,
          54.732286
        ]
      },
      "properties": {
        "id": "826",
        "typ": "Hydrant",
        "menge_l_min": 1600,
        "quellkarte": "04_Foehr_Nord_West.pdf",
        "ortsname": "Föhr (Nordwest)",
        "ortsquelle": "04_Foehr_Nord_West.pdf",
        "zuordnungsabstand_relativ": 0.813,
        "pdf_x_pt": 1814.752,
        "pdf_y_von_oben_pt": 1013.151,
        "koordinatenquelle": "eingebettete GeoPDF-Georeferenzierung",
        "lagehinweis": "kartografische Symbolposition; nicht vermessungstechnisch oder vor Ort bestätigt",
        "marker-color": "#1565c0",
        "marker-symbol": "fire-station",
        "marker-size": "medium",
        "title": "826 - Hydrant"
      }
    },
    {
      "type": "Feature",
      "id": "827",
      "geometry": {
        "type": "Point",
        "coordinates": [
          8.448299,
          54.731674
        ]
      },
      "properties": {
        "id": "827",
        "typ": "Hydrant",
        "menge_l_min": 1600,
        "quellkarte": "04_Foehr_Nord_West.pdf",
        "ortsname": "Föhr (Nordwest)",
        "ortsquelle": "04_Foehr_Nord_West.pdf",
        "zuordnungsabstand_relativ": 1.353,
        "pdf_x_pt": 1779.153,
        "pdf_y_von_oben_pt": 1047.977,
        "koordinatenquelle": "eingebettete GeoPDF-Georeferenzierung",
        "lagehinweis": "kartografische Symbolposition; nicht vermessungstechnisch oder vor Ort bestätigt",
        "marker-color": "#1565c0",
        "marker-symbol": "fire-station",
        "marker-size": "medium",
        "title": "827 - Hydrant"
      }
    },
    {
      "type": "Feature",
      "id": "828",
      "geometry": {
        "type": "Point",
        "coordinates": [
          8.448419,
          54.731713
        ]
      },
      "properties": {
        "id": "828",
        "typ": "Hydrant",
        "menge_l_min": 1600,
        "quellkarte": "04_Foehr_Nord_West.pdf",
        "ortsname": "Föhr (Nordwest)",
        "ortsquelle": "04_Foehr_Nord_West.pdf",
        "zuordnungsabstand_relativ": 0.45,
        "pdf_x_pt": 1783.14,
        "pdf_y_von_oben_pt": 1045.779,
        "koordinatenquelle": "eingebettete GeoPDF-Georeferenzierung",
        "lagehinweis": "kartografische Symbolposition; nicht vermessungstechnisch oder vor Ort bestätigt",
        "marker-color": "#1565c0",
        "marker-symbol": "fire-station",
        "marker-size": "medium",
        "title": "828 - Hydrant"
      }
    },
    {
      "type": "Feature",
      "id": "829",
      "geometry": {
        "type": "Point",
        "coordinates": [
          8.447191,
          54.731166
        ]
      },
      "properties": {
        "id": "829",
        "typ": "Hydrant",
        "menge_l_min": 1600,
        "quellkarte": "04_Foehr_Nord_West.pdf",
        "ortsname": "Föhr (Nordwest)",
        "ortsquelle": "04_Foehr_Nord_West.pdf",
        "zuordnungsabstand_relativ": 1.052,
        "pdf_x_pt": 1742.142,
        "pdf_y_von_oben_pt": 1076.813,
        "koordinatenquelle": "eingebettete GeoPDF-Georeferenzierung",
        "lagehinweis": "kartografische Symbolposition; nicht vermessungstechnisch oder vor Ort bestätigt",
        "marker-color": "#1565c0",
        "marker-symbol": "fire-station",
        "marker-size": "medium",
        "title": "829 - Hydrant"
      }
    },
    {
      "type": "Feature",
      "id": "831",
      "geometry": {
        "type": "Point",
        "coordinates": [
          8.445664,
          54.730437
        ]
      },
      "properties": {
        "id": "831",
        "typ": "Hydrant",
        "menge_l_min": 1600,
        "quellkarte": "04_Foehr_Nord_West.pdf",
        "ortsname": "Föhr (Nordwest)",
        "ortsquelle": "04_Foehr_Nord_West.pdf",
        "zuordnungsabstand_relativ": 0.876,
        "pdf_x_pt": 1691.122,
        "pdf_y_von_oben_pt": 1118.227,
        "koordinatenquelle": "eingebettete GeoPDF-Georeferenzierung",
        "lagehinweis": "kartografische Symbolposition; nicht vermessungstechnisch oder vor Ort bestätigt",
        "marker-color": "#1565c0",
        "marker-symbol": "fire-station",
        "marker-size": "medium",
        "title": "831 - Hydrant"
      }
    },
    {
      "type": "Feature",
      "id": "832",
      "geometry": {
        "type": "Point",
        "coordinates": [
          8.446681,
          54.729934
        ]
      },
      "properties": {
        "id": "832",
        "typ": "Bohrbrunnen",
        "menge_l_min": null,
        "quellkarte": "04_Foehr_Nord_West.pdf",
        "ortsname": "Föhr (Nordwest)",
        "ortsquelle": "04_Foehr_Nord_West.pdf",
        "zuordnungsabstand_relativ": 0.984,
        "pdf_x_pt": 1724.669,
        "pdf_y_von_oben_pt": 1147.336,
        "koordinatenquelle": "eingebettete GeoPDF-Georeferenzierung",
        "lagehinweis": "kartografische Symbolposition; nicht vermessungstechnisch oder vor Ort bestätigt",
        "marker-color": "#f9a825",
        "marker-symbol": "water",
        "marker-size": "medium",
        "title": "832 - Bohrbrunnen"
      }
    },
    {
      "type": "Feature",
      "id": "834",
      "geometry": {
        "type": "Point",
        "coordinates": [
          8.448683,
          54.732887
        ]
      },
      "properties": {
        "id": "834",
        "typ": "E-Bohrbrunnen",
        "menge_l_min": null,
        "quellkarte": "04_Foehr_Nord_West.pdf",
        "ortsname": "Föhr (Nordwest)",
        "ortsquelle": "04_Foehr_Nord_West.pdf",
        "zuordnungsabstand_relativ": 1.543,
        "pdf_x_pt": 1792.453,
        "pdf_y_von_oben_pt": 978.55,
        "koordinatenquelle": "eingebettete GeoPDF-Georeferenzierung",
        "lagehinweis": "kartografische Symbolposition; nicht vermessungstechnisch oder vor Ort bestätigt",
        "marker-color": "#8e24aa",
        "marker-symbol": "industrial",
        "marker-size": "medium",
        "title": "834 - E-Bohrbrunnen"
      }
    },
    {
      "type": "Feature",
      "id": "835",
      "geometry": {
        "type": "Point",
        "coordinates": [
          8.442878,
          54.732319
        ]
      },
      "properties": {
        "id": "835",
        "typ": "Hydrant",
        "menge_l_min": 800,
        "quellkarte": "04_Foehr_Nord_West.pdf",
        "ortsname": "Föhr (Nordwest)",
        "ortsquelle": "04_Foehr_Nord_West.pdf",
        "zuordnungsabstand_relativ": 0.918,
        "pdf_x_pt": 1599.527,
        "pdf_y_von_oben_pt": 1009.549,
        "koordinatenquelle": "eingebettete GeoPDF-Georeferenzierung",
        "lagehinweis": "kartografische Symbolposition; nicht vermessungstechnisch oder vor Ort bestätigt",
        "marker-color": "#1565c0",
        "marker-symbol": "fire-station",
        "marker-size": "medium",
        "title": "835 - Hydrant"
      }
    },
    {
      "type": "Feature",
      "id": "836",
      "geometry": {
        "type": "Point",
        "coordinates": [
          8.438859,
          54.733421
        ]
      },
      "properties": {
        "id": "836",
        "typ": "Hydrant",
        "menge_l_min": 800,
        "quellkarte": "04_Foehr_Nord_West.pdf",
        "ortsname": "Föhr (Nordwest)",
        "ortsquelle": "04_Foehr_Nord_West.pdf",
        "zuordnungsabstand_relativ": 0.802,
        "pdf_x_pt": 1466.665,
        "pdf_y_von_oben_pt": 945.337,
        "koordinatenquelle": "eingebettete GeoPDF-Georeferenzierung",
        "lagehinweis": "kartografische Symbolposition; nicht vermessungstechnisch oder vor Ort bestätigt",
        "marker-color": "#1565c0",
        "marker-symbol": "fire-station",
        "marker-size": "medium",
        "title": "836 - Hydrant"
      }
    },
    {
      "type": "Feature",
      "id": "838",
      "geometry": {
        "type": "Point",
        "coordinates": [
          8.485995,
          54.741049
        ]
      },
      "properties": {
        "id": "838",
        "typ": "Hydrant",
        "menge_l_min": 800,
        "quellkarte": "04_Foehr_Nord_West.pdf",
        "ortsname": "Föhr (Nordwest)",
        "ortsquelle": "04_Foehr_Nord_West.pdf",
        "zuordnungsabstand_relativ": 0.946,
        "pdf_x_pt": 3034.132,
        "pdf_y_von_oben_pt": 520.327,
        "koordinatenquelle": "eingebettete GeoPDF-Georeferenzierung",
        "lagehinweis": "kartografische Symbolposition; nicht vermessungstechnisch oder vor Ort bestätigt",
        "marker-color": "#1565c0",
        "marker-symbol": "fire-station",
        "marker-size": "medium",
        "title": "838 - Hydrant"
      }
    },
    {
      "type": "Feature",
      "id": "839",
      "geometry": {
        "type": "Point",
        "coordinates": [
          8.49563,
          54.739203
        ]
      },
      "properties": {
        "id": "839",
        "typ": "Hydrant",
        "menge_l_min": 800,
        "quellkarte": "04_Foehr_Nord_West.pdf",
        "ortsname": "Föhr (Nordwest)",
        "ortsquelle": "04_Foehr_Nord_West.pdf",
        "zuordnungsabstand_relativ": 0.946,
        "pdf_x_pt": 3353.026,
        "pdf_y_von_oben_pt": 628.743,
        "koordinatenquelle": "eingebettete GeoPDF-Georeferenzierung",
        "lagehinweis": "kartografische Symbolposition; nicht vermessungstechnisch oder vor Ort bestätigt",
        "marker-color": "#1565c0",
        "marker-symbol": "fire-station",
        "marker-size": "medium",
        "title": "839 - Hydrant"
      }
    },
    {
      "type": "Feature",
      "id": "841",
      "geometry": {
        "type": "Point",
        "coordinates": [
          8.466199,
          54.722116
        ]
      },
      "properties": {
        "id": "841",
        "typ": "Hydrant",
        "menge_l_min": 800,
        "quellkarte": "04_Foehr_Nord_West.pdf",
        "ortsname": "Föhr (Nordwest)",
        "ortsquelle": "04_Foehr_Nord_West.pdf",
        "zuordnungsabstand_relativ": 0.839,
        "pdf_x_pt": 2368.988,
        "pdf_y_von_oben_pt": 1600.789,
        "koordinatenquelle": "eingebettete GeoPDF-Georeferenzierung",
        "lagehinweis": "kartografische Symbolposition; nicht vermessungstechnisch oder vor Ort bestätigt",
        "marker-color": "#1565c0",
        "marker-symbol": "fire-station",
        "marker-size": "medium",
        "title": "841 - Hydrant"
      }
    },
    {
      "type": "Feature",
      "id": "855",
      "geometry": {
        "type": "Point",
        "coordinates": [
          8.45471,
          54.718214
        ]
      },
      "properties": {
        "id": "855",
        "typ": "Hydrant",
        "menge_l_min": 800,
        "quellkarte": "04_Foehr_Nord_West.pdf",
        "ortsname": "Föhr (Nordwest)",
        "ortsquelle": "04_Foehr_Nord_West.pdf",
        "zuordnungsabstand_relativ": 0.82,
        "pdf_x_pt": 1985.852,
        "pdf_y_von_oben_pt": 1821.493,
        "koordinatenquelle": "eingebettete GeoPDF-Georeferenzierung",
        "lagehinweis": "kartografische Symbolposition; nicht vermessungstechnisch oder vor Ort bestätigt",
        "marker-color": "#1565c0",
        "marker-symbol": "fire-station",
        "marker-size": "medium",
        "title": "855 - Hydrant"
      }
    },
    {
      "type": "Feature",
      "id": "856",
      "geometry": {
        "type": "Point",
        "coordinates": [
          8.448958,
          54.721353
        ]
      },
      "properties": {
        "id": "856",
        "typ": "Hydrant",
        "menge_l_min": 800,
        "quellkarte": "04_Foehr_Nord_West.pdf",
        "ortsname": "Föhr (Nordwest)",
        "ortsquelle": "04_Foehr_Nord_West.pdf",
        "zuordnungsabstand_relativ": 0.799,
        "pdf_x_pt": 1796.342,
        "pdf_y_von_oben_pt": 1640.024,
        "koordinatenquelle": "eingebettete GeoPDF-Georeferenzierung",
        "lagehinweis": "kartografische Symbolposition; nicht vermessungstechnisch oder vor Ort bestätigt",
        "marker-color": "#1565c0",
        "marker-symbol": "fire-station",
        "marker-size": "medium",
        "title": "856 - Hydrant"
      }
    },
    {
      "type": "Feature",
      "id": "857",
      "geometry": {
        "type": "Point",
        "coordinates": [
          8.451104,
          54.724692
        ]
      },
      "properties": {
        "id": "857",
        "typ": "Hydrant",
        "menge_l_min": 800,
        "quellkarte": "04_Foehr_Nord_West.pdf",
        "ortsname": "Föhr (Nordwest)",
        "ortsquelle": "04_Foehr_Nord_West.pdf",
        "zuordnungsabstand_relativ": 0.838,
        "pdf_x_pt": 1869.078,
        "pdf_y_von_oben_pt": 1449.099,
        "koordinatenquelle": "eingebettete GeoPDF-Georeferenzierung",
        "lagehinweis": "kartografische Symbolposition; nicht vermessungstechnisch oder vor Ort bestätigt",
        "marker-color": "#1565c0",
        "marker-symbol": "fire-station",
        "marker-size": "medium",
        "title": "857 - Hydrant"
      }
    },
    {
      "type": "Feature",
      "id": "858",
      "geometry": {
        "type": "Point",
        "coordinates": [
          8.447667,
          54.721996
        ]
      },
      "properties": {
        "id": "858",
        "typ": "Hydrant",
        "menge_l_min": 1600,
        "quellkarte": "04_Foehr_Nord_West.pdf",
        "ortsname": "Föhr (Nordwest)",
        "ortsquelle": "04_Foehr_Nord_West.pdf",
        "zuordnungsabstand_relativ": 0.824,
        "pdf_x_pt": 1753.77,
        "pdf_y_von_oben_pt": 1602.786,
        "koordinatenquelle": "eingebettete GeoPDF-Georeferenzierung",
        "lagehinweis": "kartografische Symbolposition; nicht vermessungstechnisch oder vor Ort bestätigt",
        "marker-color": "#1565c0",
        "marker-symbol": "fire-station",
        "marker-size": "medium",
        "title": "858 - Hydrant"
      }
    },
    {
      "type": "Feature",
      "id": "859",
      "geometry": {
        "type": "Point",
        "coordinates": [
          8.444805,
          54.722655
        ]
      },
      "properties": {
        "id": "859",
        "typ": "Hydrant",
        "menge_l_min": 1600,
        "quellkarte": "04_Foehr_Nord_West.pdf",
        "ortsname": "Föhr (Nordwest)",
        "ortsquelle": "04_Foehr_Nord_West.pdf",
        "zuordnungsabstand_relativ": 1.082,
        "pdf_x_pt": 1659.072,
        "pdf_y_von_oben_pt": 1564.28,
        "koordinatenquelle": "eingebettete GeoPDF-Georeferenzierung",
        "lagehinweis": "kartografische Symbolposition; nicht vermessungstechnisch oder vor Ort bestätigt",
        "marker-color": "#1565c0",
        "marker-symbol": "fire-station",
        "marker-size": "medium",
        "title": "859 - Hydrant"
      }
    },
    {
      "type": "Feature",
      "id": "861",
      "geometry": {
        "type": "Point",
        "coordinates": [
          8.429896,
          54.728761
        ]
      },
      "properties": {
        "id": "861",
        "typ": "Hydrant",
        "menge_l_min": 1600,
        "quellkarte": "04_Foehr_Nord_West.pdf",
        "ortsname": "Föhr (Nordwest)",
        "ortsquelle": "04_Foehr_Nord_West.pdf",
        "zuordnungsabstand_relativ": 0.808,
        "pdf_x_pt": 1167.054,
        "pdf_y_von_oben_pt": 1210.191,
        "koordinatenquelle": "eingebettete GeoPDF-Georeferenzierung",
        "lagehinweis": "kartografische Symbolposition; nicht vermessungstechnisch oder vor Ort bestätigt",
        "marker-color": "#1565c0",
        "marker-symbol": "fire-station",
        "marker-size": "medium",
        "title": "861 - Hydrant"
      }
    },
    {
      "type": "Feature",
      "id": "862",
      "geometry": {
        "type": "Point",
        "coordinates": [
          8.442871,
          54.727076
        ]
      },
      "properties": {
        "id": "862",
        "typ": "Hydrant",
        "menge_l_min": 800,
        "quellkarte": "04_Foehr_Nord_West.pdf",
        "ortsname": "Föhr (Nordwest)",
        "ortsquelle": "04_Foehr_Nord_West.pdf",
        "zuordnungsabstand_relativ": 1.091,
        "pdf_x_pt": 1596.895,
        "pdf_y_von_oben_pt": 1310.225,
        "koordinatenquelle": "eingebettete GeoPDF-Georeferenzierung",
        "lagehinweis": "kartografische Symbolposition; nicht vermessungstechnisch oder vor Ort bestätigt",
        "marker-color": "#1565c0",
        "marker-symbol": "fire-station",
        "marker-size": "medium",
        "title": "862 - Hydrant"
      }
    },
    {
      "type": "Feature",
      "id": "863",
      "geometry": {
        "type": "Point",
        "coordinates": [
          8.440468,
          54.726781
        ]
      },
      "properties": {
        "id": "863",
        "typ": "Hydrant",
        "menge_l_min": 1600,
        "quellkarte": "04_Foehr_Nord_West.pdf",
        "ortsname": "Föhr (Nordwest)",
        "ortsquelle": "04_Foehr_Nord_West.pdf",
        "zuordnungsabstand_relativ": 0.796,
        "pdf_x_pt": 1517.022,
        "pdf_y_von_oben_pt": 1326.49,
        "koordinatenquelle": "eingebettete GeoPDF-Georeferenzierung",
        "lagehinweis": "kartografische Symbolposition; nicht vermessungstechnisch oder vor Ort bestätigt",
        "marker-color": "#1565c0",
        "marker-symbol": "fire-station",
        "marker-size": "medium",
        "title": "863 - Hydrant"
      }
    },
    {
      "type": "Feature",
      "id": "864",
      "geometry": {
        "type": "Point",
        "coordinates": [
          8.443592,
          54.726091
        ]
      },
      "properties": {
        "id": "864",
        "typ": "Saugstelle",
        "menge_l_min": null,
        "quellkarte": "04_Foehr_Nord_West.pdf",
        "ortsname": "Föhr (Nordwest)",
        "ortsquelle": "04_Foehr_Nord_West.pdf",
        "zuordnungsabstand_relativ": 1.1,
        "pdf_x_pt": 1620.381,
        "pdf_y_von_oben_pt": 1366.876,
        "koordinatenquelle": "eingebettete GeoPDF-Georeferenzierung",
        "lagehinweis": "kartografische Symbolposition; nicht vermessungstechnisch oder vor Ort bestätigt",
        "marker-color": "#00897b",
        "marker-symbol": "harbor",
        "marker-size": "medium",
        "title": "864 - Saugstelle"
      }
    },
    {
      "type": "Feature",
      "id": "865",
      "geometry": {
        "type": "Point",
        "coordinates": [
          8.442328,
          54.725954
        ]
      },
      "properties": {
        "id": "865",
        "typ": "Hydrant",
        "menge_l_min": 1600,
        "quellkarte": "04_Foehr_Nord_West.pdf",
        "ortsname": "Föhr (Nordwest)",
        "ortsquelle": "04_Foehr_Nord_West.pdf",
        "zuordnungsabstand_relativ": 1.27,
        "pdf_x_pt": 1578.383,
        "pdf_y_von_oben_pt": 1374.401,
        "koordinatenquelle": "eingebettete GeoPDF-Georeferenzierung",
        "lagehinweis": "kartografische Symbolposition; nicht vermessungstechnisch oder vor Ort bestätigt",
        "marker-color": "#1565c0",
        "marker-symbol": "fire-station",
        "marker-size": "medium",
        "title": "865 - Hydrant"
      }
    },
    {
      "type": "Feature",
      "id": "866",
      "geometry": {
        "type": "Point",
        "coordinates": [
          8.442112,
          54.725672
        ]
      },
      "properties": {
        "id": "866",
        "typ": "Hydrant",
        "menge_l_min": 1600,
        "quellkarte": "04_Foehr_Nord_West.pdf",
        "ortsname": "Föhr (Nordwest)",
        "ortsquelle": "04_Foehr_Nord_West.pdf",
        "zuordnungsabstand_relativ": 0.809,
        "pdf_x_pt": 1571.078,
        "pdf_y_von_oben_pt": 1390.522,
        "koordinatenquelle": "eingebettete GeoPDF-Georeferenzierung",
        "lagehinweis": "kartografische Symbolposition; nicht vermessungstechnisch oder vor Ort bestätigt",
        "marker-color": "#1565c0",
        "marker-symbol": "fire-station",
        "marker-size": "medium",
        "title": "866 - Hydrant"
      }
    },
    {
      "type": "Feature",
      "id": "867",
      "geometry": {
        "type": "Point",
        "coordinates": [
          8.443397,
          54.725463
        ]
      },
      "properties": {
        "id": "867",
        "typ": "Hydrant",
        "menge_l_min": 1600,
        "quellkarte": "04_Foehr_Nord_West.pdf",
        "ortsname": "Föhr (Nordwest)",
        "ortsquelle": "04_Foehr_Nord_West.pdf",
        "zuordnungsabstand_relativ": 0.772,
        "pdf_x_pt": 1613.624,
        "pdf_y_von_oben_pt": 1402.89,
        "koordinatenquelle": "eingebettete GeoPDF-Georeferenzierung",
        "lagehinweis": "kartografische Symbolposition; nicht vermessungstechnisch oder vor Ort bestätigt",
        "marker-color": "#1565c0",
        "marker-symbol": "fire-station",
        "marker-size": "medium",
        "title": "867 - Hydrant"
      }
    },
    {
      "type": "Feature",
      "id": "868",
      "geometry": {
        "type": "Point",
        "coordinates": [
          8.443333,
          54.724799
        ]
      },
      "properties": {
        "id": "868",
        "typ": "Hydrant",
        "menge_l_min": 800,
        "quellkarte": "04_Foehr_Nord_West.pdf",
        "ortsname": "Föhr (Nordwest)",
        "ortsquelle": "04_Foehr_Nord_West.pdf",
        "zuordnungsabstand_relativ": 0.853,
        "pdf_x_pt": 1611.18,
        "pdf_y_von_oben_pt": 1440.91,
        "koordinatenquelle": "eingebettete GeoPDF-Georeferenzierung",
        "lagehinweis": "kartografische Symbolposition; nicht vermessungstechnisch oder vor Ort bestätigt",
        "marker-color": "#1565c0",
        "marker-symbol": "fire-station",
        "marker-size": "medium",
        "title": "868 - Hydrant"
      }
    },
    {
      "type": "Feature",
      "id": "869",
      "geometry": {
        "type": "Point",
        "coordinates": [
          8.439507,
          54.725994
        ]
      },
      "properties": {
        "id": "869",
        "typ": "Hydrant",
        "menge_l_min": 800,
        "quellkarte": "04_Foehr_Nord_West.pdf",
        "ortsname": "Föhr (Nordwest)",
        "ortsquelle": "04_Foehr_Nord_West.pdf",
        "zuordnungsabstand_relativ": 1.191,
        "pdf_x_pt": 1484.764,
        "pdf_y_von_oben_pt": 1371.367,
        "koordinatenquelle": "eingebettete GeoPDF-Georeferenzierung",
        "lagehinweis": "kartografische Symbolposition; nicht vermessungstechnisch oder vor Ort bestätigt",
        "marker-color": "#1565c0",
        "marker-symbol": "fire-station",
        "marker-size": "medium",
        "title": "869 - Hydrant"
      }
    },
    {
      "type": "Feature",
      "id": "871",
      "geometry": {
        "type": "Point",
        "coordinates": [
          8.440732,
          54.724963
        ]
      },
      "properties": {
        "id": "871",
        "typ": "Hydrant",
        "menge_l_min": 1600,
        "quellkarte": "04_Foehr_Nord_West.pdf",
        "ortsname": "Föhr (Nordwest)",
        "ortsquelle": "04_Foehr_Nord_West.pdf",
        "zuordnungsabstand_relativ": 1.021,
        "pdf_x_pt": 1524.93,
        "pdf_y_von_oben_pt": 1430.824,
        "koordinatenquelle": "eingebettete GeoPDF-Georeferenzierung",
        "lagehinweis": "kartografische Symbolposition; nicht vermessungstechnisch oder vor Ort bestätigt",
        "marker-color": "#1565c0",
        "marker-symbol": "fire-station",
        "marker-size": "medium",
        "title": "871 - Hydrant"
      }
    },
    {
      "type": "Feature",
      "id": "872",
      "geometry": {
        "type": "Point",
        "coordinates": [
          8.439272,
          54.725086
        ]
      },
      "properties": {
        "id": "872",
        "typ": "Hydrant",
        "menge_l_min": 1600,
        "quellkarte": "04_Foehr_Nord_West.pdf",
        "ortsname": "Föhr (Nordwest)",
        "ortsquelle": "04_Foehr_Nord_West.pdf",
        "zuordnungsabstand_relativ": 1.146,
        "pdf_x_pt": 1476.519,
        "pdf_y_von_oben_pt": 1423.413,
        "koordinatenquelle": "eingebettete GeoPDF-Georeferenzierung",
        "lagehinweis": "kartografische Symbolposition; nicht vermessungstechnisch oder vor Ort bestätigt",
        "marker-color": "#1565c0",
        "marker-symbol": "fire-station",
        "marker-size": "medium",
        "title": "872 - Hydrant"
      }
    },
    {
      "type": "Feature",
      "id": "874",
      "geometry": {
        "type": "Point",
        "coordinates": [
          8.437937,
          54.722724
        ]
      },
      "properties": {
        "id": "874",
        "typ": "Hydrant",
        "menge_l_min": 1600,
        "quellkarte": "04_Foehr_Nord_West.pdf",
        "ortsname": "Föhr (Nordwest)",
        "ortsquelle": "04_Foehr_Nord_West.pdf",
        "zuordnungsabstand_relativ": 1.254,
        "pdf_x_pt": 1431.138,
        "pdf_y_von_oben_pt": 1558.52,
        "koordinatenquelle": "eingebettete GeoPDF-Georeferenzierung",
        "lagehinweis": "kartografische Symbolposition; nicht vermessungstechnisch oder vor Ort bestätigt",
        "marker-color": "#1565c0",
        "marker-symbol": "fire-station",
        "marker-size": "medium",
        "title": "874 - Hydrant"
      }
    },
    {
      "type": "Feature",
      "id": "875",
      "geometry": {
        "type": "Point",
        "coordinates": [
          8.436453,
          54.719658
        ]
      },
      "properties": {
        "id": "875",
        "typ": "Hydrant",
        "menge_l_min": 1600,
        "quellkarte": "04_Foehr_Nord_West.pdf",
        "ortsname": "Föhr (Nordwest)",
        "ortsquelle": "04_Foehr_Nord_West.pdf",
        "zuordnungsabstand_relativ": 0.819,
        "pdf_x_pt": 1380.45,
        "pdf_y_von_oben_pt": 1733.929,
        "koordinatenquelle": "eingebettete GeoPDF-Georeferenzierung",
        "lagehinweis": "kartografische Symbolposition; nicht vermessungstechnisch oder vor Ort bestätigt",
        "marker-color": "#1565c0",
        "marker-symbol": "fire-station",
        "marker-size": "medium",
        "title": "875 - Hydrant"
      }
    },
    {
      "type": "Feature",
      "id": "876",
      "geometry": {
        "type": "Point",
        "coordinates": [
          8.436153,
          54.719071
        ]
      },
      "properties": {
        "id": "876",
        "typ": "Hydrant",
        "menge_l_min": 1600,
        "quellkarte": "04_Foehr_Nord_West.pdf",
        "ortsname": "Föhr (Nordwest)",
        "ortsquelle": "04_Foehr_Nord_West.pdf",
        "zuordnungsabstand_relativ": 0.785,
        "pdf_x_pt": 1370.209,
        "pdf_y_von_oben_pt": 1767.502,
        "koordinatenquelle": "eingebettete GeoPDF-Georeferenzierung",
        "lagehinweis": "kartografische Symbolposition; nicht vermessungstechnisch oder vor Ort bestätigt",
        "marker-color": "#1565c0",
        "marker-symbol": "fire-station",
        "marker-size": "medium",
        "title": "876 - Hydrant"
      }
    },
    {
      "type": "Feature",
      "id": "877",
      "geometry": {
        "type": "Point",
        "coordinates": [
          8.435883,
          54.717405
        ]
      },
      "properties": {
        "id": "877",
        "typ": "Hydrant",
        "menge_l_min": 1600,
        "quellkarte": "04_Foehr_Nord_West.pdf",
        "ortsname": "Föhr (Nordwest)",
        "ortsquelle": "04_Foehr_Nord_West.pdf",
        "zuordnungsabstand_relativ": 0.836,
        "pdf_x_pt": 1360.481,
        "pdf_y_von_oben_pt": 1862.966,
        "koordinatenquelle": "eingebettete GeoPDF-Georeferenzierung",
        "lagehinweis": "kartografische Symbolposition; nicht vermessungstechnisch oder vor Ort bestätigt",
        "marker-color": "#1565c0",
        "marker-symbol": "fire-station",
        "marker-size": "medium",
        "title": "877 - Hydrant"
      }
    },
    {
      "type": "Feature",
      "id": "891",
      "geometry": {
        "type": "Point",
        "coordinates": [
          8.424744,
          54.729942
        ]
      },
      "properties": {
        "id": "891",
        "typ": "Hydrant",
        "menge_l_min": 1600,
        "quellkarte": "04_Foehr_Nord_West.pdf",
        "ortsname": "Föhr (Nordwest)",
        "ortsquelle": "04_Foehr_Nord_West.pdf",
        "zuordnungsabstand_relativ": 1.046,
        "pdf_x_pt": 996.614,
        "pdf_y_von_oben_pt": 1141.137,
        "koordinatenquelle": "eingebettete GeoPDF-Georeferenzierung",
        "lagehinweis": "kartografische Symbolposition; nicht vermessungstechnisch oder vor Ort bestätigt",
        "marker-color": "#1565c0",
        "marker-symbol": "fire-station",
        "marker-size": "medium",
        "title": "891 - Hydrant"
      }
    },
    {
      "type": "Feature",
      "id": "892",
      "geometry": {
        "type": "Point",
        "coordinates": [
          8.424997,
          54.730527
        ]
      },
      "properties": {
        "id": "892",
        "typ": "Hydrant",
        "menge_l_min": 1600,
        "quellkarte": "04_Foehr_Nord_West.pdf",
        "ortsname": "Föhr (Nordwest)",
        "ortsquelle": "04_Foehr_Nord_West.pdf",
        "zuordnungsabstand_relativ": 0.88,
        "pdf_x_pt": 1005.289,
        "pdf_y_von_oben_pt": 1107.657,
        "koordinatenquelle": "eingebettete GeoPDF-Georeferenzierung",
        "lagehinweis": "kartografische Symbolposition; nicht vermessungstechnisch oder vor Ort bestätigt",
        "marker-color": "#1565c0",
        "marker-symbol": "fire-station",
        "marker-size": "medium",
        "title": "892 - Hydrant"
      }
    },
    {
      "type": "Feature",
      "id": "893",
      "geometry": {
        "type": "Point",
        "coordinates": [
          8.425257,
          54.731066
        ]
      },
      "properties": {
        "id": "893",
        "typ": "Hydrant",
        "menge_l_min": 800,
        "quellkarte": "04_Foehr_Nord_West.pdf",
        "ortsname": "Föhr (Nordwest)",
        "ortsquelle": "04_Foehr_Nord_West.pdf",
        "zuordnungsabstand_relativ": 0.827,
        "pdf_x_pt": 1014.17,
        "pdf_y_von_oben_pt": 1076.769,
        "koordinatenquelle": "eingebettete GeoPDF-Georeferenzierung",
        "lagehinweis": "kartografische Symbolposition; nicht vermessungstechnisch oder vor Ort bestätigt",
        "marker-color": "#1565c0",
        "marker-symbol": "fire-station",
        "marker-size": "medium",
        "title": "893 - Hydrant"
      }
    },
    {
      "type": "Feature",
      "id": "894",
      "geometry": {
        "type": "Point",
        "coordinates": [
          8.425595,
          54.731708
        ]
      },
      "properties": {
        "id": "894",
        "typ": "Hydrant",
        "menge_l_min": 800,
        "quellkarte": "04_Foehr_Nord_West.pdf",
        "ortsname": "Föhr (Nordwest)",
        "ortsquelle": "04_Foehr_Nord_West.pdf",
        "zuordnungsabstand_relativ": 0.78,
        "pdf_x_pt": 1025.71,
        "pdf_y_von_oben_pt": 1040.087,
        "koordinatenquelle": "eingebettete GeoPDF-Georeferenzierung",
        "lagehinweis": "kartografische Symbolposition; nicht vermessungstechnisch oder vor Ort bestätigt",
        "marker-color": "#1565c0",
        "marker-symbol": "fire-station",
        "marker-size": "medium",
        "title": "894 - Hydrant"
      }
    },
    {
      "type": "Feature",
      "id": "895",
      "geometry": {
        "type": "Point",
        "coordinates": [
          8.42577,
          54.73203
        ]
      },
      "properties": {
        "id": "895",
        "typ": "Hydrant",
        "menge_l_min": 800,
        "quellkarte": "04_Foehr_Nord_West.pdf",
        "ortsname": "Föhr (Nordwest)",
        "ortsquelle": "04_Foehr_Nord_West.pdf",
        "zuordnungsabstand_relativ": 0.888,
        "pdf_x_pt": 1031.659,
        "pdf_y_von_oben_pt": 1021.631,
        "koordinatenquelle": "eingebettete GeoPDF-Georeferenzierung",
        "lagehinweis": "kartografische Symbolposition; nicht vermessungstechnisch oder vor Ort bestätigt",
        "marker-color": "#1565c0",
        "marker-symbol": "fire-station",
        "marker-size": "medium",
        "title": "895 - Hydrant"
      }
    },
    {
      "type": "Feature",
      "id": "897",
      "geometry": {
        "type": "Point",
        "coordinates": [
          8.418113,
          54.731207
        ]
      },
      "properties": {
        "id": "897",
        "typ": "Hydrant",
        "menge_l_min": 1600,
        "quellkarte": "04_Foehr_Nord_West.pdf",
        "ortsname": "Föhr (Nordwest)",
        "ortsquelle": "04_Foehr_Nord_West.pdf",
        "zuordnungsabstand_relativ": 0.81,
        "pdf_x_pt": 777.158,
        "pdf_y_von_oben_pt": 1066.842,
        "koordinatenquelle": "eingebettete GeoPDF-Georeferenzierung",
        "lagehinweis": "kartografische Symbolposition; nicht vermessungstechnisch oder vor Ort bestätigt",
        "marker-color": "#1565c0",
        "marker-symbol": "fire-station",
        "marker-size": "medium",
        "title": "897 - Hydrant"
      }
    },
    {
      "type": "Feature",
      "id": "898",
      "geometry": {
        "type": "Point",
        "coordinates": [
          8.414408,
          54.731678
        ]
      },
      "properties": {
        "id": "898",
        "typ": "Bohrbrunnen",
        "menge_l_min": null,
        "quellkarte": "04_Foehr_Nord_West.pdf",
        "ortsname": "Föhr (Nordwest)",
        "ortsquelle": "04_Foehr_Nord_West.pdf",
        "zuordnungsabstand_relativ": 0.991,
        "pdf_x_pt": 654.427,
        "pdf_y_von_oben_pt": 1038.823,
        "koordinatenquelle": "eingebettete GeoPDF-Georeferenzierung",
        "lagehinweis": "kartografische Symbolposition; nicht vermessungstechnisch oder vor Ort bestätigt",
        "marker-color": "#f9a825",
        "marker-symbol": "water",
        "marker-size": "medium",
        "title": "898 - Bohrbrunnen"
      }
    },
    {
      "type": "Feature",
      "id": "899",
      "geometry": {
        "type": "Point",
        "coordinates": [
          8.414561,
          54.731491
        ]
      },
      "properties": {
        "id": "899",
        "typ": "Hydrant",
        "menge_l_min": 1600,
        "quellkarte": "04_Foehr_Nord_West.pdf",
        "ortsname": "Föhr (Nordwest)",
        "ortsquelle": "04_Foehr_Nord_West.pdf",
        "zuordnungsabstand_relativ": 0.795,
        "pdf_x_pt": 659.414,
        "pdf_y_von_oben_pt": 1049.624,
        "koordinatenquelle": "eingebettete GeoPDF-Georeferenzierung",
        "lagehinweis": "kartografische Symbolposition; nicht vermessungstechnisch oder vor Ort bestätigt",
        "marker-color": "#1565c0",
        "marker-symbol": "fire-station",
        "marker-size": "medium",
        "title": "899 - Hydrant"
      }
    },
    {
      "type": "Feature",
      "id": "901",
      "geometry": {
        "type": "Point",
        "coordinates": [
          8.414212,
          54.729748
        ]
      },
      "properties": {
        "id": "901",
        "typ": "Hydrant",
        "menge_l_min": 1600,
        "quellkarte": "04_Foehr_Nord_West.pdf",
        "ortsname": "Föhr (Nordwest)",
        "ortsquelle": "04_Foehr_Nord_West.pdf",
        "zuordnungsabstand_relativ": 0.793,
        "pdf_x_pt": 647.002,
        "pdf_y_von_oben_pt": 1149.477,
        "koordinatenquelle": "eingebettete GeoPDF-Georeferenzierung",
        "lagehinweis": "kartografische Symbolposition; nicht vermessungstechnisch oder vor Ort bestätigt",
        "marker-color": "#1565c0",
        "marker-symbol": "fire-station",
        "marker-size": "medium",
        "title": "901 - Hydrant"
      }
    },
    {
      "type": "Feature",
      "id": "902",
      "geometry": {
        "type": "Point",
        "coordinates": [
          8.412678,
          54.727003
        ]
      },
      "properties": {
        "id": "902",
        "typ": "Saugstelle",
        "menge_l_min": null,
        "quellkarte": "04_Foehr_Nord_West.pdf",
        "ortsname": "Föhr (Nordwest)",
        "ortsquelle": "04_Foehr_Nord_West.pdf",
        "zuordnungsabstand_relativ": 1.093,
        "pdf_x_pt": 594.779,
        "pdf_y_von_oben_pt": 1306.5,
        "koordinatenquelle": "eingebettete GeoPDF-Georeferenzierung",
        "lagehinweis": "kartografische Symbolposition; nicht vermessungstechnisch oder vor Ort bestätigt",
        "marker-color": "#00897b",
        "marker-symbol": "harbor",
        "marker-size": "medium",
        "title": "902 - Saugstelle"
      }
    },
    {
      "type": "Feature",
      "id": "906",
      "geometry": {
        "type": "Point",
        "coordinates": [
          8.411732,
          54.724443
        ]
      },
      "properties": {
        "id": "906",
        "typ": "Hydrant",
        "menge_l_min": 1600,
        "quellkarte": "04_Foehr_Nord_West.pdf",
        "ortsname": "Föhr (Nordwest)",
        "ortsquelle": "04_Foehr_Nord_West.pdf",
        "zuordnungsabstand_relativ": 1.037,
        "pdf_x_pt": 562.122,
        "pdf_y_von_oben_pt": 1453.084,
        "koordinatenquelle": "eingebettete GeoPDF-Georeferenzierung",
        "lagehinweis": "kartografische Symbolposition; nicht vermessungstechnisch oder vor Ort bestätigt",
        "marker-color": "#1565c0",
        "marker-symbol": "fire-station",
        "marker-size": "medium",
        "title": "906 - Hydrant"
      }
    },
    {
      "type": "Feature",
      "id": "907",
      "geometry": {
        "type": "Point",
        "coordinates": [
          8.410977,
          54.719565
        ]
      },
      "properties": {
        "id": "907",
        "typ": "Hydrant",
        "menge_l_min": 1600,
        "quellkarte": "04_Foehr_Nord_West.pdf",
        "ortsname": "Föhr (Nordwest)",
        "ortsquelle": "04_Foehr_Nord_West.pdf",
        "zuordnungsabstand_relativ": 0.826,
        "pdf_x_pt": 534.716,
        "pdf_y_von_oben_pt": 1732.621,
        "koordinatenquelle": "eingebettete GeoPDF-Georeferenzierung",
        "lagehinweis": "kartografische Symbolposition; nicht vermessungstechnisch oder vor Ort bestätigt",
        "marker-color": "#1565c0",
        "marker-symbol": "fire-station",
        "marker-size": "medium",
        "title": "907 - Hydrant"
      }
    },
    {
      "type": "Feature",
      "id": "908",
      "geometry": {
        "type": "Point",
        "coordinates": [
          8.407768,
          54.715928
        ]
      },
      "properties": {
        "id": "908",
        "typ": "Hydrant",
        "menge_l_min": 1600,
        "quellkarte": "04_Foehr_Nord_West.pdf",
        "ortsname": "Föhr (Nordwest)",
        "ortsquelle": "04_Foehr_Nord_West.pdf",
        "zuordnungsabstand_relativ": 0.836,
        "pdf_x_pt": 426.406,
        "pdf_y_von_oben_pt": 1940.374,
        "koordinatenquelle": "eingebettete GeoPDF-Georeferenzierung",
        "lagehinweis": "kartografische Symbolposition; nicht vermessungstechnisch oder vor Ort bestätigt",
        "marker-color": "#1565c0",
        "marker-symbol": "fire-station",
        "marker-size": "medium",
        "title": "908 - Hydrant"
      }
    },
    {
      "type": "Feature",
      "id": "909",
      "geometry": {
        "type": "Point",
        "coordinates": [
          8.407471,
          54.715625
        ]
      },
      "properties": {
        "id": "909",
        "typ": "Hydrant",
        "menge_l_min": 1600,
        "quellkarte": "04_Foehr_Nord_West.pdf",
        "ortsname": "Föhr (Nordwest)",
        "ortsquelle": "04_Foehr_Nord_West.pdf",
        "zuordnungsabstand_relativ": 0.843,
        "pdf_x_pt": 416.431,
        "pdf_y_von_oben_pt": 1957.665,
        "koordinatenquelle": "eingebettete GeoPDF-Georeferenzierung",
        "lagehinweis": "kartografische Symbolposition; nicht vermessungstechnisch oder vor Ort bestätigt",
        "marker-color": "#1565c0",
        "marker-symbol": "fire-station",
        "marker-size": "medium",
        "title": "909 - Hydrant"
      }
    },
    {
      "type": "Feature",
      "id": "911",
      "geometry": {
        "type": "Point",
        "coordinates": [
          8.403092,
          54.715661
        ]
      },
      "properties": {
        "id": "911",
        "typ": "Hydrant",
        "menge_l_min": 400,
        "quellkarte": "04_Foehr_Nord_West.pdf",
        "ortsname": "Föhr (Nordwest)",
        "ortsquelle": "04_Foehr_Nord_West.pdf",
        "zuordnungsabstand_relativ": 0.806,
        "pdf_x_pt": 271.043,
        "pdf_y_von_oben_pt": 1954.411,
        "koordinatenquelle": "eingebettete GeoPDF-Georeferenzierung",
        "lagehinweis": "kartografische Symbolposition; nicht vermessungstechnisch oder vor Ort bestätigt",
        "marker-color": "#1565c0",
        "marker-symbol": "fire-station",
        "marker-size": "medium",
        "title": "911 - Hydrant"
      }
    },
    {
      "type": "Feature",
      "id": "913",
      "geometry": {
        "type": "Point",
        "coordinates": [
          8.404228,
          54.715436
        ]
      },
      "properties": {
        "id": "913",
        "typ": "E-Bohrbrunnen",
        "menge_l_min": null,
        "quellkarte": "04_Foehr_Nord_West.pdf",
        "ortsname": "Föhr (Nordwest)",
        "ortsquelle": "04_Foehr_Nord_West.pdf",
        "zuordnungsabstand_relativ": 0.591,
        "pdf_x_pt": 308.643,
        "pdf_y_von_oben_pt": 1967.638,
        "koordinatenquelle": "eingebettete GeoPDF-Georeferenzierung",
        "lagehinweis": "kartografische Symbolposition; nicht vermessungstechnisch oder vor Ort bestätigt",
        "marker-color": "#8e24aa",
        "marker-symbol": "industrial",
        "marker-size": "medium",
        "title": "913 - E-Bohrbrunnen"
      }
    },
    {
      "type": "Feature",
      "id": "914",
      "geometry": {
        "type": "Point",
        "coordinates": [
          8.404065,
          54.714743
        ]
      },
      "properties": {
        "id": "914",
        "typ": "Hydrant",
        "menge_l_min": 1600,
        "quellkarte": "04_Foehr_Nord_West.pdf",
        "ortsname": "Föhr (Nordwest)",
        "ortsquelle": "04_Foehr_Nord_West.pdf",
        "zuordnungsabstand_relativ": 0.995,
        "pdf_x_pt": 302.913,
        "pdf_y_von_oben_pt": 2007.355,
        "koordinatenquelle": "eingebettete GeoPDF-Georeferenzierung",
        "lagehinweis": "kartografische Symbolposition; nicht vermessungstechnisch oder vor Ort bestätigt",
        "marker-color": "#1565c0",
        "marker-symbol": "fire-station",
        "marker-size": "medium",
        "title": "914 - Hydrant"
      }
    },
    {
      "type": "Feature",
      "id": "915",
      "geometry": {
        "type": "Point",
        "coordinates": [
          8.406937,
          54.714622
        ]
      },
      "properties": {
        "id": "915",
        "typ": "E-Bohrbrunnen",
        "menge_l_min": null,
        "quellkarte": "04_Foehr_Nord_West.pdf",
        "ortsname": "Föhr (Nordwest)",
        "ortsquelle": "04_Foehr_Nord_West.pdf",
        "zuordnungsabstand_relativ": 1.232,
        "pdf_x_pt": 398.206,
        "pdf_y_von_oben_pt": 2015.027,
        "koordinatenquelle": "eingebettete GeoPDF-Georeferenzierung",
        "lagehinweis": "kartografische Symbolposition; nicht vermessungstechnisch oder vor Ort bestätigt",
        "marker-color": "#8e24aa",
        "marker-symbol": "industrial",
        "marker-size": "medium",
        "title": "915 - E-Bohrbrunnen"
      }
    },
    {
      "type": "Feature",
      "id": "916",
      "geometry": {
        "type": "Point",
        "coordinates": [
          8.407227,
          54.714544
        ]
      },
      "properties": {
        "id": "916",
        "typ": "Bohrbrunnen",
        "menge_l_min": null,
        "quellkarte": "04_Foehr_Nord_West.pdf",
        "ortsname": "Föhr (Nordwest)",
        "ortsquelle": "04_Foehr_Nord_West.pdf",
        "zuordnungsabstand_relativ": 0.945,
        "pdf_x_pt": 407.78,
        "pdf_y_von_oben_pt": 2019.584,
        "koordinatenquelle": "eingebettete GeoPDF-Georeferenzierung",
        "lagehinweis": "kartografische Symbolposition; nicht vermessungstechnisch oder vor Ort bestätigt",
        "marker-color": "#f9a825",
        "marker-symbol": "water",
        "marker-size": "medium",
        "title": "916 - Bohrbrunnen"
      }
    },
    {
      "type": "Feature",
      "id": "918",
      "geometry": {
        "type": "Point",
        "coordinates": [
          8.403786,
          54.713835
        ]
      },
      "properties": {
        "id": "918",
        "typ": "Hydrant",
        "menge_l_min": 1600,
        "quellkarte": "04_Foehr_Nord_West.pdf",
        "ortsname": "Föhr (Nordwest)",
        "ortsquelle": "04_Foehr_Nord_West.pdf",
        "zuordnungsabstand_relativ": 1.005,
        "pdf_x_pt": 293.198,
        "pdf_y_von_oben_pt": 2059.312,
        "koordinatenquelle": "eingebettete GeoPDF-Georeferenzierung",
        "lagehinweis": "kartografische Symbolposition; nicht vermessungstechnisch oder vor Ort bestätigt",
        "marker-color": "#1565c0",
        "marker-symbol": "fire-station",
        "marker-size": "medium",
        "title": "918 - Hydrant"
      }
    },
    {
      "type": "Feature",
      "id": "919",
      "geometry": {
        "type": "Point",
        "coordinates": [
          8.406605,
          54.713784
        ]
      },
      "properties": {
        "id": "919",
        "typ": "Hydrant",
        "menge_l_min": 1600,
        "quellkarte": "04_Foehr_Nord_West.pdf",
        "ortsname": "Föhr (Nordwest)",
        "ortsquelle": "04_Foehr_Nord_West.pdf",
        "zuordnungsabstand_relativ": 0.818,
        "pdf_x_pt": 386.777,
        "pdf_y_von_oben_pt": 2062.991,
        "koordinatenquelle": "eingebettete GeoPDF-Georeferenzierung",
        "lagehinweis": "kartografische Symbolposition; nicht vermessungstechnisch oder vor Ort bestätigt",
        "marker-color": "#1565c0",
        "marker-symbol": "fire-station",
        "marker-size": "medium",
        "title": "919 - Hydrant"
      }
    },
    {
      "type": "Feature",
      "id": "921",
      "geometry": {
        "type": "Point",
        "coordinates": [
          8.406471,
          54.711889
        ]
      },
      "properties": {
        "id": "921",
        "typ": "Hydrant",
        "menge_l_min": 1600,
        "quellkarte": "04_Foehr_Nord_West.pdf",
        "ortsname": "Föhr (Nordwest)",
        "ortsquelle": "04_Foehr_Nord_West.pdf",
        "zuordnungsabstand_relativ": 0.829,
        "pdf_x_pt": 381.401,
        "pdf_y_von_oben_pt": 2171.627,
        "koordinatenquelle": "eingebettete GeoPDF-Georeferenzierung",
        "lagehinweis": "kartografische Symbolposition; nicht vermessungstechnisch oder vor Ort bestätigt",
        "marker-color": "#1565c0",
        "marker-symbol": "fire-station",
        "marker-size": "medium",
        "title": "921 - Hydrant"
      }
    },
    {
      "type": "Feature",
      "id": "922",
      "geometry": {
        "type": "Point",
        "coordinates": [
          8.405166,
          54.712012
        ]
      },
      "properties": {
        "id": "922",
        "typ": "Hydrant",
        "menge_l_min": 1600,
        "quellkarte": "04_Foehr_Nord_West.pdf",
        "ortsname": "Föhr (Nordwest)",
        "ortsquelle": "04_Foehr_Nord_West.pdf",
        "zuordnungsabstand_relativ": 0.751,
        "pdf_x_pt": 338.143,
        "pdf_y_von_oben_pt": 2164.265,
        "koordinatenquelle": "eingebettete GeoPDF-Georeferenzierung",
        "lagehinweis": "kartografische Symbolposition; nicht vermessungstechnisch oder vor Ort bestätigt",
        "marker-color": "#1565c0",
        "marker-symbol": "fire-station",
        "marker-size": "medium",
        "title": "922 - Hydrant"
      }
    },
    {
      "type": "Feature",
      "id": "923",
      "geometry": {
        "type": "Point",
        "coordinates": [
          8.404931,
          54.712349
        ]
      },
      "properties": {
        "id": "923",
        "typ": "Hydrant",
        "menge_l_min": 1600,
        "quellkarte": "04_Foehr_Nord_West.pdf",
        "ortsname": "Föhr (Nordwest)",
        "ortsquelle": "04_Foehr_Nord_West.pdf",
        "zuordnungsabstand_relativ": 0.885,
        "pdf_x_pt": 330.484,
        "pdf_y_von_oben_pt": 2144.88,
        "koordinatenquelle": "eingebettete GeoPDF-Georeferenzierung",
        "lagehinweis": "kartografische Symbolposition; nicht vermessungstechnisch oder vor Ort bestätigt",
        "marker-color": "#1565c0",
        "marker-symbol": "fire-station",
        "marker-size": "medium",
        "title": "923 - Hydrant"
      }
    },
    {
      "type": "Feature",
      "id": "924",
      "geometry": {
        "type": "Point",
        "coordinates": [
          8.403979,
          54.712308
        ]
      },
      "properties": {
        "id": "924",
        "typ": "Hydrant",
        "menge_l_min": 1600,
        "quellkarte": "04_Foehr_Nord_West.pdf",
        "ortsname": "Föhr (Nordwest)",
        "ortsquelle": "04_Foehr_Nord_West.pdf",
        "zuordnungsabstand_relativ": 0.901,
        "pdf_x_pt": 298.851,
        "pdf_y_von_oben_pt": 2146.975,
        "koordinatenquelle": "eingebettete GeoPDF-Georeferenzierung",
        "lagehinweis": "kartografische Symbolposition; nicht vermessungstechnisch oder vor Ort bestätigt",
        "marker-color": "#1565c0",
        "marker-symbol": "fire-station",
        "marker-size": "medium",
        "title": "924 - Hydrant"
      }
    },
    {
      "type": "Feature",
      "id": "925",
      "geometry": {
        "type": "Point",
        "coordinates": [
          8.402813,
          54.712198
        ]
      },
      "properties": {
        "id": "925",
        "typ": "Hydrant",
        "menge_l_min": 1600,
        "quellkarte": "04_Foehr_Nord_West.pdf",
        "ortsname": "Föhr (Nordwest)",
        "ortsquelle": "04_Foehr_Nord_West.pdf",
        "zuordnungsabstand_relativ": 1.048,
        "pdf_x_pt": 260.112,
        "pdf_y_von_oben_pt": 2152.944,
        "koordinatenquelle": "eingebettete GeoPDF-Georeferenzierung",
        "lagehinweis": "kartografische Symbolposition; nicht vermessungstechnisch oder vor Ort bestätigt",
        "marker-color": "#1565c0",
        "marker-symbol": "fire-station",
        "marker-size": "medium",
        "title": "925 - Hydrant"
      }
    },
    {
      "type": "Feature",
      "id": "926",
      "geometry": {
        "type": "Point",
        "coordinates": [
          8.398549,
          54.712772
        ]
      },
      "properties": {
        "id": "926",
        "typ": "Hydrant",
        "menge_l_min": 1600,
        "quellkarte": "04_Foehr_Nord_West.pdf",
        "ortsname": "Föhr (Nordwest)",
        "ortsquelle": "04_Foehr_Nord_West.pdf",
        "zuordnungsabstand_relativ": 0.774,
        "pdf_x_pt": 118.803,
        "pdf_y_von_oben_pt": 2118.944,
        "koordinatenquelle": "eingebettete GeoPDF-Georeferenzierung",
        "lagehinweis": "kartografische Symbolposition; nicht vermessungstechnisch oder vor Ort bestätigt",
        "marker-color": "#1565c0",
        "marker-symbol": "fire-station",
        "marker-size": "medium",
        "title": "926 - Hydrant"
      }
    },
    {
      "type": "Feature",
      "id": "927",
      "geometry": {
        "type": "Point",
        "coordinates": [
          8.397285,
          54.713594
        ]
      },
      "properties": {
        "id": "927",
        "typ": "Hydrant",
        "menge_l_min": 800,
        "quellkarte": "04_Foehr_Nord_West.pdf",
        "ortsname": "Föhr (Nordwest)",
        "ortsquelle": "04_Foehr_Nord_West.pdf",
        "zuordnungsabstand_relativ": 0.824,
        "pdf_x_pt": 77.238,
        "pdf_y_von_oben_pt": 2071.489,
        "koordinatenquelle": "eingebettete GeoPDF-Georeferenzierung",
        "lagehinweis": "kartografische Symbolposition; nicht vermessungstechnisch oder vor Ort bestätigt",
        "marker-color": "#1565c0",
        "marker-symbol": "fire-station",
        "marker-size": "medium",
        "title": "927 - Hydrant"
      }
    },
    {
      "type": "Feature",
      "id": "928",
      "geometry": {
        "type": "Point",
        "coordinates": [
          8.398331,
          54.71111
        ]
      },
      "properties": {
        "id": "928",
        "typ": "Hydrant",
        "menge_l_min": 1600,
        "quellkarte": "04_Foehr_Nord_West.pdf",
        "ortsname": "Föhr (Nordwest)",
        "ortsquelle": "04_Foehr_Nord_West.pdf",
        "zuordnungsabstand_relativ": 0.868,
        "pdf_x_pt": 110.744,
        "pdf_y_von_oben_pt": 2214.171,
        "koordinatenquelle": "eingebettete GeoPDF-Georeferenzierung",
        "lagehinweis": "kartografische Symbolposition; nicht vermessungstechnisch oder vor Ort bestätigt",
        "marker-color": "#1565c0",
        "marker-symbol": "fire-station",
        "marker-size": "medium",
        "title": "928 - Hydrant"
      }
    },
    {
      "type": "Feature",
      "id": "929",
      "geometry": {
        "type": "Point",
        "coordinates": [
          8.397579,
          54.709678
        ]
      },
      "properties": {
        "id": "929",
        "typ": "Hydrant",
        "menge_l_min": 1600,
        "quellkarte": "04_Foehr_Nord_West.pdf",
        "ortsname": "Föhr (Nordwest)",
        "ortsquelle": "04_Foehr_Nord_West.pdf",
        "zuordnungsabstand_relativ": 0.828,
        "pdf_x_pt": 85.087,
        "pdf_y_von_oben_pt": 2296.147,
        "koordinatenquelle": "eingebettete GeoPDF-Georeferenzierung",
        "lagehinweis": "kartografische Symbolposition; nicht vermessungstechnisch oder vor Ort bestätigt",
        "marker-color": "#1565c0",
        "marker-symbol": "fire-station",
        "marker-size": "medium",
        "title": "929 - Hydrant"
      }
    },
    {
      "type": "Feature",
      "id": "931",
      "geometry": {
        "type": "Point",
        "coordinates": [
          8.404521,
          54.709814
        ]
      },
      "properties": {
        "id": "931",
        "typ": "Hydrant",
        "menge_l_min": 1600,
        "quellkarte": "04_Foehr_Nord_West.pdf",
        "ortsname": "Föhr (Nordwest)",
        "ortsquelle": "04_Foehr_Nord_West.pdf",
        "zuordnungsabstand_relativ": 0.826,
        "pdf_x_pt": 315.649,
        "pdf_y_von_oben_pt": 2290.148,
        "koordinatenquelle": "eingebettete GeoPDF-Georeferenzierung",
        "lagehinweis": "kartografische Symbolposition; nicht vermessungstechnisch oder vor Ort bestätigt",
        "marker-color": "#1565c0",
        "marker-symbol": "fire-station",
        "marker-size": "medium",
        "title": "931 - Hydrant"
      }
    },
    {
      "type": "Feature",
      "id": "932",
      "geometry": {
        "type": "Point",
        "coordinates": [
          8.401224,
          54.709405
        ]
      },
      "properties": {
        "id": "932",
        "typ": "Hydrant",
        "menge_l_min": 1600,
        "quellkarte": "04_Foehr_Nord_West.pdf",
        "ortsname": "Föhr (Nordwest)",
        "ortsquelle": "04_Foehr_Nord_West.pdf",
        "zuordnungsabstand_relativ": 0.815,
        "pdf_x_pt": 205.977,
        "pdf_y_von_oben_pt": 2312.714,
        "koordinatenquelle": "eingebettete GeoPDF-Georeferenzierung",
        "lagehinweis": "kartografische Symbolposition; nicht vermessungstechnisch oder vor Ort bestätigt",
        "marker-color": "#1565c0",
        "marker-symbol": "fire-station",
        "marker-size": "medium",
        "title": "932 - Hydrant"
      }
    },
    {
      "type": "Feature",
      "id": "933",
      "geometry": {
        "type": "Point",
        "coordinates": [
          8.405889,
          54.709345
        ]
      },
      "properties": {
        "id": "933",
        "typ": "Hydrant",
        "menge_l_min": 1600,
        "quellkarte": "04_Foehr_Nord_West.pdf",
        "ortsname": "Föhr (Nordwest)",
        "ortsquelle": "04_Foehr_Nord_West.pdf",
        "zuordnungsabstand_relativ": 0.902,
        "pdf_x_pt": 360.84,
        "pdf_y_von_oben_pt": 2317.381,
        "koordinatenquelle": "eingebettete GeoPDF-Georeferenzierung",
        "lagehinweis": "kartografische Symbolposition; nicht vermessungstechnisch oder vor Ort bestätigt",
        "marker-color": "#1565c0",
        "marker-symbol": "fire-station",
        "marker-size": "medium",
        "title": "933 - Hydrant"
      }
    },
    {
      "type": "Feature",
      "id": "934",
      "geometry": {
        "type": "Point",
        "coordinates": [
          8.402785,
          54.708774
        ]
      },
      "properties": {
        "id": "934",
        "typ": "Hydrant",
        "menge_l_min": 1600,
        "quellkarte": "04_Foehr_Nord_West.pdf",
        "ortsname": "Föhr (Nordwest)",
        "ortsquelle": "04_Foehr_Nord_West.pdf",
        "zuordnungsabstand_relativ": 1.061,
        "pdf_x_pt": 257.491,
        "pdf_y_von_oben_pt": 2349.343,
        "koordinatenquelle": "eingebettete GeoPDF-Georeferenzierung",
        "lagehinweis": "kartografische Symbolposition; nicht vermessungstechnisch oder vor Ort bestätigt",
        "marker-color": "#1565c0",
        "marker-symbol": "fire-station",
        "marker-size": "medium",
        "title": "934 - Hydrant"
      }
    },
    {
      "type": "Feature",
      "id": "935",
      "geometry": {
        "type": "Point",
        "coordinates": [
          8.403444,
          54.708813
        ]
      },
      "properties": {
        "id": "935",
        "typ": "E-Bohrbrunnen",
        "menge_l_min": null,
        "quellkarte": "04_Foehr_Nord_West.pdf",
        "ortsname": "Föhr (Nordwest)",
        "ortsquelle": "04_Foehr_Nord_West.pdf",
        "zuordnungsabstand_relativ": 0.974,
        "pdf_x_pt": 279.405,
        "pdf_y_von_oben_pt": 2347.252,
        "koordinatenquelle": "eingebettete GeoPDF-Georeferenzierung",
        "lagehinweis": "kartografische Symbolposition; nicht vermessungstechnisch oder vor Ort bestätigt",
        "marker-color": "#8e24aa",
        "marker-symbol": "industrial",
        "marker-size": "medium",
        "title": "935 - E-Bohrbrunnen"
      }
    },
    {
      "type": "Feature",
      "id": "936",
      "geometry": {
        "type": "Point",
        "coordinates": [
          8.404084,
          54.70875
        ]
      },
      "properties": {
        "id": "936",
        "typ": "Hydrant",
        "menge_l_min": 1600,
        "quellkarte": "04_Foehr_Nord_West.pdf",
        "ortsname": "Föhr (Nordwest)",
        "ortsquelle": "04_Foehr_Nord_West.pdf",
        "zuordnungsabstand_relativ": 0.811,
        "pdf_x_pt": 300.602,
        "pdf_y_von_oben_pt": 2351.031,
        "koordinatenquelle": "eingebettete GeoPDF-Georeferenzierung",
        "lagehinweis": "kartografische Symbolposition; nicht vermessungstechnisch oder vor Ort bestätigt",
        "marker-color": "#1565c0",
        "marker-symbol": "fire-station",
        "marker-size": "medium",
        "title": "936 - Hydrant"
      }
    },
    {
      "type": "Feature",
      "id": "937",
      "geometry": {
        "type": "Point",
        "coordinates": [
          8.400995,
          54.708429
        ]
      },
      "properties": {
        "id": "937",
        "typ": "Hydrant",
        "menge_l_min": 1600,
        "quellkarte": "04_Foehr_Nord_West.pdf",
        "ortsname": "Föhr (Nordwest)",
        "ortsquelle": "04_Foehr_Nord_West.pdf",
        "zuordnungsabstand_relativ": 0.8,
        "pdf_x_pt": 197.884,
        "pdf_y_von_oben_pt": 2368.661,
        "koordinatenquelle": "eingebettete GeoPDF-Georeferenzierung",
        "lagehinweis": "kartografische Symbolposition; nicht vermessungstechnisch oder vor Ort bestätigt",
        "marker-color": "#1565c0",
        "marker-symbol": "fire-station",
        "marker-size": "medium",
        "title": "937 - Hydrant"
      }
    },
    {
      "type": "Feature",
      "id": "954",
      "geometry": {
        "type": "Point",
        "coordinates": [
          8.422043,
          54.716134
        ]
      },
      "properties": {
        "id": "954",
        "typ": "Hydrant",
        "menge_l_min": 800,
        "quellkarte": "04_Foehr_Nord_West.pdf",
        "ortsname": "Föhr (Nordwest)",
        "ortsquelle": "04_Foehr_Nord_West.pdf",
        "zuordnungsabstand_relativ": 1.208,
        "pdf_x_pt": 900.436,
        "pdf_y_von_oben_pt": 1932.256,
        "koordinatenquelle": "eingebettete GeoPDF-Georeferenzierung",
        "lagehinweis": "kartografische Symbolposition; nicht vermessungstechnisch oder vor Ort bestätigt",
        "marker-color": "#1565c0",
        "marker-symbol": "fire-station",
        "marker-size": "medium",
        "title": "954 - Hydrant"
      }
    },
    {
      "type": "Feature",
      "id": "955",
      "geometry": {
        "type": "Point",
        "coordinates": [
          8.425567,
          54.716156
        ]
      },
      "properties": {
        "id": "955",
        "typ": "Hydrant",
        "menge_l_min": 800,
        "quellkarte": "04_Foehr_Nord_West.pdf",
        "ortsname": "Föhr (Nordwest)",
        "ortsquelle": "04_Foehr_Nord_West.pdf",
        "zuordnungsabstand_relativ": 0.84,
        "pdf_x_pt": 1017.418,
        "pdf_y_von_oben_pt": 1931.899,
        "koordinatenquelle": "eingebettete GeoPDF-Georeferenzierung",
        "lagehinweis": "kartografische Symbolposition; nicht vermessungstechnisch oder vor Ort bestätigt",
        "marker-color": "#1565c0",
        "marker-symbol": "fire-station",
        "marker-size": "medium",
        "title": "955 - Hydrant"
      }
    }
  ]
}