{
  "type": "FeatureCollection",
  "name": "Alkersum_Dorf",
  "features": [
    {
      "type": "Feature",
      "id": "556",
      "geometry": {
        "type": "Point",
        "coordinates": [
          8.518485,
          54.712194
        ]
      },
      "properties": {
        "id": "556",
        "typ": "Hydrant",
        "menge_l_min": 1600,
        "quellkarte": "Alkersum_Dorf.pdf",
        "ortsname": "Alkersum",
        "ortsquelle": "Alkersum_Dorf.pdf",
        "zuordnungsabstand_relativ": 1.196,
        "pdf_x_pt": 820.103,
        "pdf_y_von_oben_pt": 60.325,
        "koordinatenquelle": "eingebettete GeoPDF-Georeferenzierung",
        "lagehinweis": "kartografische Symbolposition; nicht vermessungstechnisch oder vor Ort bestätigt",
        "marker-color": "#1565c0",
        "marker-symbol": "fire-station",
        "marker-size": "medium",
        "title": "556 - Hydrant"
      }
    },
    {
      "type": "Feature",
      "id": "557",
      "geometry": {
        "type": "Point",
        "coordinates": [
          8.517126,
          54.712395
        ]
      },
      "properties": {
        "id": "557",
        "typ": "Hydrant",
        "menge_l_min": 1600,
        "quellkarte": "Alkersum_Dorf.pdf",
        "ortsname": "Alkersum",
        "ortsquelle": "Alkersum_Dorf.pdf",
        "zuordnungsabstand_relativ": 0.923,
        "pdf_x_pt": 770.547,
        "pdf_y_von_oben_pt": 47.246,
        "koordinatenquelle": "eingebettete GeoPDF-Georeferenzierung",
        "lagehinweis": "kartografische Symbolposition; nicht vermessungstechnisch oder vor Ort bestätigt",
        "marker-color": "#1565c0",
        "marker-symbol": "fire-station",
        "marker-size": "medium",
        "title": "557 - Hydrant"
      }
    },
    {
      "type": "Feature",
      "id": "567",
      "geometry": {
        "type": "Point",
        "coordinates": [
          8.510604,
          54.708833
        ]
      },
      "properties": {
        "id": "567",
        "typ": "Hydrant",
        "menge_l_min": 1600,
        "quellkarte": "Alkersum_Dorf.pdf",
        "ortsname": "Alkersum",
        "ortsquelle": "Alkersum_Dorf.pdf",
        "zuordnungsabstand_relativ": 0.846,
        "pdf_x_pt": 530.735,
        "pdf_y_von_oben_pt": 270.244,
        "koordinatenquelle": "eingebettete GeoPDF-Georeferenzierung",
        "lagehinweis": "kartografische Symbolposition; nicht vermessungstechnisch oder vor Ort bestätigt",
        "marker-color": "#1565c0",
        "marker-symbol": "fire-station",
        "marker-size": "medium",
        "title": "567 - Hydrant"
      }
    },
    {
      "type": "Feature",
      "id": "571",
      "geometry": {
        "type": "Point",
        "coordinates": [
          8.509977,
          54.711995
        ]
      },
      "properties": {
        "id": "571",
        "typ": "Bohrbrunnen",
        "menge_l_min": null,
        "quellkarte": "Alkersum_Dorf.pdf",
        "ortsname": "Alkersum",
        "ortsquelle": "Alkersum_Dorf.pdf",
        "zuordnungsabstand_relativ": 0.984,
        "pdf_x_pt": 509.187,
        "pdf_y_von_oben_pt": 70.645,
        "koordinatenquelle": "eingebettete GeoPDF-Georeferenzierung",
        "lagehinweis": "kartografische Symbolposition; nicht vermessungstechnisch oder vor Ort bestätigt",
        "marker-color": "#f9a825",
        "marker-symbol": "water",
        "marker-size": "medium",
        "title": "571 - Bohrbrunnen"
      }
    },
    {
      "type": "Feature",
      "id": "572",
      "geometry": {
        "type": "Point",
        "coordinates": [
          8.509622,
          54.710213
        ]
      },
      "properties": {
        "id": "572",
        "typ": "Hydrant",
        "menge_l_min": 800,
        "quellkarte": "Alkersum_Dorf.pdf",
        "ortsname": "Alkersum",
        "ortsquelle": "Alkersum_Dorf.pdf",
        "zuordnungsabstand_relativ": 1.138,
        "pdf_x_pt": 495.449,
        "pdf_y_von_oben_pt": 182.936,
        "koordinatenquelle": "eingebettete GeoPDF-Georeferenzierung",
        "lagehinweis": "kartografische Symbolposition; nicht vermessungstechnisch oder vor Ort bestätigt",
        "marker-color": "#1565c0",
        "marker-symbol": "fire-station",
        "marker-size": "medium",
        "title": "572 - Hydrant"
      }
    },
    {
      "type": "Feature",
      "id": "575",
      "geometry": {
        "type": "Point",
        "coordinates": [
          8.509215,
          54.70953
        ]
      },
      "properties": {
        "id": "575",
        "typ": "Bohrbrunnen",
        "menge_l_min": null,
        "quellkarte": "Alkersum_Dorf.pdf",
        "ortsname": "Alkersum",
        "ortsquelle": "Alkersum_Dorf.pdf",
        "zuordnungsabstand_relativ": 0.493,
        "pdf_x_pt": 480.276,
        "pdf_y_von_oben_pt": 225.907,
        "koordinatenquelle": "eingebettete GeoPDF-Georeferenzierung",
        "lagehinweis": "kartografische Symbolposition; nicht vermessungstechnisch oder vor Ort bestätigt",
        "marker-color": "#f9a825",
        "marker-symbol": "water",
        "marker-size": "medium",
        "title": "575 - Bohrbrunnen"
      }
    },
    {
      "type": "Feature",
      "id": "576",
      "geometry": {
        "type": "Point",
        "coordinates": [
          8.512122,
          54.708667
        ]
      },
      "properties": {
        "id": "576",
        "typ": "Hydrant",
        "menge_l_min": 1600,
        "quellkarte": "Alkersum_Dorf.pdf",
        "ortsname": "Alkersum",
        "ortsquelle": "Alkersum_Dorf.pdf",
        "zuordnungsabstand_relativ": 0.886,
        "pdf_x_pt": 586.11,
        "pdf_y_von_oben_pt": 281.106,
        "koordinatenquelle": "eingebettete GeoPDF-Georeferenzierung",
        "lagehinweis": "kartografische Symbolposition; nicht vermessungstechnisch oder vor Ort bestätigt",
        "marker-color": "#1565c0",
        "marker-symbol": "fire-station",
        "marker-size": "medium",
        "title": "576 - Hydrant"
      }
    },
    {
      "type": "Feature",
      "id": "578",
      "geometry": {
        "type": "Point",
        "coordinates": [
          8.507982,
          54.709092
        ]
      },
      "properties": {
        "id": "578",
        "typ": "Hydrant",
        "menge_l_min": 1600,
        "quellkarte": "Alkersum_Dorf.pdf",
        "ortsname": "Alkersum",
        "ortsquelle": "Alkersum_Dorf.pdf",
        "zuordnungsabstand_relativ": 0.903,
        "pdf_x_pt": 435.055,
        "pdf_y_von_oben_pt": 253.21,
        "koordinatenquelle": "eingebettete GeoPDF-Georeferenzierung",
        "lagehinweis": "kartografische Symbolposition; nicht vermessungstechnisch oder vor Ort bestätigt",
        "marker-color": "#1565c0",
        "marker-symbol": "fire-station",
        "marker-size": "medium",
        "title": "578 - Hydrant"
      }
    },
    {
      "type": "Feature",
      "id": "579",
      "geometry": {
        "type": "Point",
        "coordinates": [
          8.509029,
          54.708789
        ]
      },
      "properties": {
        "id": "579",
        "typ": "Hydrant",
        "menge_l_min": 1600,
        "quellkarte": "Alkersum_Dorf.pdf",
        "ortsname": "Alkersum",
        "ortsquelle": "Alkersum_Dorf.pdf",
        "zuordnungsabstand_relativ": 1.255,
        "pdf_x_pt": 473.165,
        "pdf_y_von_oben_pt": 272.611,
        "koordinatenquelle": "eingebettete GeoPDF-Georeferenzierung",
        "lagehinweis": "kartografische Symbolposition; nicht vermessungstechnisch oder vor Ort bestätigt",
        "marker-color": "#1565c0",
        "marker-symbol": "fire-station",
        "marker-size": "medium",
        "title": "579 - Hydrant"
      }
    },
    {
      "type": "Feature",
      "id": "581",
      "geometry": {
        "type": "Point",
        "coordinates": [
          8.510693,
          54.707846
        ]
      },
      "properties": {
        "id": "581",
        "typ": "Bohrbrunnen",
        "menge_l_min": null,
        "quellkarte": "Alkersum_Dorf.pdf",
        "ortsname": "Alkersum",
        "ortsquelle": "Alkersum_Dorf.pdf",
        "zuordnungsabstand_relativ": 0.997,
        "pdf_x_pt": 533.564,
        "pdf_y_von_oben_pt": 332.527,
        "koordinatenquelle": "eingebettete GeoPDF-Georeferenzierung",
        "lagehinweis": "kartografische Symbolposition; nicht vermessungstechnisch oder vor Ort bestätigt",
        "marker-color": "#f9a825",
        "marker-symbol": "water",
        "marker-size": "medium",
        "title": "581 - Bohrbrunnen"
      }
    },
    {
      "type": "Feature",
      "id": "582",
      "geometry": {
        "type": "Point",
        "coordinates": [
          8.510427,
          54.707877
        ]
      },
      "properties": {
        "id": "582",
        "typ": "Hydrant",
        "menge_l_min": 1600,
        "quellkarte": "Alkersum_Dorf.pdf",
        "ortsname": "Alkersum",
        "ortsquelle": "Alkersum_Dorf.pdf",
        "zuordnungsabstand_relativ": 0.803,
        "pdf_x_pt": 523.859,
        "pdf_y_von_oben_pt": 330.504,
        "koordinatenquelle": "eingebettete GeoPDF-Georeferenzierung",
        "lagehinweis": "kartografische Symbolposition; nicht vermessungstechnisch oder vor Ort bestätigt",
        "marker-color": "#1565c0",
        "marker-symbol": "fire-station",
        "marker-size": "medium",
        "title": "582 - Hydrant"
      }
    },
    {
      "type": "Feature",
      "id": "583",
      "geometry": {
        "type": "Point",
        "coordinates": [
          8.508913,
          54.708192
        ]
      },
      "properties": {
        "id": "583",
        "typ": "Bohrbrunnen",
        "menge_l_min": null,
        "quellkarte": "Alkersum_Dorf.pdf",
        "ortsname": "Alkersum",
        "ortsquelle": "Alkersum_Dorf.pdf",
        "zuordnungsabstand_relativ": 1.329,
        "pdf_x_pt": 468.661,
        "pdf_y_von_oben_pt": 310.207,
        "koordinatenquelle": "eingebettete GeoPDF-Georeferenzierung",
        "lagehinweis": "kartografische Symbolposition; nicht vermessungstechnisch oder vor Ort bestätigt",
        "marker-color": "#f9a825",
        "marker-symbol": "water",
        "marker-size": "medium",
        "title": "583 - Bohrbrunnen"
      }
    },
    {
      "type": "Feature",
      "id": "584",
      "geometry": {
        "type": "Point",
        "coordinates": [
          8.508523,
          54.707825
        ]
      },
      "properties": {
        "id": "584",
        "typ": "Hydrant",
        "menge_l_min": 1600,
        "quellkarte": "Alkersum_Dorf.pdf",
        "ortsname": "Alkersum",
        "ortsquelle": "Alkersum_Dorf.pdf",
        "zuordnungsabstand_relativ": 1.02,
        "pdf_x_pt": 454.288,
        "pdf_y_von_oben_pt": 333.251,
        "koordinatenquelle": "eingebettete GeoPDF-Georeferenzierung",
        "lagehinweis": "kartografische Symbolposition; nicht vermessungstechnisch oder vor Ort bestätigt",
        "marker-color": "#1565c0",
        "marker-symbol": "fire-station",
        "marker-size": "medium",
        "title": "584 - Hydrant"
      }
    },
    {
      "type": "Feature",
      "id": "585",
      "geometry": {
        "type": "Point",
        "coordinates": [
          8.507551,
          54.707912
        ]
      },
      "properties": {
        "id": "585",
        "typ": "Hydrant",
        "menge_l_min": 1600,
        "quellkarte": "Alkersum_Dorf.pdf",
        "ortsname": "Alkersum",
        "ortsquelle": "Alkersum_Dorf.pdf",
        "zuordnungsabstand_relativ": 1.058,
        "pdf_x_pt": 418.783,
        "pdf_y_von_oben_pt": 327.515,
        "koordinatenquelle": "eingebettete GeoPDF-Georeferenzierung",
        "lagehinweis": "kartografische Symbolposition; nicht vermessungstechnisch oder vor Ort bestätigt",
        "marker-color": "#1565c0",
        "marker-symbol": "fire-station",
        "marker-size": "medium",
        "title": "585 - Hydrant"
      }
    },
    {
      "type": "Feature",
      "id": "586",
      "geometry": {
        "type": "Point",
        "coordinates": [
          8.505813,
          54.707951
        ]
      },
      "properties": {
        "id": "586",
        "typ": "Hydrant",
        "menge_l_min": 1600,
        "quellkarte": "Alkersum_Dorf.pdf",
        "ortsname": "Alkersum",
        "ortsquelle": "Alkersum_Dorf.pdf",
        "zuordnungsabstand_relativ": 1.069,
        "pdf_x_pt": 355.321,
        "pdf_y_von_oben_pt": 324.597,
        "koordinatenquelle": "eingebettete GeoPDF-Georeferenzierung",
        "lagehinweis": "kartografische Symbolposition; nicht vermessungstechnisch oder vor Ort bestätigt",
        "marker-color": "#1565c0",
        "marker-symbol": "fire-station",
        "marker-size": "medium",
        "title": "586 - Hydrant"
      }
    },
    {
      "type": "Feature",
      "id": "587",
      "geometry": {
        "type": "Point",
        "coordinates": [
          8.505602,
          54.70769
        ]
      },
      "properties": {
        "id": "587",
        "typ": "Saugstelle",
        "menge_l_min": null,
        "quellkarte": "Alkersum_Dorf.pdf",
        "ortsname": "Alkersum",
        "ortsquelle": "Alkersum_Dorf.pdf",
        "zuordnungsabstand_relativ": 1.1,
        "pdf_x_pt": 347.505,
        "pdf_y_von_oben_pt": 341.008,
        "koordinatenquelle": "eingebettete GeoPDF-Georeferenzierung",
        "lagehinweis": "kartografische Symbolposition; nicht vermessungstechnisch oder vor Ort bestätigt",
        "marker-color": "#00897b",
        "marker-symbol": "harbor",
        "marker-size": "medium",
        "title": "587 - Saugstelle"
      }
    },
    {
      "type": "Feature",
      "id": "589",
      "geometry": {
        "type": "Point",
        "coordinates": [
          8.503555,
          54.706772
        ]
      },
      "properties": {
        "id": "589",
        "typ": "Bohrbrunnen",
        "menge_l_min": null,
        "quellkarte": "Alkersum_Dorf.pdf",
        "ortsname": "Alkersum",
        "ortsquelle": "Alkersum_Dorf.pdf",
        "zuordnungsabstand_relativ": 0.986,
        "pdf_x_pt": 272.305,
        "pdf_y_von_oben_pt": 398.358,
        "koordinatenquelle": "eingebettete GeoPDF-Georeferenzierung",
        "lagehinweis": "kartografische Symbolposition; nicht vermessungstechnisch oder vor Ort bestätigt",
        "marker-color": "#f9a825",
        "marker-symbol": "water",
        "marker-size": "medium",
        "title": "589 - Bohrbrunnen"
      }
    },
    {
      "type": "Feature",
      "id": "591",
      "geometry": {
        "type": "Point",
        "coordinates": [
          8.510221,
          54.707138
        ]
      },
      "properties": {
        "id": "591",
        "typ": "Hydrant",
        "menge_l_min": 1600,
        "quellkarte": "Alkersum_Dorf.pdf",
        "ortsname": "Alkersum",
        "ortsquelle": "Alkersum_Dorf.pdf",
        "zuordnungsabstand_relativ": 0.811,
        "pdf_x_pt": 516.021,
        "pdf_y_von_oben_pt": 377.028,
        "koordinatenquelle": "eingebettete GeoPDF-Georeferenzierung",
        "lagehinweis": "kartografische Symbolposition; nicht vermessungstechnisch oder vor Ort bestätigt",
        "marker-color": "#1565c0",
        "marker-symbol": "fire-station",
        "marker-size": "medium",
        "title": "591 - Hydrant"
      }
    },
    {
      "type": "Feature",
      "id": "592",
      "geometry": {
        "type": "Point",
        "coordinates": [
          8.509065,
          54.706112
        ]
      },
      "properties": {
        "id": "592",
        "typ": "Hydrant",
        "menge_l_min": 1600,
        "quellkarte": "Alkersum_Dorf.pdf",
        "ortsname": "Alkersum",
        "ortsquelle": "Alkersum_Dorf.pdf",
        "zuordnungsabstand_relativ": 0.79,
        "pdf_x_pt": 473.339,
        "pdf_y_von_oben_pt": 441.467,
        "koordinatenquelle": "eingebettete GeoPDF-Georeferenzierung",
        "lagehinweis": "kartografische Symbolposition; nicht vermessungstechnisch oder vor Ort bestätigt",
        "marker-color": "#1565c0",
        "marker-symbol": "fire-station",
        "marker-size": "medium",
        "title": "592 - Hydrant"
      }
    },
    {
      "type": "Feature",
      "id": "593",
      "geometry": {
        "type": "Point",
        "coordinates": [
          8.508051,
          54.70635
        ]
      },
      "properties": {
        "id": "593",
        "typ": "Hydrant",
        "menge_l_min": 1600,
        "quellkarte": "Alkersum_Dorf.pdf",
        "ortsname": "Alkersum",
        "ortsquelle": "Alkersum_Dorf.pdf",
        "zuordnungsabstand_relativ": 0.831,
        "pdf_x_pt": 436.368,
        "pdf_y_von_oben_pt": 426.169,
        "koordinatenquelle": "eingebettete GeoPDF-Georeferenzierung",
        "lagehinweis": "kartografische Symbolposition; nicht vermessungstechnisch oder vor Ort bestätigt",
        "marker-color": "#1565c0",
        "marker-symbol": "fire-station",
        "marker-size": "medium",
        "title": "593 - Hydrant"
      }
    },
    {
      "type": "Feature",
      "id": "594",
      "geometry": {
        "type": "Point",
        "coordinates": [
          8.506944,
          54.706604
        ]
      },
      "properties": {
        "id": "594",
        "typ": "Hydrant",
        "menge_l_min": 1600,
        "quellkarte": "Alkersum_Dorf.pdf",
        "ortsname": "Alkersum",
        "ortsquelle": "Alkersum_Dorf.pdf",
        "zuordnungsabstand_relativ": 1.093,
        "pdf_x_pt": 396.042,
        "pdf_y_von_oben_pt": 409.884,
        "koordinatenquelle": "eingebettete GeoPDF-Georeferenzierung",
        "lagehinweis": "kartografische Symbolposition; nicht vermessungstechnisch oder vor Ort bestätigt",
        "marker-color": "#1565c0",
        "marker-symbol": "fire-station",
        "marker-size": "medium",
        "title": "594 - Hydrant"
      }
    },
    {
      "type": "Feature",
      "id": "595",
      "geometry": {
        "type": "Point",
        "coordinates": [
          8.505773,
          54.706915
        ]
      },
      "properties": {
        "id": "595",
        "typ": "Hydrant",
        "menge_l_min": 1600,
        "quellkarte": "Alkersum_Dorf.pdf",
        "ortsname": "Alkersum",
        "ortsquelle": "Alkersum_Dorf.pdf",
        "zuordnungsabstand_relativ": 0.925,
        "pdf_x_pt": 353.418,
        "pdf_y_von_oben_pt": 389.955,
        "koordinatenquelle": "eingebettete GeoPDF-Georeferenzierung",
        "lagehinweis": "kartografische Symbolposition; nicht vermessungstechnisch oder vor Ort bestätigt",
        "marker-color": "#1565c0",
        "marker-symbol": "fire-station",
        "marker-size": "medium",
        "title": "595 - Hydrant"
      }
    },
    {
      "type": "Feature",
      "id": "596",
      "geometry": {
        "type": "Point",
        "coordinates": [
          8.507625,
          54.705888
        ]
      },
      "properties": {
        "id": "596",
        "typ": "Hydrant",
        "menge_l_min": 1600,
        "quellkarte": "Alkersum_Dorf.pdf",
        "ortsname": "Alkersum",
        "ortsquelle": "Alkersum_Dorf.pdf",
        "zuordnungsabstand_relativ": 0.901,
        "pdf_x_pt": 420.607,
        "pdf_y_von_oben_pt": 455.197,
        "koordinatenquelle": "eingebettete GeoPDF-Georeferenzierung",
        "lagehinweis": "kartografische Symbolposition; nicht vermessungstechnisch oder vor Ort bestätigt",
        "marker-color": "#1565c0",
        "marker-symbol": "fire-station",
        "marker-size": "medium",
        "title": "596 - Hydrant"
      }
    },
    {
      "type": "Feature",
      "id": "597",
      "geometry": {
        "type": "Point",
        "coordinates": [
          8.50631,
          54.706351
        ]
      },
      "properties": {
        "id": "597",
        "typ": "Hydrant",
        "menge_l_min": 800,
        "quellkarte": "Alkersum_Dorf.pdf",
        "ortsname": "Alkersum",
        "ortsquelle": "Alkersum_Dorf.pdf",
        "zuordnungsabstand_relativ": 0.905,
        "pdf_x_pt": 372.795,
        "pdf_y_von_oben_pt": 425.621,
        "koordinatenquelle": "eingebettete GeoPDF-Georeferenzierung",
        "lagehinweis": "kartografische Symbolposition; nicht vermessungstechnisch oder vor Ort bestätigt",
        "marker-color": "#1565c0",
        "marker-symbol": "fire-station",
        "marker-size": "medium",
        "title": "597 - Hydrant"
      }
    },
    {
      "type": "Feature",
      "id": "598",
      "geometry": {
        "type": "Point",
        "coordinates": [
          8.505382,
          54.706491
        ]
      },
      "properties": {
        "id": "598",
        "typ": "Hydrant",
        "menge_l_min": 800,
        "quellkarte": "Alkersum_Dorf.pdf",
        "ortsname": "Alkersum",
        "ortsquelle": "Alkersum_Dorf.pdf",
        "zuordnungsabstand_relativ": 0.561,
        "pdf_x_pt": 338.932,
        "pdf_y_von_oben_pt": 416.591,
        "koordinatenquelle": "eingebettete GeoPDF-Georeferenzierung",
        "lagehinweis": "kartografische Symbolposition; nicht vermessungstechnisch oder vor Ort bestätigt",
        "marker-color": "#1565c0",
        "marker-symbol": "fire-station",
        "marker-size": "medium",
        "title": "598 - Hydrant"
      }
    },
    {
      "type": "Feature",
      "id": "599",
      "geometry": {
        "type": "Point",
        "coordinates": [
          8.508164,
          54.70535
        ]
      },
      "properties": {
        "id": "599",
        "typ": "Hydrant",
        "menge_l_min": 1600,
        "quellkarte": "Alkersum_Dorf.pdf",
        "ortsname": "Alkersum",
        "ortsquelle": "Alkersum_Dorf.pdf",
        "zuordnungsabstand_relativ": 0.833,
        "pdf_x_pt": 440.066,
        "pdf_y_von_oben_pt": 489.252,
        "koordinatenquelle": "eingebettete GeoPDF-Georeferenzierung",
        "lagehinweis": "kartografische Symbolposition; nicht vermessungstechnisch oder vor Ort bestätigt",
        "marker-color": "#1565c0",
        "marker-symbol": "fire-station",
        "marker-size": "medium",
        "title": "599 - Hydrant"
      }
    },
    {
      "type": "Feature",
      "id": "601",
      "geometry": {
        "type": "Point",
        "coordinates": [
          8.51078,
          54.705698
        ]
      },
      "properties": {
        "id": "601",
        "typ": "Hydrant",
        "menge_l_min": 800,
        "quellkarte": "Alkersum_Dorf.pdf",
        "ortsname": "Alkersum",
        "ortsquelle": "Alkersum_Dorf.pdf",
        "zuordnungsabstand_relativ": 0.868,
        "pdf_x_pt": 535.801,
        "pdf_y_von_oben_pt": 467.987,
        "koordinatenquelle": "eingebettete GeoPDF-Georeferenzierung",
        "lagehinweis": "kartografische Symbolposition; nicht vermessungstechnisch oder vor Ort bestätigt",
        "marker-color": "#1565c0",
        "marker-symbol": "fire-station",
        "marker-size": "medium",
        "title": "601 - Hydrant"
      }
    },
    {
      "type": "Feature",
      "id": "602",
      "geometry": {
        "type": "Point",
        "coordinates": [
          8.511046,
          54.704763
        ]
      },
      "properties": {
        "id": "602",
        "typ": "Hydrant",
        "menge_l_min": 800,
        "quellkarte": "Alkersum_Dorf.pdf",
        "ortsname": "Alkersum",
        "ortsquelle": "Alkersum_Dorf.pdf",
        "zuordnungsabstand_relativ": 0.827,
        "pdf_x_pt": 545.106,
        "pdf_y_von_oben_pt": 527.057,
        "koordinatenquelle": "eingebettete GeoPDF-Georeferenzierung",
        "lagehinweis": "kartografische Symbolposition; nicht vermessungstechnisch oder vor Ort bestätigt",
        "marker-color": "#1565c0",
        "marker-symbol": "fire-station",
        "marker-size": "medium",
        "title": "602 - Hydrant"
      }
    },
    {
      "type": "Feature",
      "id": "603",
      "geometry": {
        "type": "Point",
        "coordinates": [
          8.513084,
          54.705248
        ]
      },
      "properties": {
        "id": "603",
        "typ": "Bohrbrunnen",
        "menge_l_min": null,
        "quellkarte": "Alkersum_Dorf.pdf",
        "ortsname": "Alkersum",
        "ortsquelle": "Alkersum_Dorf.pdf",
        "zuordnungsabstand_relativ": 0.974,
        "pdf_x_pt": 619.759,
        "pdf_y_von_oben_pt": 497.001,
        "koordinatenquelle": "eingebettete GeoPDF-Georeferenzierung",
        "lagehinweis": "kartografische Symbolposition; nicht vermessungstechnisch oder vor Ort bestätigt",
        "marker-color": "#f9a825",
        "marker-symbol": "water",
        "marker-size": "medium",
        "title": "603 - Bohrbrunnen"
      }
    },
    {
      "type": "Feature",
      "id": "605",
      "geometry": {
        "type": "Point",
        "coordinates": [
          8.5139,
          54.70624
        ]
      },
      "properties": {
        "id": "605",
        "typ": "Bohrbrunnen",
        "menge_l_min": null,
        "quellkarte": "Alkersum_Dorf.pdf",
        "ortsname": "Alkersum",
        "ortsquelle": "Alkersum_Dorf.pdf",
        "zuordnungsabstand_relativ": 0.984,
        "pdf_x_pt": 649.999,
        "pdf_y_von_oben_pt": 434.668,
        "koordinatenquelle": "eingebettete GeoPDF-Georeferenzierung",
        "lagehinweis": "kartografische Symbolposition; nicht vermessungstechnisch oder vor Ort bestätigt",
        "marker-color": "#f9a825",
        "marker-symbol": "water",
        "marker-size": "medium",
        "title": "605 - Bohrbrunnen"
      }
    },
    {
      "type": "Feature",
      "id": "606",
      "geometry": {
        "type": "Point",
        "coordinates": [
          8.515892,
          54.705953
        ]
      },
      "properties": {
        "id": "606",
        "typ": "Hydrant",
        "menge_l_min": 800,
        "quellkarte": "Alkersum_Dorf.pdf",
        "ortsname": "Alkersum",
        "ortsquelle": "Alkersum_Dorf.pdf",
        "zuordnungsabstand_relativ": 0.773,
        "pdf_x_pt": 722.667,
        "pdf_y_von_oben_pt": 453.314,
        "koordinatenquelle": "eingebettete GeoPDF-Georeferenzierung",
        "lagehinweis": "kartografische Symbolposition; nicht vermessungstechnisch oder vor Ort bestätigt",
        "marker-color": "#1565c0",
        "marker-symbol": "fire-station",
        "marker-size": "medium",
        "title": "606 - Hydrant"
      }
    },
    {
      "type": "Feature",
      "id": "607",
      "geometry": {
        "type": "Point",
        "coordinates": [
          8.517638,
          54.706383
        ]
      },
      "properties": {
        "id": "607",
        "typ": "Hydrant",
        "menge_l_min": "unbekannt",
        "quellkarte": "Alkersum_Dorf.pdf",
        "ortsname": "Alkersum",
        "ortsquelle": "Alkersum_Dorf.pdf",
        "zuordnungsabstand_relativ": 0.82,
        "pdf_x_pt": 786.632,
        "pdf_y_von_oben_pt": 426.603,
        "koordinatenquelle": "eingebettete GeoPDF-Georeferenzierung",
        "lagehinweis": "kartografische Symbolposition; nicht vermessungstechnisch oder vor Ort bestätigt",
        "marker-color": "#1565c0",
        "marker-symbol": "fire-station",
        "marker-size": "medium",
        "title": "607 - Hydrant"
      }
    },
    {
      "type": "Feature",
      "id": "608",
      "geometry": {
        "type": "Point",
        "coordinates": [
          8.516648,
          54.705464
        ]
      },
      "properties": {
        "id": "608",
        "typ": "Bohrbrunnen",
        "menge_l_min": null,
        "quellkarte": "Alkersum_Dorf.pdf",
        "ortsname": "Alkersum",
        "ortsquelle": "Alkersum_Dorf.pdf",
        "zuordnungsabstand_relativ": 0.984,
        "pdf_x_pt": 750.08,
        "pdf_y_von_oben_pt": 484.349,
        "koordinatenquelle": "eingebettete GeoPDF-Georeferenzierung",
        "lagehinweis": "kartografische Symbolposition; nicht vermessungstechnisch oder vor Ort bestätigt",
        "marker-color": "#f9a825",
        "marker-symbol": "water",
        "marker-size": "medium",
        "title": "608 - Bohrbrunnen"
      }
    },
    {
      "type": "Feature",
      "id": "611",
      "geometry": {
        "type": "Point",
        "coordinates": [
          8.504488,
          54.70196
        ]
      },
      "properties": {
        "id": "611",
        "typ": "Hydrant",
        "menge_l_min": 800,
        "quellkarte": "Alkersum_Dorf.pdf",
        "ortsname": "Alkersum",
        "ortsquelle": "Alkersum_Dorf.pdf",
        "zuordnungsabstand_relativ": 0.82,
        "pdf_x_pt": 304.328,
        "pdf_y_von_oben_pt": 702.03,
        "koordinatenquelle": "eingebettete GeoPDF-Georeferenzierung",
        "lagehinweis": "kartografische Symbolposition; nicht vermessungstechnisch oder vor Ort bestätigt",
        "marker-color": "#1565c0",
        "marker-symbol": "fire-station",
        "marker-size": "medium",
        "title": "611 - Hydrant"
      }
    },
    {
      "type": "Feature",
      "id": "612",
      "geometry": {
        "type": "Point",
        "coordinates": [
          8.499087,
          54.69859
        ]
      },
      "properties": {
        "id": "612",
        "typ": "Hydrant",
        "menge_l_min": 800,
        "quellkarte": "Alkersum_Dorf.pdf",
        "ortsname": "Alkersum",
        "ortsquelle": "Alkersum_Dorf.pdf",
        "zuordnungsabstand_relativ": 0.798,
        "pdf_x_pt": 105.542,
        "pdf_y_von_oben_pt": 913.071,
        "koordinatenquelle": "eingebettete GeoPDF-Georeferenzierung",
        "lagehinweis": "kartografische Symbolposition; nicht vermessungstechnisch oder vor Ort bestätigt",
        "marker-color": "#1565c0",
        "marker-symbol": "fire-station",
        "marker-size": "medium",
        "title": "612 - Hydrant"
      }
    },
    {
      "type": "Feature",
      "id": "613",
      "geometry": {
        "type": "Point",
        "coordinates": [
          8.498588,
          54.698062
        ]
      },
      "properties": {
        "id": "613",
        "typ": "Bohrbrunnen",
        "menge_l_min": null,
        "quellkarte": "Alkersum_Dorf.pdf",
        "ortsname": "Alkersum",
        "ortsquelle": "Alkersum_Dorf.pdf",
        "zuordnungsabstand_relativ": 1.322,
        "pdf_x_pt": 87.059,
        "pdf_y_von_oben_pt": 946.193,
        "koordinatenquelle": "eingebettete GeoPDF-Georeferenzierung",
        "lagehinweis": "kartografische Symbolposition; nicht vermessungstechnisch oder vor Ort bestätigt",
        "marker-color": "#f9a825",
        "marker-symbol": "water",
        "marker-size": "medium",
        "title": "613 - Bohrbrunnen"
      }
    }
  ]
}