{
  "type": "FeatureCollection",
  "name": "Dusum",
  "features": [
    {
      "type": "Feature",
      "id": "861",
      "geometry": {
        "type": "Point",
        "coordinates": [
          8.429899,
          54.728771
        ]
      },
      "properties": {
        "id": "861",
        "typ": "Hydrant",
        "menge_l_min": 1600,
        "quellkarte": "Dusum.pdf",
        "ortsname": "Dunsum",
        "ortsquelle": "Dusum.pdf",
        "zuordnungsabstand_relativ": 0.82,
        "pdf_x_pt": 768.986,
        "pdf_y_von_oben_pt": 340.767,
        "koordinatenquelle": "eingebettete GeoPDF-Georeferenzierung",
        "lagehinweis": "kartografische Symbolposition; nicht vermessungstechnisch oder vor Ort bestätigt",
        "marker-color": "#1565c0",
        "marker-symbol": "fire-station",
        "marker-size": "medium",
        "title": "861 - Hydrant"
      }
    },
    {
      "type": "Feature",
      "id": "891",
      "geometry": {
        "type": "Point",
        "coordinates": [
          8.424751,
          54.729948
        ]
      },
      "properties": {
        "id": "891",
        "typ": "Hydrant",
        "menge_l_min": 1600,
        "quellkarte": "Dusum.pdf",
        "ortsname": "Dunsum",
        "ortsquelle": "Dusum.pdf",
        "zuordnungsabstand_relativ": 1.043,
        "pdf_x_pt": 581.678,
        "pdf_y_von_oben_pt": 264.921,
        "koordinatenquelle": "eingebettete GeoPDF-Georeferenzierung",
        "lagehinweis": "kartografische Symbolposition; nicht vermessungstechnisch oder vor Ort bestätigt",
        "marker-color": "#1565c0",
        "marker-symbol": "fire-station",
        "marker-size": "medium",
        "title": "891 - Hydrant"
      }
    },
    {
      "type": "Feature",
      "id": "892",
      "geometry": {
        "type": "Point",
        "coordinates": [
          8.425003,
          54.730535
        ]
      },
      "properties": {
        "id": "892",
        "typ": "Hydrant",
        "menge_l_min": 1600,
        "quellkarte": "Dusum.pdf",
        "ortsname": "Dunsum",
        "ortsquelle": "Dusum.pdf",
        "zuordnungsabstand_relativ": 0.88,
        "pdf_x_pt": 591.177,
        "pdf_y_von_oben_pt": 227.942,
        "koordinatenquelle": "eingebettete GeoPDF-Georeferenzierung",
        "lagehinweis": "kartografische Symbolposition; nicht vermessungstechnisch oder vor Ort bestätigt",
        "marker-color": "#1565c0",
        "marker-symbol": "fire-station",
        "marker-size": "medium",
        "title": "892 - Hydrant"
      }
    },
    {
      "type": "Feature",
      "id": "893",
      "geometry": {
        "type": "Point",
        "coordinates": [
          8.425261,
          54.731074
        ]
      },
      "properties": {
        "id": "893",
        "typ": "Hydrant",
        "menge_l_min": 800,
        "quellkarte": "Dusum.pdf",
        "ortsname": "Dunsum",
        "ortsquelle": "Dusum.pdf",
        "zuordnungsabstand_relativ": 0.824,
        "pdf_x_pt": 600.881,
        "pdf_y_von_oben_pt": 194.07,
        "koordinatenquelle": "eingebettete GeoPDF-Georeferenzierung",
        "lagehinweis": "kartografische Symbolposition; nicht vermessungstechnisch oder vor Ort bestätigt",
        "marker-color": "#1565c0",
        "marker-symbol": "fire-station",
        "marker-size": "medium",
        "title": "893 - Hydrant"
      }
    },
    {
      "type": "Feature",
      "id": "894",
      "geometry": {
        "type": "Point",
        "coordinates": [
          8.425602,
          54.731717
        ]
      },
      "properties": {
        "id": "894",
        "typ": "Hydrant",
        "menge_l_min": 800,
        "quellkarte": "Dusum.pdf",
        "ortsname": "Dunsum",
        "ortsquelle": "Dusum.pdf",
        "zuordnungsabstand_relativ": 0.773,
        "pdf_x_pt": 613.655,
        "pdf_y_von_oben_pt": 153.58,
        "koordinatenquelle": "eingebettete GeoPDF-Georeferenzierung",
        "lagehinweis": "kartografische Symbolposition; nicht vermessungstechnisch oder vor Ort bestätigt",
        "marker-color": "#1565c0",
        "marker-symbol": "fire-station",
        "marker-size": "medium",
        "title": "894 - Hydrant"
      }
    },
    {
      "type": "Feature",
      "id": "895",
      "geometry": {
        "type": "Point",
        "coordinates": [
          8.425771,
          54.732037
        ]
      },
      "properties": {
        "id": "895",
        "typ": "Hydrant",
        "menge_l_min": 800,
        "quellkarte": "Dusum.pdf",
        "ortsname": "Dunsum",
        "ortsquelle": "Dusum.pdf",
        "zuordnungsabstand_relativ": 0.895,
        "pdf_x_pt": 620.015,
        "pdf_y_von_oben_pt": 133.478,
        "koordinatenquelle": "eingebettete GeoPDF-Georeferenzierung",
        "lagehinweis": "kartografische Symbolposition; nicht vermessungstechnisch oder vor Ort bestätigt",
        "marker-color": "#1565c0",
        "marker-symbol": "fire-station",
        "marker-size": "medium",
        "title": "895 - Hydrant"
      }
    },
    {
      "type": "Feature",
      "id": "897",
      "geometry": {
        "type": "Point",
        "coordinates": [
          8.418117,
          54.731212
        ]
      },
      "properties": {
        "id": "897",
        "typ": "Hydrant",
        "menge_l_min": 1600,
        "quellkarte": "Dusum.pdf",
        "ortsname": "Dunsum",
        "ortsquelle": "Dusum.pdf",
        "zuordnungsabstand_relativ": 0.809,
        "pdf_x_pt": 340.213,
        "pdf_y_von_oben_pt": 183.114,
        "koordinatenquelle": "eingebettete GeoPDF-Georeferenzierung",
        "lagehinweis": "kartografische Symbolposition; nicht vermessungstechnisch oder vor Ort bestätigt",
        "marker-color": "#1565c0",
        "marker-symbol": "fire-station",
        "marker-size": "medium",
        "title": "897 - Hydrant"
      }
    },
    {
      "type": "Feature",
      "id": "898",
      "geometry": {
        "type": "Point",
        "coordinates": [
          8.414413,
          54.731682
        ]
      },
      "properties": {
        "id": "898",
        "typ": "Bohrbrunnen",
        "menge_l_min": null,
        "quellkarte": "Dusum.pdf",
        "ortsname": "Dunsum",
        "ortsquelle": "Dusum.pdf",
        "zuordnungsabstand_relativ": 0.984,
        "pdf_x_pt": 205.242,
        "pdf_y_von_oben_pt": 152.316,
        "koordinatenquelle": "eingebettete GeoPDF-Georeferenzierung",
        "lagehinweis": "kartografische Symbolposition; nicht vermessungstechnisch oder vor Ort bestätigt",
        "marker-color": "#f9a825",
        "marker-symbol": "water",
        "marker-size": "medium",
        "title": "898 - Bohrbrunnen"
      }
    },
    {
      "type": "Feature",
      "id": "899",
      "geometry": {
        "type": "Point",
        "coordinates": [
          8.414563,
          54.731494
        ]
      },
      "properties": {
        "id": "899",
        "typ": "Hydrant",
        "menge_l_min": 1600,
        "quellkarte": "Dusum.pdf",
        "ortsname": "Dunsum",
        "ortsquelle": "Dusum.pdf",
        "zuordnungsabstand_relativ": 0.792,
        "pdf_x_pt": 210.641,
        "pdf_y_von_oben_pt": 164.249,
        "koordinatenquelle": "eingebettete GeoPDF-Georeferenzierung",
        "lagehinweis": "kartografische Symbolposition; nicht vermessungstechnisch oder vor Ort bestätigt",
        "marker-color": "#1565c0",
        "marker-symbol": "fire-station",
        "marker-size": "medium",
        "title": "899 - Hydrant"
      }
    },
    {
      "type": "Feature",
      "id": "901",
      "geometry": {
        "type": "Point",
        "coordinates": [
          8.414215,
          54.729752
        ]
      },
      "properties": {
        "id": "901",
        "typ": "Hydrant",
        "menge_l_min": 1600,
        "quellkarte": "Dusum.pdf",
        "ortsname": "Dunsum",
        "ortsquelle": "Dusum.pdf",
        "zuordnungsabstand_relativ": 0.796,
        "pdf_x_pt": 196.995,
        "pdf_y_von_oben_pt": 273.981,
        "koordinatenquelle": "eingebettete GeoPDF-Georeferenzierung",
        "lagehinweis": "kartografische Symbolposition; nicht vermessungstechnisch oder vor Ort bestätigt",
        "marker-color": "#1565c0",
        "marker-symbol": "fire-station",
        "marker-size": "medium",
        "title": "901 - Hydrant"
      }
    },
    {
      "type": "Feature",
      "id": "902",
      "geometry": {
        "type": "Point",
        "coordinates": [
          8.412683,
          54.727006
        ]
      },
      "properties": {
        "id": "902",
        "typ": "Saugstelle",
        "menge_l_min": null,
        "quellkarte": "Dusum.pdf",
        "ortsname": "Dunsum",
        "ortsquelle": "Dusum.pdf",
        "zuordnungsabstand_relativ": 1.09,
        "pdf_x_pt": 139.629,
        "pdf_y_von_oben_pt": 446.749,
        "koordinatenquelle": "eingebettete GeoPDF-Georeferenzierung",
        "lagehinweis": "kartografische Symbolposition; nicht vermessungstechnisch oder vor Ort bestätigt",
        "marker-color": "#00897b",
        "marker-symbol": "harbor",
        "marker-size": "medium",
        "title": "902 - Saugstelle"
      }
    },
    {
      "type": "Feature",
      "id": "906",
      "geometry": {
        "type": "Point",
        "coordinates": [
          8.411736,
          54.724445
        ]
      },
      "properties": {
        "id": "906",
        "typ": "Hydrant",
        "menge_l_min": 1600,
        "quellkarte": "Dusum.pdf",
        "ortsname": "Dunsum",
        "ortsquelle": "Dusum.pdf",
        "zuordnungsabstand_relativ": 1.041,
        "pdf_x_pt": 103.681,
        "pdf_y_von_oben_pt": 607.946,
        "koordinatenquelle": "eingebettete GeoPDF-Georeferenzierung",
        "lagehinweis": "kartografische Symbolposition; nicht vermessungstechnisch oder vor Ort bestätigt",
        "marker-color": "#1565c0",
        "marker-symbol": "fire-station",
        "marker-size": "medium",
        "title": "906 - Hydrant"
      }
    },
    {
      "type": "Feature",
      "id": "907",
      "geometry": {
        "type": "Point",
        "coordinates": [
          8.410983,
          54.719568
        ]
      },
      "properties": {
        "id": "907",
        "typ": "Hydrant",
        "menge_l_min": 1600,
        "quellkarte": "Dusum.pdf",
        "ortsname": "Dunsum",
        "ortsquelle": "Dusum.pdf",
        "zuordnungsabstand_relativ": 0.829,
        "pdf_x_pt": 73.601,
        "pdf_y_von_oben_pt": 915.371,
        "koordinatenquelle": "eingebettete GeoPDF-Georeferenzierung",
        "lagehinweis": "kartografische Symbolposition; nicht vermessungstechnisch oder vor Ort bestätigt",
        "marker-color": "#1565c0",
        "marker-symbol": "fire-station",
        "marker-size": "medium",
        "title": "907 - Hydrant"
      }
    },
    {
      "type": "Feature",
      "id": "954",
      "geometry": {
        "type": "Point",
        "coordinates": [
          8.422052,
          54.71614
        ]
      },
      "properties": {
        "id": "954",
        "typ": "Hydrant",
        "menge_l_min": 800,
        "quellkarte": "Dusum.pdf",
        "ortsname": "Dunsum",
        "ortsquelle": "Dusum.pdf",
        "zuordnungsabstand_relativ": 1.204,
        "pdf_x_pt": 475.935,
        "pdf_y_von_oben_pt": 1135.072,
        "koordinatenquelle": "eingebettete GeoPDF-Georeferenzierung",
        "lagehinweis": "kartografische Symbolposition; nicht vermessungstechnisch oder vor Ort bestätigt",
        "marker-color": "#1565c0",
        "marker-symbol": "fire-station",
        "marker-size": "medium",
        "title": "954 - Hydrant"
      }
    },
    {
      "type": "Feature",
      "id": "955",
      "geometry": {
        "type": "Point",
        "coordinates": [
          8.425573,
          54.716163
        ]
      },
      "properties": {
        "id": "955",
        "typ": "Hydrant",
        "menge_l_min": 800,
        "quellkarte": "Dusum.pdf",
        "ortsname": "Dunsum",
        "ortsquelle": "Dusum.pdf",
        "zuordnungsabstand_relativ": 0.829,
        "pdf_x_pt": 604.54,
        "pdf_y_von_oben_pt": 1134.715,
        "koordinatenquelle": "eingebettete GeoPDF-Georeferenzierung",
        "lagehinweis": "kartografische Symbolposition; nicht vermessungstechnisch oder vor Ort bestätigt",
        "marker-color": "#1565c0",
        "marker-symbol": "fire-station",
        "marker-size": "medium",
        "title": "955 - Hydrant"
      }
    }
  ]
}