{
  "type": "FeatureCollection",
  "name": "Hedehusum_Aussied",
  "features": [
    {
      "type": "Feature",
      "id": "954",
      "geometry": {
        "type": "Point",
        "coordinates": [
          8.422061,
          54.716133
        ]
      },
      "properties": {
        "id": "954",
        "typ": "Hydrant",
        "menge_l_min": 800,
        "quellkarte": "Hedehusum_Aussied.pdf",
        "ortsname": "Hedehusum",
        "ortsquelle": "Hedehusum_Aussied.pdf",
        "zuordnungsabstand_relativ": 0.702,
        "pdf_x_pt": 416.584,
        "pdf_y_von_oben_pt": 90.435,
        "koordinatenquelle": "eingebettete GeoPDF-Georeferenzierung",
        "lagehinweis": "kartografische Symbolposition; nicht vermessungstechnisch oder vor Ort bestätigt",
        "marker-color": "#1565c0",
        "marker-symbol": "fire-station",
        "marker-size": "medium",
        "title": "954 - Hydrant"
      }
    },
    {
      "type": "Feature",
      "id": "955",
      "geometry": {
        "type": "Point",
        "coordinates": [
          8.425578,
          54.716149
        ]
      },
      "properties": {
        "id": "955",
        "typ": "Hydrant",
        "menge_l_min": 800,
        "quellkarte": "Hedehusum_Aussied.pdf",
        "ortsname": "Hedehusum",
        "ortsquelle": "Hedehusum_Aussied.pdf",
        "zuordnungsabstand_relativ": 0.774,
        "pdf_x_pt": 577.082,
        "pdf_y_von_oben_pt": 90.435,
        "koordinatenquelle": "eingebettete GeoPDF-Georeferenzierung",
        "lagehinweis": "kartografische Symbolposition; nicht vermessungstechnisch oder vor Ort bestätigt",
        "marker-color": "#1565c0",
        "marker-symbol": "fire-station",
        "marker-size": "medium",
        "title": "955 - Hydrant"
      }
    },
    {
      "type": "Feature",
      "id": "966",
      "geometry": {
        "type": "Point",
        "coordinates": [
          8.415286,
          54.705636
        ]
      },
      "properties": {
        "id": "966",
        "typ": "Hydrant",
        "menge_l_min": 1600,
        "quellkarte": "Hedehusum_Aussied.pdf",
        "ortsname": "Hedehusum",
        "ortsquelle": "Hedehusum_Aussied.pdf",
        "zuordnungsabstand_relativ": 0.64,
        "pdf_x_pt": 100.641,
        "pdf_y_von_oben_pt": 915.753,
        "koordinatenquelle": "eingebettete GeoPDF-Georeferenzierung",
        "lagehinweis": "kartografische Symbolposition; nicht vermessungstechnisch oder vor Ort bestätigt",
        "marker-color": "#1565c0",
        "marker-symbol": "fire-station",
        "marker-size": "medium",
        "title": "966 - Hydrant"
      }
    },
    {
      "type": "Feature",
      "id": "967",
      "geometry": {
        "type": "Point",
        "coordinates": [
          8.416733,
          54.705295
        ]
      },
      "properties": {
        "id": "967",
        "typ": "Hydrant",
        "menge_l_min": 3200,
        "quellkarte": "Hedehusum_Aussied.pdf",
        "ortsname": "Hedehusum",
        "ortsquelle": "Hedehusum_Aussied.pdf",
        "zuordnungsabstand_relativ": 0.815,
        "pdf_x_pt": 166.498,
        "pdf_y_von_oben_pt": 943.111,
        "koordinatenquelle": "eingebettete GeoPDF-Georeferenzierung",
        "lagehinweis": "kartografische Symbolposition; nicht vermessungstechnisch oder vor Ort bestätigt",
        "marker-color": "#1565c0",
        "marker-symbol": "fire-station",
        "marker-size": "medium",
        "title": "967 - Hydrant"
      }
    },
    {
      "type": "Feature",
      "id": "968",
      "geometry": {
        "type": "Point",
        "coordinates": [
          8.418137,
          54.704986
        ]
      },
      "properties": {
        "id": "968",
        "typ": "Hydrant",
        "menge_l_min": 3200,
        "quellkarte": "Hedehusum_Aussied.pdf",
        "ortsname": "Hedehusum",
        "ortsquelle": "Hedehusum_Aussied.pdf",
        "zuordnungsabstand_relativ": 0.623,
        "pdf_x_pt": 230.355,
        "pdf_y_von_oben_pt": 968.01,
        "koordinatenquelle": "eingebettete GeoPDF-Georeferenzierung",
        "lagehinweis": "kartografische Symbolposition; nicht vermessungstechnisch oder vor Ort bestätigt",
        "marker-color": "#1565c0",
        "marker-symbol": "fire-station",
        "marker-size": "medium",
        "title": "968 - Hydrant"
      }
    },
    {
      "type": "Feature",
      "id": "969",
      "geometry": {
        "type": "Point",
        "coordinates": [
          8.418055,
          54.703896
        ]
      },
      "properties": {
        "id": "969",
        "typ": "Bohrbrunnen",
        "menge_l_min": null,
        "quellkarte": "Hedehusum_Aussied.pdf",
        "ortsname": "Hedehusum",
        "ortsquelle": "Hedehusum_Aussied.pdf",
        "zuordnungsabstand_relativ": 0.288,
        "pdf_x_pt": 225.921,
        "pdf_y_von_oben_pt": 1053.888,
        "koordinatenquelle": "eingebettete GeoPDF-Georeferenzierung",
        "lagehinweis": "kartografische Symbolposition; nicht vermessungstechnisch oder vor Ort bestätigt",
        "marker-color": "#f9a825",
        "marker-symbol": "water",
        "marker-size": "medium",
        "title": "969 - Bohrbrunnen"
      }
    },
    {
      "type": "Feature",
      "id": "972",
      "geometry": {
        "type": "Point",
        "coordinates": [
          8.417259,
          54.703475
        ]
      },
      "properties": {
        "id": "972",
        "typ": "Hydrant",
        "menge_l_min": 800,
        "quellkarte": "Hedehusum_Aussied.pdf",
        "ortsname": "Hedehusum",
        "ortsquelle": "Hedehusum_Aussied.pdf",
        "zuordnungsabstand_relativ": 0.858,
        "pdf_x_pt": 189.333,
        "pdf_y_von_oben_pt": 1086.833,
        "koordinatenquelle": "eingebettete GeoPDF-Georeferenzierung",
        "lagehinweis": "kartografische Symbolposition; nicht vermessungstechnisch oder vor Ort bestätigt",
        "marker-color": "#1565c0",
        "marker-symbol": "fire-station",
        "marker-size": "medium",
        "title": "972 - Hydrant"
      }
    },
    {
      "type": "Feature",
      "id": "973",
      "geometry": {
        "type": "Point",
        "coordinates": [
          8.416151,
          54.703696
        ]
      },
      "properties": {
        "id": "973",
        "typ": "Hydrant",
        "menge_l_min": 800,
        "quellkarte": "Hedehusum_Aussied.pdf",
        "ortsname": "Hedehusum",
        "ortsquelle": "Hedehusum_Aussied.pdf",
        "zuordnungsabstand_relativ": 0.968,
        "pdf_x_pt": 138.878,
        "pdf_y_von_oben_pt": 1068.967,
        "koordinatenquelle": "eingebettete GeoPDF-Georeferenzierung",
        "lagehinweis": "kartografische Symbolposition; nicht vermessungstechnisch oder vor Ort bestätigt",
        "marker-color": "#1565c0",
        "marker-symbol": "fire-station",
        "marker-size": "medium",
        "title": "973 - Hydrant"
      }
    },
    {
      "type": "Feature",
      "id": "974",
      "geometry": {
        "type": "Point",
        "coordinates": [
          8.419519,
          54.704704
        ]
      },
      "properties": {
        "id": "974",
        "typ": "Hydrant",
        "menge_l_min": 3200,
        "quellkarte": "Hedehusum_Aussied.pdf",
        "ortsname": "Hedehusum",
        "ortsquelle": "Hedehusum_Aussied.pdf",
        "zuordnungsabstand_relativ": 0.676,
        "pdf_x_pt": 293.271,
        "pdf_y_von_oben_pt": 990.727,
        "koordinatenquelle": "eingebettete GeoPDF-Georeferenzierung",
        "lagehinweis": "kartografische Symbolposition; nicht vermessungstechnisch oder vor Ort bestätigt",
        "marker-color": "#1565c0",
        "marker-symbol": "fire-station",
        "marker-size": "medium",
        "title": "974 - Hydrant"
      }
    },
    {
      "type": "Feature",
      "id": "977",
      "geometry": {
        "type": "Point",
        "coordinates": [
          8.421453,
          54.704358
        ]
      },
      "properties": {
        "id": "977",
        "typ": "Hydrant",
        "menge_l_min": 3200,
        "quellkarte": "Hedehusum_Aussied.pdf",
        "ortsname": "Hedehusum",
        "ortsquelle": "Hedehusum_Aussied.pdf",
        "zuordnungsabstand_relativ": 0.712,
        "pdf_x_pt": 381.35,
        "pdf_y_von_oben_pt": 1018.675,
        "koordinatenquelle": "eingebettete GeoPDF-Georeferenzierung",
        "lagehinweis": "kartografische Symbolposition; nicht vermessungstechnisch oder vor Ort bestätigt",
        "marker-color": "#1565c0",
        "marker-symbol": "fire-station",
        "marker-size": "medium",
        "title": "977 - Hydrant"
      }
    },
    {
      "type": "Feature",
      "id": "978",
      "geometry": {
        "type": "Point",
        "coordinates": [
          8.423978,
          54.70385
        ]
      },
      "properties": {
        "id": "978",
        "typ": "Hydrant",
        "menge_l_min": 1600,
        "quellkarte": "Hedehusum_Aussied.pdf",
        "ortsname": "Hedehusum",
        "ortsquelle": "Hedehusum_Aussied.pdf",
        "zuordnungsabstand_relativ": 0.605,
        "pdf_x_pt": 496.294,
        "pdf_y_von_oben_pt": 1059.628,
        "koordinatenquelle": "eingebettete GeoPDF-Georeferenzierung",
        "lagehinweis": "kartografische Symbolposition; nicht vermessungstechnisch oder vor Ort bestätigt",
        "marker-color": "#1565c0",
        "marker-symbol": "fire-station",
        "marker-size": "medium",
        "title": "978 - Hydrant"
      }
    },
    {
      "type": "Feature",
      "id": "982",
      "geometry": {
        "type": "Point",
        "coordinates": [
          8.421636,
          54.706685
        ]
      },
      "properties": {
        "id": "982",
        "typ": "Hydrant",
        "menge_l_min": 3200,
        "quellkarte": "Hedehusum_Aussied.pdf",
        "ortsname": "Hedehusum",
        "ortsquelle": "Hedehusum_Aussied.pdf",
        "zuordnungsabstand_relativ": 0.761,
        "pdf_x_pt": 391.178,
        "pdf_y_von_oben_pt": 835.248,
        "koordinatenquelle": "eingebettete GeoPDF-Georeferenzierung",
        "lagehinweis": "kartografische Symbolposition; nicht vermessungstechnisch oder vor Ort bestätigt",
        "marker-color": "#1565c0",
        "marker-symbol": "fire-station",
        "marker-size": "medium",
        "title": "982 - Hydrant"
      }
    },
    {
      "type": "Feature",
      "id": "983",
      "geometry": {
        "type": "Point",
        "coordinates": [
          8.42239,
          54.706571
        ]
      },
      "properties": {
        "id": "983",
        "typ": "Hydrant",
        "menge_l_min": 1600,
        "quellkarte": "Hedehusum_Aussied.pdf",
        "ortsname": "Hedehusum",
        "ortsquelle": "Hedehusum_Aussied.pdf",
        "zuordnungsabstand_relativ": 0.625,
        "pdf_x_pt": 425.523,
        "pdf_y_von_oben_pt": 844.507,
        "koordinatenquelle": "eingebettete GeoPDF-Georeferenzierung",
        "lagehinweis": "kartografische Symbolposition; nicht vermessungstechnisch oder vor Ort bestätigt",
        "marker-color": "#1565c0",
        "marker-symbol": "fire-station",
        "marker-size": "medium",
        "title": "983 - Hydrant"
      }
    },
    {
      "type": "Feature",
      "id": "984",
      "geometry": {
        "type": "Point",
        "coordinates": [
          8.422453,
          54.706395
        ]
      },
      "properties": {
        "id": "984",
        "typ": "Hydrant",
        "menge_l_min": 3200,
        "quellkarte": "Hedehusum_Aussied.pdf",
        "ortsname": "Hedehusum",
        "ortsquelle": "Hedehusum_Aussied.pdf",
        "zuordnungsabstand_relativ": 0.633,
        "pdf_x_pt": 428.286,
        "pdf_y_von_oben_pt": 858.434,
        "koordinatenquelle": "eingebettete GeoPDF-Georeferenzierung",
        "lagehinweis": "kartografische Symbolposition; nicht vermessungstechnisch oder vor Ort bestätigt",
        "marker-color": "#1565c0",
        "marker-symbol": "fire-station",
        "marker-size": "medium",
        "title": "984 - Hydrant"
      }
    },
    {
      "type": "Feature",
      "id": "985",
      "geometry": {
        "type": "Point",
        "coordinates": [
          8.42318,
          54.706432
        ]
      },
      "properties": {
        "id": "985",
        "typ": "Hydrant",
        "menge_l_min": 3200,
        "quellkarte": "Hedehusum_Aussied.pdf",
        "ortsname": "Hedehusum",
        "ortsquelle": "Hedehusum_Aussied.pdf",
        "zuordnungsabstand_relativ": 0.591,
        "pdf_x_pt": 461.486,
        "pdf_y_von_oben_pt": 855.741,
        "koordinatenquelle": "eingebettete GeoPDF-Georeferenzierung",
        "lagehinweis": "kartografische Symbolposition; nicht vermessungstechnisch oder vor Ort bestätigt",
        "marker-color": "#1565c0",
        "marker-symbol": "fire-station",
        "marker-size": "medium",
        "title": "985 - Hydrant"
      }
    }
  ]
}