{
  "type": "FeatureCollection",
  "name": "Marsch_Borgsum",
  "features": [
    {
      "type": "Feature",
      "id": "614",
      "geometry": {
        "type": "Point",
        "coordinates": [
          8.493937,
          54.733481
        ]
      },
      "properties": {
        "id": "614",
        "typ": "Hydrant",
        "menge_l_min": 800,
        "quellkarte": "Marsch_Borgsum.pdf",
        "ortsname": "Borgsum",
        "ortsquelle": "Marsch_Borgsum.pdf",
        "zuordnungsabstand_relativ": 0.825,
        "pdf_x_pt": 574.861,
        "pdf_y_von_oben_pt": 353.79,
        "koordinatenquelle": "eingebettete GeoPDF-Georeferenzierung",
        "lagehinweis": "kartografische Symbolposition; nicht vermessungstechnisch oder vor Ort bestätigt",
        "marker-color": "#1565c0",
        "marker-symbol": "fire-station",
        "marker-size": "medium",
        "title": "614 - Hydrant"
      }
    },
    {
      "type": "Feature",
      "id": "615",
      "geometry": {
        "type": "Point",
        "coordinates": [
          8.502149,
          54.73783
        ]
      },
      "properties": {
        "id": "615",
        "typ": "Hydrant",
        "menge_l_min": 800,
        "quellkarte": "Marsch_Borgsum.pdf",
        "ortsname": "Borgsum",
        "ortsquelle": "Marsch_Borgsum.pdf",
        "zuordnungsabstand_relativ": 1.06,
        "pdf_x_pt": 806.962,
        "pdf_y_von_oben_pt": 144.476,
        "koordinatenquelle": "eingebettete GeoPDF-Georeferenzierung",
        "lagehinweis": "kartografische Symbolposition; nicht vermessungstechnisch oder vor Ort bestätigt",
        "marker-color": "#1565c0",
        "marker-symbol": "fire-station",
        "marker-size": "medium",
        "title": "615 - Hydrant"
      }
    },
    {
      "type": "Feature",
      "id": "774",
      "geometry": {
        "type": "Point",
        "coordinates": [
          8.479299,
          54.719919
        ]
      },
      "properties": {
        "id": "774",
        "typ": "Hydrant",
        "menge_l_min": 800,
        "quellkarte": "Marsch_Borgsum.pdf",
        "ortsname": "Borgsum",
        "ortsquelle": "Marsch_Borgsum.pdf",
        "zuordnungsabstand_relativ": 0.812,
        "pdf_x_pt": 158.982,
        "pdf_y_von_oben_pt": 1008.786,
        "koordinatenquelle": "eingebettete GeoPDF-Georeferenzierung",
        "lagehinweis": "kartografische Symbolposition; nicht vermessungstechnisch oder vor Ort bestätigt",
        "marker-color": "#1565c0",
        "marker-symbol": "fire-station",
        "marker-size": "medium",
        "title": "774 - Hydrant"
      }
    },
    {
      "type": "Feature",
      "id": "775",
      "geometry": {
        "type": "Point",
        "coordinates": [
          8.47566,
          54.719947
        ]
      },
      "properties": {
        "id": "775",
        "typ": "Hydrant",
        "menge_l_min": 800,
        "quellkarte": "Marsch_Borgsum.pdf",
        "ortsname": "Borgsum",
        "ortsquelle": "Marsch_Borgsum.pdf",
        "zuordnungsabstand_relativ": 0.933,
        "pdf_x_pt": 56.802,
        "pdf_y_von_oben_pt": 1006.686,
        "koordinatenquelle": "eingebettete GeoPDF-Georeferenzierung",
        "lagehinweis": "kartografische Symbolposition; nicht vermessungstechnisch oder vor Ort bestätigt",
        "marker-color": "#1565c0",
        "marker-symbol": "fire-station",
        "marker-size": "medium",
        "title": "775 - Hydrant"
      }
    },
    {
      "type": "Feature",
      "id": "839",
      "geometry": {
        "type": "Point",
        "coordinates": [
          8.495629,
          54.7392
        ]
      },
      "properties": {
        "id": "839",
        "typ": "Hydrant",
        "menge_l_min": 800,
        "quellkarte": "Marsch_Borgsum.pdf",
        "ortsname": "Borgsum",
        "ortsquelle": "Marsch_Borgsum.pdf",
        "zuordnungsabstand_relativ": 0.946,
        "pdf_x_pt": 624.393,
        "pdf_y_von_oben_pt": 76.719,
        "koordinatenquelle": "eingebettete GeoPDF-Georeferenzierung",
        "lagehinweis": "kartografische Symbolposition; nicht vermessungstechnisch oder vor Ort bestätigt",
        "marker-color": "#1565c0",
        "marker-symbol": "fire-station",
        "marker-size": "medium",
        "title": "839 - Hydrant"
      }
    }
  ]
}