{
  "type": "FeatureCollection",
  "name": "Marsch_Oevenum",
  "features": [
    {
      "type": "Feature",
      "id": "522",
      "geometry": {
        "type": "Point",
        "coordinates": [
          8.55016,
          54.730057
        ]
      },
      "properties": {
        "id": "522",
        "typ": "Hydrant",
        "menge_l_min": 1600,
        "quellkarte": "Marsch_Oevenum.pdf",
        "ortsname": "Oevenum",
        "ortsquelle": "Marsch_Oevenum.pdf",
        "zuordnungsabstand_relativ": 0.937,
        "pdf_x_pt": 229.703,
        "pdf_y_von_oben_pt": 1017.843,
        "koordinatenquelle": "eingebettete GeoPDF-Georeferenzierung",
        "lagehinweis": "kartografische Symbolposition; nicht vermessungstechnisch oder vor Ort bestätigt",
        "marker-color": "#1565c0",
        "marker-symbol": "fire-station",
        "marker-size": "medium",
        "title": "522 - Hydrant"
      }
    },
    {
      "type": "Feature",
      "id": "523",
      "geometry": {
        "type": "Point",
        "coordinates": [
          8.562,
          54.743024
        ]
      },
      "properties": {
        "id": "523",
        "typ": "Hydrant",
        "menge_l_min": 400,
        "quellkarte": "Marsch_Oevenum.pdf",
        "ortsname": "Oevenum",
        "ortsquelle": "Marsch_Oevenum.pdf",
        "zuordnungsabstand_relativ": 0.783,
        "pdf_x_pt": 666.95,
        "pdf_y_von_oben_pt": 202.574,
        "koordinatenquelle": "eingebettete GeoPDF-Georeferenzierung",
        "lagehinweis": "kartografische Symbolposition; nicht vermessungstechnisch oder vor Ort bestätigt",
        "marker-color": "#1565c0",
        "marker-symbol": "fire-station",
        "marker-size": "medium",
        "title": "523 - Hydrant"
      }
    },
    {
      "type": "Feature",
      "id": "524",
      "geometry": {
        "type": "Point",
        "coordinates": [
          8.557031,
          54.745265
        ]
      },
      "properties": {
        "id": "524",
        "typ": "Hydrant",
        "menge_l_min": 400,
        "quellkarte": "Marsch_Oevenum.pdf",
        "ortsname": "Oevenum",
        "ortsquelle": "Marsch_Oevenum.pdf",
        "zuordnungsabstand_relativ": 1.009,
        "pdf_x_pt": 486.526,
        "pdf_y_von_oben_pt": 60.068,
        "koordinatenquelle": "eingebettete GeoPDF-Georeferenzierung",
        "lagehinweis": "kartografische Symbolposition; nicht vermessungstechnisch oder vor Ort bestätigt",
        "marker-color": "#1565c0",
        "marker-symbol": "fire-station",
        "marker-size": "medium",
        "title": "524 - Hydrant"
      }
    }
  ]
}