{
  "type": "FeatureCollection",
  "name": "Süderende",
  "features": [
    {
      "type": "Feature",
      "id": "831",
      "geometry": {
        "type": "Point",
        "coordinates": [
          8.445665,
          54.730445
        ]
      },
      "properties": {
        "id": "831",
        "typ": "Hydrant",
        "menge_l_min": 1600,
        "quellkarte": "Süderende.pdf",
        "ortsname": "Süderende",
        "ortsquelle": "Süderende.pdf",
        "zuordnungsabstand_relativ": 0.902,
        "pdf_x_pt": 821.859,
        "pdf_y_von_oben_pt": 65.296,
        "koordinatenquelle": "eingebettete GeoPDF-Georeferenzierung",
        "lagehinweis": "kartografische Symbolposition; nicht vermessungstechnisch oder vor Ort bestätigt",
        "marker-color": "#1565c0",
        "marker-symbol": "fire-station",
        "marker-size": "medium",
        "title": "831 - Hydrant"
      }
    },
    {
      "type": "Feature",
      "id": "859",
      "geometry": {
        "type": "Point",
        "coordinates": [
          8.444808,
          54.722665
        ]
      },
      "properties": {
        "id": "859",
        "typ": "Hydrant",
        "menge_l_min": 1600,
        "quellkarte": "Süderende.pdf",
        "ortsname": "Süderende",
        "ortsquelle": "Süderende.pdf",
        "zuordnungsabstand_relativ": 1.086,
        "pdf_x_pt": 786.724,
        "pdf_y_von_oben_pt": 555.804,
        "koordinatenquelle": "eingebettete GeoPDF-Georeferenzierung",
        "lagehinweis": "kartografische Symbolposition; nicht vermessungstechnisch oder vor Ort bestätigt",
        "marker-color": "#1565c0",
        "marker-symbol": "fire-station",
        "marker-size": "medium",
        "title": "859 - Hydrant"
      }
    },
    {
      "type": "Feature",
      "id": "861",
      "geometry": {
        "type": "Point",
        "coordinates": [
          8.429896,
          54.728771
        ]
      },
      "properties": {
        "id": "861",
        "typ": "Hydrant",
        "menge_l_min": 1600,
        "quellkarte": "Süderende.pdf",
        "ortsname": "Süderende",
        "ortsquelle": "Süderende.pdf",
        "zuordnungsabstand_relativ": 0.808,
        "pdf_x_pt": 245.44,
        "pdf_y_von_oben_pt": 166.418,
        "koordinatenquelle": "eingebettete GeoPDF-Georeferenzierung",
        "lagehinweis": "kartografische Symbolposition; nicht vermessungstechnisch oder vor Ort bestätigt",
        "marker-color": "#1565c0",
        "marker-symbol": "fire-station",
        "marker-size": "medium",
        "title": "861 - Hydrant"
      }
    },
    {
      "type": "Feature",
      "id": "862",
      "geometry": {
        "type": "Point",
        "coordinates": [
          8.442876,
          54.727085
        ]
      },
      "properties": {
        "id": "862",
        "typ": "Hydrant",
        "menge_l_min": 800,
        "quellkarte": "Süderende.pdf",
        "ortsname": "Süderende",
        "ortsquelle": "Süderende.pdf",
        "zuordnungsabstand_relativ": 1.083,
        "pdf_x_pt": 718.376,
        "pdf_y_von_oben_pt": 276.434,
        "koordinatenquelle": "eingebettete GeoPDF-Georeferenzierung",
        "lagehinweis": "kartografische Symbolposition; nicht vermessungstechnisch oder vor Ort bestätigt",
        "marker-color": "#1565c0",
        "marker-symbol": "fire-station",
        "marker-size": "medium",
        "title": "862 - Hydrant"
      }
    },
    {
      "type": "Feature",
      "id": "863",
      "geometry": {
        "type": "Point",
        "coordinates": [
          8.440472,
          54.72679
        ]
      },
      "properties": {
        "id": "863",
        "typ": "Hydrant",
        "menge_l_min": 1600,
        "quellkarte": "Süderende.pdf",
        "ortsname": "Süderende",
        "ortsquelle": "Süderende.pdf",
        "zuordnungsabstand_relativ": 0.793,
        "pdf_x_pt": 630.48,
        "pdf_y_von_oben_pt": 294.346,
        "koordinatenquelle": "eingebettete GeoPDF-Georeferenzierung",
        "lagehinweis": "kartografische Symbolposition; nicht vermessungstechnisch oder vor Ort bestätigt",
        "marker-color": "#1565c0",
        "marker-symbol": "fire-station",
        "marker-size": "medium",
        "title": "863 - Hydrant"
      }
    },
    {
      "type": "Feature",
      "id": "864",
      "geometry": {
        "type": "Point",
        "coordinates": [
          8.443595,
          54.726101
        ]
      },
      "properties": {
        "id": "864",
        "typ": "Saugstelle",
        "menge_l_min": null,
        "quellkarte": "Süderende.pdf",
        "ortsname": "Süderende",
        "ortsquelle": "Süderende.pdf",
        "zuordnungsabstand_relativ": 1.09,
        "pdf_x_pt": 744.124,
        "pdf_y_von_oben_pt": 338.745,
        "koordinatenquelle": "eingebettete GeoPDF-Georeferenzierung",
        "lagehinweis": "kartografische Symbolposition; nicht vermessungstechnisch oder vor Ort bestätigt",
        "marker-color": "#00897b",
        "marker-symbol": "harbor",
        "marker-size": "medium",
        "title": "864 - Saugstelle"
      }
    },
    {
      "type": "Feature",
      "id": "865",
      "geometry": {
        "type": "Point",
        "coordinates": [
          8.442333,
          54.725963
        ]
      },
      "properties": {
        "id": "865",
        "typ": "Hydrant",
        "menge_l_min": 1600,
        "quellkarte": "Süderende.pdf",
        "ortsname": "Süderende",
        "ortsquelle": "Süderende.pdf",
        "zuordnungsabstand_relativ": 1.265,
        "pdf_x_pt": 698.012,
        "pdf_y_von_oben_pt": 347.093,
        "koordinatenquelle": "eingebettete GeoPDF-Georeferenzierung",
        "lagehinweis": "kartografische Symbolposition; nicht vermessungstechnisch oder vor Ort bestätigt",
        "marker-color": "#1565c0",
        "marker-symbol": "fire-station",
        "marker-size": "medium",
        "title": "865 - Hydrant"
      }
    },
    {
      "type": "Feature",
      "id": "866",
      "geometry": {
        "type": "Point",
        "coordinates": [
          8.442112,
          54.725682
        ]
      },
      "properties": {
        "id": "866",
        "typ": "Hydrant",
        "menge_l_min": 1600,
        "quellkarte": "Süderende.pdf",
        "ortsname": "Süderende",
        "ortsquelle": "Süderende.pdf",
        "zuordnungsabstand_relativ": 0.809,
        "pdf_x_pt": 689.782,
        "pdf_y_von_oben_pt": 364.758,
        "koordinatenquelle": "eingebettete GeoPDF-Georeferenzierung",
        "lagehinweis": "kartografische Symbolposition; nicht vermessungstechnisch oder vor Ort bestätigt",
        "marker-color": "#1565c0",
        "marker-symbol": "fire-station",
        "marker-size": "medium",
        "title": "866 - Hydrant"
      }
    },
    {
      "type": "Feature",
      "id": "867",
      "geometry": {
        "type": "Point",
        "coordinates": [
          8.443398,
          54.725473
        ]
      },
      "properties": {
        "id": "867",
        "typ": "Hydrant",
        "menge_l_min": 1600,
        "quellkarte": "Süderende.pdf",
        "ortsname": "Süderende",
        "ortsquelle": "Süderende.pdf",
        "zuordnungsabstand_relativ": 0.772,
        "pdf_x_pt": 736.648,
        "pdf_y_von_oben_pt": 378.258,
        "koordinatenquelle": "eingebettete GeoPDF-Georeferenzierung",
        "lagehinweis": "kartografische Symbolposition; nicht vermessungstechnisch oder vor Ort bestätigt",
        "marker-color": "#1565c0",
        "marker-symbol": "fire-station",
        "marker-size": "medium",
        "title": "867 - Hydrant"
      }
    },
    {
      "type": "Feature",
      "id": "868",
      "geometry": {
        "type": "Point",
        "coordinates": [
          8.443335,
          54.724808
        ]
      },
      "properties": {
        "id": "868",
        "typ": "Hydrant",
        "menge_l_min": 800,
        "quellkarte": "Süderende.pdf",
        "ortsname": "Süderende",
        "ortsquelle": "Süderende.pdf",
        "zuordnungsabstand_relativ": 0.844,
        "pdf_x_pt": 733.997,
        "pdf_y_von_oben_pt": 420.189,
        "koordinatenquelle": "eingebettete GeoPDF-Georeferenzierung",
        "lagehinweis": "kartografische Symbolposition; nicht vermessungstechnisch oder vor Ort bestätigt",
        "marker-color": "#1565c0",
        "marker-symbol": "fire-station",
        "marker-size": "medium",
        "title": "868 - Hydrant"
      }
    },
    {
      "type": "Feature",
      "id": "869",
      "geometry": {
        "type": "Point",
        "coordinates": [
          8.439509,
          54.726003
        ]
      },
      "properties": {
        "id": "869",
        "typ": "Hydrant",
        "menge_l_min": 800,
        "quellkarte": "Süderende.pdf",
        "ortsname": "Süderende",
        "ortsquelle": "Süderende.pdf",
        "zuordnungsabstand_relativ": 1.213,
        "pdf_x_pt": 594.931,
        "pdf_y_von_oben_pt": 343.751,
        "koordinatenquelle": "eingebettete GeoPDF-Georeferenzierung",
        "lagehinweis": "kartografische Symbolposition; nicht vermessungstechnisch oder vor Ort bestätigt",
        "marker-color": "#1565c0",
        "marker-symbol": "fire-station",
        "marker-size": "medium",
        "title": "869 - Hydrant"
      }
    },
    {
      "type": "Feature",
      "id": "871",
      "geometry": {
        "type": "Point",
        "coordinates": [
          8.440736,
          54.724973
        ]
      },
      "properties": {
        "id": "871",
        "typ": "Hydrant",
        "menge_l_min": 1600,
        "quellkarte": "Süderende.pdf",
        "ortsname": "Süderende",
        "ortsquelle": "Süderende.pdf",
        "zuordnungsabstand_relativ": 0.97,
        "pdf_x_pt": 639.212,
        "pdf_y_von_oben_pt": 409.073,
        "koordinatenquelle": "eingebettete GeoPDF-Georeferenzierung",
        "lagehinweis": "kartografische Symbolposition; nicht vermessungstechnisch oder vor Ort bestätigt",
        "marker-color": "#1565c0",
        "marker-symbol": "fire-station",
        "marker-size": "medium",
        "title": "871 - Hydrant"
      }
    },
    {
      "type": "Feature",
      "id": "872",
      "geometry": {
        "type": "Point",
        "coordinates": [
          8.439273,
          54.725097
        ]
      },
      "properties": {
        "id": "872",
        "typ": "Hydrant",
        "menge_l_min": 1600,
        "quellkarte": "Süderende.pdf",
        "ortsname": "Süderende",
        "ortsquelle": "Süderende.pdf",
        "zuordnungsabstand_relativ": 0.555,
        "pdf_x_pt": 585.864,
        "pdf_y_von_oben_pt": 400.839,
        "koordinatenquelle": "eingebettete GeoPDF-Georeferenzierung",
        "lagehinweis": "kartografische Symbolposition; nicht vermessungstechnisch oder vor Ort bestätigt",
        "marker-color": "#1565c0",
        "marker-symbol": "fire-station",
        "marker-size": "medium",
        "title": "872 - Hydrant"
      }
    },
    {
      "type": "Feature",
      "id": "874",
      "geometry": {
        "type": "Point",
        "coordinates": [
          8.437938,
          54.722734
        ]
      },
      "properties": {
        "id": "874",
        "typ": "Hydrant",
        "menge_l_min": 1600,
        "quellkarte": "Süderende.pdf",
        "ortsname": "Süderende",
        "ortsquelle": "Süderende.pdf",
        "zuordnungsabstand_relativ": 1.264,
        "pdf_x_pt": 535.957,
        "pdf_y_von_oben_pt": 549.53,
        "koordinatenquelle": "eingebettete GeoPDF-Georeferenzierung",
        "lagehinweis": "kartografische Symbolposition; nicht vermessungstechnisch oder vor Ort bestätigt",
        "marker-color": "#1565c0",
        "marker-symbol": "fire-station",
        "marker-size": "medium",
        "title": "874 - Hydrant"
      }
    },
    {
      "type": "Feature",
      "id": "875",
      "geometry": {
        "type": "Point",
        "coordinates": [
          8.436454,
          54.719669
        ]
      },
      "properties": {
        "id": "875",
        "typ": "Hydrant",
        "menge_l_min": 1600,
        "quellkarte": "Süderende.pdf",
        "ortsname": "Süderende",
        "ortsquelle": "Süderende.pdf",
        "zuordnungsabstand_relativ": 0.819,
        "pdf_x_pt": 480.229,
        "pdf_y_von_oben_pt": 742.433,
        "koordinatenquelle": "eingebettete GeoPDF-Georeferenzierung",
        "lagehinweis": "kartografische Symbolposition; nicht vermessungstechnisch oder vor Ort bestätigt",
        "marker-color": "#1565c0",
        "marker-symbol": "fire-station",
        "marker-size": "medium",
        "title": "875 - Hydrant"
      }
    },
    {
      "type": "Feature",
      "id": "876",
      "geometry": {
        "type": "Point",
        "coordinates": [
          8.436153,
          54.719083
        ]
      },
      "properties": {
        "id": "876",
        "typ": "Hydrant",
        "menge_l_min": 1600,
        "quellkarte": "Süderende.pdf",
        "ortsname": "Süderende",
        "ortsquelle": "Süderende.pdf",
        "zuordnungsabstand_relativ": 0.776,
        "pdf_x_pt": 468.96,
        "pdf_y_von_oben_pt": 779.299,
        "koordinatenquelle": "eingebettete GeoPDF-Georeferenzierung",
        "lagehinweis": "kartografische Symbolposition; nicht vermessungstechnisch oder vor Ort bestätigt",
        "marker-color": "#1565c0",
        "marker-symbol": "fire-station",
        "marker-size": "medium",
        "title": "876 - Hydrant"
      }
    },
    {
      "type": "Feature",
      "id": "877",
      "geometry": {
        "type": "Point",
        "coordinates": [
          8.435884,
          54.717415
        ]
      },
      "properties": {
        "id": "877",
        "typ": "Hydrant",
        "menge_l_min": 1600,
        "quellkarte": "Süderende.pdf",
        "ortsname": "Süderende",
        "ortsquelle": "Süderende.pdf",
        "zuordnungsabstand_relativ": 0.835,
        "pdf_x_pt": 458.306,
        "pdf_y_von_oben_pt": 884.436,
        "koordinatenquelle": "eingebettete GeoPDF-Georeferenzierung",
        "lagehinweis": "kartografische Symbolposition; nicht vermessungstechnisch oder vor Ort bestätigt",
        "marker-color": "#1565c0",
        "marker-symbol": "fire-station",
        "marker-size": "medium",
        "title": "877 - Hydrant"
      }
    },
    {
      "type": "Feature",
      "id": "891",
      "geometry": {
        "type": "Point",
        "coordinates": [
          8.424745,
          54.729952
        ]
      },
      "properties": {
        "id": "891",
        "typ": "Hydrant",
        "menge_l_min": 1600,
        "quellkarte": "Süderende.pdf",
        "ortsname": "Süderende",
        "ortsquelle": "Süderende.pdf",
        "zuordnungsabstand_relativ": 1.046,
        "pdf_x_pt": 58.03,
        "pdf_y_von_oben_pt": 90.469,
        "koordinatenquelle": "eingebettete GeoPDF-Georeferenzierung",
        "lagehinweis": "kartografische Symbolposition; nicht vermessungstechnisch oder vor Ort bestätigt",
        "marker-color": "#1565c0",
        "marker-symbol": "fire-station",
        "marker-size": "medium",
        "title": "891 - Hydrant"
      }
    },
    {
      "type": "Feature",
      "id": "892",
      "geometry": {
        "type": "Point",
        "coordinates": [
          8.425,
          54.730539
        ]
      },
      "properties": {
        "id": "892",
        "typ": "Hydrant",
        "menge_l_min": 1600,
        "quellkarte": "Süderende.pdf",
        "ortsname": "Süderende",
        "ortsquelle": "Süderende.pdf",
        "zuordnungsabstand_relativ": 0.873,
        "pdf_x_pt": 67.631,
        "pdf_y_von_oben_pt": 53.49,
        "koordinatenquelle": "eingebettete GeoPDF-Georeferenzierung",
        "lagehinweis": "kartografische Symbolposition; nicht vermessungstechnisch oder vor Ort bestätigt",
        "marker-color": "#1565c0",
        "marker-symbol": "fire-station",
        "marker-size": "medium",
        "title": "892 - Hydrant"
      }
    },
    {
      "type": "Feature",
      "id": "893",
      "geometry": {
        "type": "Point",
        "coordinates": [
          8.425258,
          54.731076
        ]
      },
      "properties": {
        "id": "893",
        "typ": "Hydrant",
        "menge_l_min": 800,
        "quellkarte": "Süderende.pdf",
        "ortsname": "Süderende",
        "ortsquelle": "Süderende.pdf",
        "zuordnungsabstand_relativ": 0.824,
        "pdf_x_pt": 77.335,
        "pdf_y_von_oben_pt": 19.721,
        "koordinatenquelle": "eingebettete GeoPDF-Georeferenzierung",
        "lagehinweis": "kartografische Symbolposition; nicht vermessungstechnisch oder vor Ort bestätigt",
        "marker-color": "#1565c0",
        "marker-symbol": "fire-station",
        "marker-size": "medium",
        "title": "893 - Hydrant"
      }
    },
    {
      "type": "Feature",
      "id": "955",
      "geometry": {
        "type": "Point",
        "coordinates": [
          8.425565,
          54.716166
        ]
      },
      "properties": {
        "id": "955",
        "typ": "Hydrant",
        "menge_l_min": 800,
        "quellkarte": "Süderende.pdf",
        "ortsname": "Süderende",
        "ortsquelle": "Süderende.pdf",
        "zuordnungsabstand_relativ": 0.84,
        "pdf_x_pt": 80.892,
        "pdf_y_von_oben_pt": 960.264,
        "koordinatenquelle": "eingebettete GeoPDF-Georeferenzierung",
        "lagehinweis": "kartografische Symbolposition; nicht vermessungstechnisch oder vor Ort bestätigt",
        "marker-color": "#1565c0",
        "marker-symbol": "fire-station",
        "marker-size": "medium",
        "title": "955 - Hydrant"
      }
    }
  ]
}