{
  "type": "FeatureCollection",
  "name": "Utersum",
  "features": [
    {
      "type": "Feature",
      "id": "908",
      "geometry": {
        "type": "Point",
        "coordinates": [
          8.407771,
          54.715928
        ]
      },
      "properties": {
        "id": "908",
        "typ": "Hydrant",
        "menge_l_min": 1600,
        "quellkarte": "Utersum.pdf",
        "ortsname": "Utersum",
        "ortsquelle": "Utersum.pdf",
        "zuordnungsabstand_relativ": 0.839,
        "pdf_x_pt": 551.375,
        "pdf_y_von_oben_pt": 98.231,
        "koordinatenquelle": "eingebettete GeoPDF-Georeferenzierung",
        "lagehinweis": "kartografische Symbolposition; nicht vermessungstechnisch oder vor Ort bestätigt",
        "marker-color": "#1565c0",
        "marker-symbol": "fire-station",
        "marker-size": "medium",
        "title": "908 - Hydrant"
      }
    },
    {
      "type": "Feature",
      "id": "909",
      "geometry": {
        "type": "Point",
        "coordinates": [
          8.407471,
          54.715626
        ]
      },
      "properties": {
        "id": "909",
        "typ": "Hydrant",
        "menge_l_min": 1600,
        "quellkarte": "Utersum.pdf",
        "ortsname": "Utersum",
        "ortsquelle": "Utersum.pdf",
        "zuordnungsabstand_relativ": 0.843,
        "pdf_x_pt": 537.491,
        "pdf_y_von_oben_pt": 121.9,
        "koordinatenquelle": "eingebettete GeoPDF-Georeferenzierung",
        "lagehinweis": "kartografische Symbolposition; nicht vermessungstechnisch oder vor Ort bestätigt",
        "marker-color": "#1565c0",
        "marker-symbol": "fire-station",
        "marker-size": "medium",
        "title": "909 - Hydrant"
      }
    },
    {
      "type": "Feature",
      "id": "911",
      "geometry": {
        "type": "Point",
        "coordinates": [
          8.403096,
          54.715665
        ]
      },
      "properties": {
        "id": "911",
        "typ": "Hydrant",
        "menge_l_min": 400,
        "quellkarte": "Utersum.pdf",
        "ortsname": "Utersum",
        "ortsquelle": "Utersum.pdf",
        "zuordnungsabstand_relativ": 0.803,
        "pdf_x_pt": 337.795,
        "pdf_y_von_oben_pt": 117.309,
        "koordinatenquelle": "eingebettete GeoPDF-Georeferenzierung",
        "lagehinweis": "kartografische Symbolposition; nicht vermessungstechnisch oder vor Ort bestätigt",
        "marker-color": "#1565c0",
        "marker-symbol": "fire-station",
        "marker-size": "medium",
        "title": "911 - Hydrant"
      }
    },
    {
      "type": "Feature",
      "id": "913",
      "geometry": {
        "type": "Point",
        "coordinates": [
          8.404225,
          54.715438
        ]
      },
      "properties": {
        "id": "913",
        "typ": "E-Bohrbrunnen",
        "menge_l_min": null,
        "quellkarte": "Utersum.pdf",
        "ortsname": "Utersum",
        "ortsquelle": "Utersum.pdf",
        "zuordnungsabstand_relativ": 0.41,
        "pdf_x_pt": 389.178,
        "pdf_y_von_oben_pt": 135.576,
        "koordinatenquelle": "eingebettete GeoPDF-Georeferenzierung",
        "lagehinweis": "kartografische Symbolposition; nicht vermessungstechnisch oder vor Ort bestätigt",
        "marker-color": "#8e24aa",
        "marker-symbol": "industrial",
        "marker-size": "medium",
        "title": "913 - E-Bohrbrunnen"
      }
    },
    {
      "type": "Feature",
      "id": "914",
      "geometry": {
        "type": "Point",
        "coordinates": [
          8.404067,
          54.714746
        ]
      },
      "properties": {
        "id": "914",
        "typ": "Hydrant",
        "menge_l_min": 1600,
        "quellkarte": "Utersum.pdf",
        "ortsname": "Utersum",
        "ortsquelle": "Utersum.pdf",
        "zuordnungsabstand_relativ": 1.003,
        "pdf_x_pt": 381.494,
        "pdf_y_von_oben_pt": 190.108,
        "koordinatenquelle": "eingebettete GeoPDF-Georeferenzierung",
        "lagehinweis": "kartografische Symbolposition; nicht vermessungstechnisch oder vor Ort bestätigt",
        "marker-color": "#1565c0",
        "marker-symbol": "fire-station",
        "marker-size": "medium",
        "title": "914 - Hydrant"
      }
    },
    {
      "type": "Feature",
      "id": "915",
      "geometry": {
        "type": "Point",
        "coordinates": [
          8.406944,
          54.714622
        ]
      },
      "properties": {
        "id": "915",
        "typ": "E-Bohrbrunnen",
        "menge_l_min": null,
        "quellkarte": "Utersum.pdf",
        "ortsname": "Utersum",
        "ortsquelle": "Utersum.pdf",
        "zuordnungsabstand_relativ": 1.279,
        "pdf_x_pt": 512.787,
        "pdf_y_von_oben_pt": 200.866,
        "koordinatenquelle": "eingebettete GeoPDF-Georeferenzierung",
        "lagehinweis": "kartografische Symbolposition; nicht vermessungstechnisch oder vor Ort bestätigt",
        "marker-color": "#8e24aa",
        "marker-symbol": "industrial",
        "marker-size": "medium",
        "title": "915 - E-Bohrbrunnen"
      }
    },
    {
      "type": "Feature",
      "id": "916",
      "geometry": {
        "type": "Point",
        "coordinates": [
          8.407232,
          54.714547
        ]
      },
      "properties": {
        "id": "916",
        "typ": "Bohrbrunnen",
        "menge_l_min": null,
        "quellkarte": "Utersum.pdf",
        "ortsname": "Utersum",
        "ortsquelle": "Utersum.pdf",
        "zuordnungsabstand_relativ": 0.819,
        "pdf_x_pt": 525.858,
        "pdf_y_von_oben_pt": 206.863,
        "koordinatenquelle": "eingebettete GeoPDF-Georeferenzierung",
        "lagehinweis": "kartografische Symbolposition; nicht vermessungstechnisch oder vor Ort bestätigt",
        "marker-color": "#f9a825",
        "marker-symbol": "water",
        "marker-size": "medium",
        "title": "916 - Bohrbrunnen"
      }
    },
    {
      "type": "Feature",
      "id": "918",
      "geometry": {
        "type": "Point",
        "coordinates": [
          8.403793,
          54.713839
        ]
      },
      "properties": {
        "id": "918",
        "typ": "Hydrant",
        "menge_l_min": 1600,
        "quellkarte": "Utersum.pdf",
        "ortsname": "Utersum",
        "ortsquelle": "Utersum.pdf",
        "zuordnungsabstand_relativ": 0.989,
        "pdf_x_pt": 368.385,
        "pdf_y_von_oben_pt": 261.508,
        "koordinatenquelle": "eingebettete GeoPDF-Georeferenzierung",
        "lagehinweis": "kartografische Symbolposition; nicht vermessungstechnisch oder vor Ort bestätigt",
        "marker-color": "#1565c0",
        "marker-symbol": "fire-station",
        "marker-size": "medium",
        "title": "918 - Hydrant"
      }
    },
    {
      "type": "Feature",
      "id": "919",
      "geometry": {
        "type": "Point",
        "coordinates": [
          8.406609,
          54.713787
        ]
      },
      "properties": {
        "id": "919",
        "typ": "Hydrant",
        "menge_l_min": 1600,
        "quellkarte": "Utersum.pdf",
        "ortsname": "Utersum",
        "ortsquelle": "Utersum.pdf",
        "zuordnungsabstand_relativ": 0.816,
        "pdf_x_pt": 496.934,
        "pdf_y_von_oben_pt": 266.627,
        "koordinatenquelle": "eingebettete GeoPDF-Georeferenzierung",
        "lagehinweis": "kartografische Symbolposition; nicht vermessungstechnisch oder vor Ort bestätigt",
        "marker-color": "#1565c0",
        "marker-symbol": "fire-station",
        "marker-size": "medium",
        "title": "919 - Hydrant"
      }
    },
    {
      "type": "Feature",
      "id": "921",
      "geometry": {
        "type": "Point",
        "coordinates": [
          8.406474,
          54.711889
        ]
      },
      "properties": {
        "id": "921",
        "typ": "Hydrant",
        "menge_l_min": 1600,
        "quellkarte": "Utersum.pdf",
        "ortsname": "Utersum",
        "ortsquelle": "Utersum.pdf",
        "zuordnungsabstand_relativ": 0.829,
        "pdf_x_pt": 489.501,
        "pdf_y_von_oben_pt": 416.206,
        "koordinatenquelle": "eingebettete GeoPDF-Georeferenzierung",
        "lagehinweis": "kartografische Symbolposition; nicht vermessungstechnisch oder vor Ort bestätigt",
        "marker-color": "#1565c0",
        "marker-symbol": "fire-station",
        "marker-size": "medium",
        "title": "921 - Hydrant"
      }
    },
    {
      "type": "Feature",
      "id": "922",
      "geometry": {
        "type": "Point",
        "coordinates": [
          8.405167,
          54.712012
        ]
      },
      "properties": {
        "id": "922",
        "typ": "Hydrant",
        "menge_l_min": 1600,
        "quellkarte": "Utersum.pdf",
        "ortsname": "Utersum",
        "ortsquelle": "Utersum.pdf",
        "zuordnungsabstand_relativ": 0.751,
        "pdf_x_pt": 429.89,
        "pdf_y_von_oben_pt": 406.066,
        "koordinatenquelle": "eingebettete GeoPDF-Georeferenzierung",
        "lagehinweis": "kartografische Symbolposition; nicht vermessungstechnisch oder vor Ort bestätigt",
        "marker-color": "#1565c0",
        "marker-symbol": "fire-station",
        "marker-size": "medium",
        "title": "922 - Hydrant"
      }
    },
    {
      "type": "Feature",
      "id": "923",
      "geometry": {
        "type": "Point",
        "coordinates": [
          8.404935,
          54.712353
        ]
      },
      "properties": {
        "id": "923",
        "typ": "Hydrant",
        "menge_l_min": 1600,
        "quellkarte": "Utersum.pdf",
        "ortsname": "Utersum",
        "ortsquelle": "Utersum.pdf",
        "zuordnungsabstand_relativ": 0.935,
        "pdf_x_pt": 419.556,
        "pdf_y_von_oben_pt": 379.069,
        "koordinatenquelle": "eingebettete GeoPDF-Georeferenzierung",
        "lagehinweis": "kartografische Symbolposition; nicht vermessungstechnisch oder vor Ort bestätigt",
        "marker-color": "#1565c0",
        "marker-symbol": "fire-station",
        "marker-size": "medium",
        "title": "923 - Hydrant"
      }
    },
    {
      "type": "Feature",
      "id": "924",
      "geometry": {
        "type": "Point",
        "coordinates": [
          8.403987,
          54.712309
        ]
      },
      "properties": {
        "id": "924",
        "typ": "Hydrant",
        "menge_l_min": 1600,
        "quellkarte": "Utersum.pdf",
        "ortsname": "Utersum",
        "ortsquelle": "Utersum.pdf",
        "zuordnungsabstand_relativ": 0.903,
        "pdf_x_pt": 376.198,
        "pdf_y_von_oben_pt": 382.193,
        "koordinatenquelle": "eingebettete GeoPDF-Georeferenzierung",
        "lagehinweis": "kartografische Symbolposition; nicht vermessungstechnisch oder vor Ort bestätigt",
        "marker-color": "#1565c0",
        "marker-symbol": "fire-station",
        "marker-size": "medium",
        "title": "924 - Hydrant"
      }
    },
    {
      "type": "Feature",
      "id": "925",
      "geometry": {
        "type": "Point",
        "coordinates": [
          8.402813,
          54.7122
        ]
      },
      "properties": {
        "id": "925",
        "typ": "Hydrant",
        "menge_l_min": 1600,
        "quellkarte": "Utersum.pdf",
        "ortsname": "Utersum",
        "ortsquelle": "Utersum.pdf",
        "zuordnungsabstand_relativ": 1.05,
        "pdf_x_pt": 322.544,
        "pdf_y_von_oben_pt": 390.425,
        "koordinatenquelle": "eingebettete GeoPDF-Georeferenzierung",
        "lagehinweis": "kartografische Symbolposition; nicht vermessungstechnisch oder vor Ort bestätigt",
        "marker-color": "#1565c0",
        "marker-symbol": "fire-station",
        "marker-size": "medium",
        "title": "925 - Hydrant"
      }
    },
    {
      "type": "Feature",
      "id": "926",
      "geometry": {
        "type": "Point",
        "coordinates": [
          8.398552,
          54.712776
        ]
      },
      "properties": {
        "id": "926",
        "typ": "Hydrant",
        "menge_l_min": 1600,
        "quellkarte": "Utersum.pdf",
        "ortsname": "Utersum",
        "ortsquelle": "Utersum.pdf",
        "zuordnungsabstand_relativ": 0.773,
        "pdf_x_pt": 128.368,
        "pdf_y_von_oben_pt": 343.463,
        "koordinatenquelle": "eingebettete GeoPDF-Georeferenzierung",
        "lagehinweis": "kartografische Symbolposition; nicht vermessungstechnisch oder vor Ort bestätigt",
        "marker-color": "#1565c0",
        "marker-symbol": "fire-station",
        "marker-size": "medium",
        "title": "926 - Hydrant"
      }
    },
    {
      "type": "Feature",
      "id": "927",
      "geometry": {
        "type": "Point",
        "coordinates": [
          8.39729,
          54.713594
        ]
      },
      "properties": {
        "id": "927",
        "typ": "Hydrant",
        "menge_l_min": 800,
        "quellkarte": "Utersum.pdf",
        "ortsname": "Utersum",
        "ortsquelle": "Utersum.pdf",
        "zuordnungsabstand_relativ": 0.824,
        "pdf_x_pt": 71.271,
        "pdf_y_von_oben_pt": 278.519,
        "koordinatenquelle": "eingebettete GeoPDF-Georeferenzierung",
        "lagehinweis": "kartografische Symbolposition; nicht vermessungstechnisch oder vor Ort bestätigt",
        "marker-color": "#1565c0",
        "marker-symbol": "fire-station",
        "marker-size": "medium",
        "title": "927 - Hydrant"
      }
    },
    {
      "type": "Feature",
      "id": "928",
      "geometry": {
        "type": "Point",
        "coordinates": [
          8.398339,
          54.711113
        ]
      },
      "properties": {
        "id": "928",
        "typ": "Hydrant",
        "menge_l_min": 1600,
        "quellkarte": "Utersum.pdf",
        "ortsname": "Utersum",
        "ortsquelle": "Utersum.pdf",
        "zuordnungsabstand_relativ": 0.866,
        "pdf_x_pt": 117.532,
        "pdf_y_von_oben_pt": 474.49,
        "koordinatenquelle": "eingebettete GeoPDF-Georeferenzierung",
        "lagehinweis": "kartografische Symbolposition; nicht vermessungstechnisch oder vor Ort bestätigt",
        "marker-color": "#1565c0",
        "marker-symbol": "fire-station",
        "marker-size": "medium",
        "title": "928 - Hydrant"
      }
    },
    {
      "type": "Feature",
      "id": "929",
      "geometry": {
        "type": "Point",
        "coordinates": [
          8.397585,
          54.709676
        ]
      },
      "properties": {
        "id": "929",
        "typ": "Hydrant",
        "menge_l_min": 1600,
        "quellkarte": "Utersum.pdf",
        "ortsname": "Utersum",
        "ortsquelle": "Utersum.pdf",
        "zuordnungsabstand_relativ": 0.824,
        "pdf_x_pt": 82.103,
        "pdf_y_von_oben_pt": 587.534,
        "koordinatenquelle": "eingebettete GeoPDF-Georeferenzierung",
        "lagehinweis": "kartografische Symbolposition; nicht vermessungstechnisch oder vor Ort bestätigt",
        "marker-color": "#1565c0",
        "marker-symbol": "fire-station",
        "marker-size": "medium",
        "title": "929 - Hydrant"
      }
    },
    {
      "type": "Feature",
      "id": "931",
      "geometry": {
        "type": "Point",
        "coordinates": [
          8.404526,
          54.709816
        ]
      },
      "properties": {
        "id": "931",
        "typ": "Hydrant",
        "menge_l_min": 1600,
        "quellkarte": "Utersum.pdf",
        "ortsname": "Utersum",
        "ortsquelle": "Utersum.pdf",
        "zuordnungsabstand_relativ": 0.824,
        "pdf_x_pt": 399.167,
        "pdf_y_von_oben_pt": 578.963,
        "koordinatenquelle": "eingebettete GeoPDF-Georeferenzierung",
        "lagehinweis": "kartografische Symbolposition; nicht vermessungstechnisch oder vor Ort bestätigt",
        "marker-color": "#1565c0",
        "marker-symbol": "fire-station",
        "marker-size": "medium",
        "title": "931 - Hydrant"
      }
    },
    {
      "type": "Feature",
      "id": "932",
      "geometry": {
        "type": "Point",
        "coordinates": [
          8.401225,
          54.709407
        ]
      },
      "properties": {
        "id": "932",
        "typ": "Hydrant",
        "menge_l_min": 1600,
        "quellkarte": "Utersum.pdf",
        "ortsname": "Utersum",
        "ortsquelle": "Utersum.pdf",
        "zuordnungsabstand_relativ": 0.814,
        "pdf_x_pt": 248.147,
        "pdf_y_von_oben_pt": 610.067,
        "koordinatenquelle": "eingebettete GeoPDF-Georeferenzierung",
        "lagehinweis": "kartografische Symbolposition; nicht vermessungstechnisch oder vor Ort bestätigt",
        "marker-color": "#1565c0",
        "marker-symbol": "fire-station",
        "marker-size": "medium",
        "title": "932 - Hydrant"
      }
    },
    {
      "type": "Feature",
      "id": "933",
      "geometry": {
        "type": "Point",
        "coordinates": [
          8.405894,
          54.709349
        ]
      },
      "properties": {
        "id": "933",
        "typ": "Hydrant",
        "menge_l_min": 1600,
        "quellkarte": "Utersum.pdf",
        "ortsname": "Utersum",
        "ortsquelle": "Utersum.pdf",
        "zuordnungsabstand_relativ": 0.913,
        "pdf_x_pt": 461.329,
        "pdf_y_von_oben_pt": 616.277,
        "koordinatenquelle": "eingebettete GeoPDF-Georeferenzierung",
        "lagehinweis": "kartografische Symbolposition; nicht vermessungstechnisch oder vor Ort bestätigt",
        "marker-color": "#1565c0",
        "marker-symbol": "fire-station",
        "marker-size": "medium",
        "title": "933 - Hydrant"
      }
    },
    {
      "type": "Feature",
      "id": "934",
      "geometry": {
        "type": "Point",
        "coordinates": [
          8.402795,
          54.708776
        ]
      },
      "properties": {
        "id": "934",
        "typ": "Hydrant",
        "menge_l_min": 1600,
        "quellkarte": "Utersum.pdf",
        "ortsname": "Utersum",
        "ortsquelle": "Utersum.pdf",
        "zuordnungsabstand_relativ": 0.771,
        "pdf_x_pt": 319.409,
        "pdf_y_von_oben_pt": 660.378,
        "koordinatenquelle": "eingebettete GeoPDF-Georeferenzierung",
        "lagehinweis": "kartografische Symbolposition; nicht vermessungstechnisch oder vor Ort bestätigt",
        "marker-color": "#1565c0",
        "marker-symbol": "fire-station",
        "marker-size": "medium",
        "title": "934 - Hydrant"
      }
    },
    {
      "type": "Feature",
      "id": "935",
      "geometry": {
        "type": "Point",
        "coordinates": [
          8.403454,
          54.708816
        ]
      },
      "properties": {
        "id": "935",
        "typ": "E-Bohrbrunnen",
        "menge_l_min": null,
        "quellkarte": "Utersum.pdf",
        "ortsname": "Utersum",
        "ortsquelle": "Utersum.pdf",
        "zuordnungsabstand_relativ": 0.984,
        "pdf_x_pt": 349.552,
        "pdf_y_von_oben_pt": 657.464,
        "koordinatenquelle": "eingebettete GeoPDF-Georeferenzierung",
        "lagehinweis": "kartografische Symbolposition; nicht vermessungstechnisch oder vor Ort bestätigt",
        "marker-color": "#8e24aa",
        "marker-symbol": "industrial",
        "marker-size": "medium",
        "title": "935 - E-Bohrbrunnen"
      }
    },
    {
      "type": "Feature",
      "id": "936",
      "geometry": {
        "type": "Point",
        "coordinates": [
          8.404086,
          54.70875
        ]
      },
      "properties": {
        "id": "936",
        "typ": "Hydrant",
        "menge_l_min": 1600,
        "quellkarte": "Utersum.pdf",
        "ortsname": "Utersum",
        "ortsquelle": "Utersum.pdf",
        "zuordnungsabstand_relativ": 0.796,
        "pdf_x_pt": 378.36,
        "pdf_y_von_oben_pt": 662.889,
        "koordinatenquelle": "eingebettete GeoPDF-Georeferenzierung",
        "lagehinweis": "kartografische Symbolposition; nicht vermessungstechnisch oder vor Ort bestätigt",
        "marker-color": "#1565c0",
        "marker-symbol": "fire-station",
        "marker-size": "medium",
        "title": "936 - Hydrant"
      }
    },
    {
      "type": "Feature",
      "id": "937",
      "geometry": {
        "type": "Point",
        "coordinates": [
          8.400999,
          54.708427
        ]
      },
      "properties": {
        "id": "937",
        "typ": "Hydrant",
        "menge_l_min": 1600,
        "quellkarte": "Utersum.pdf",
        "ortsname": "Utersum",
        "ortsquelle": "Utersum.pdf",
        "zuordnungsabstand_relativ": 0.797,
        "pdf_x_pt": 237.174,
        "pdf_y_von_oben_pt": 687.205,
        "koordinatenquelle": "eingebettete GeoPDF-Georeferenzierung",
        "lagehinweis": "kartografische Symbolposition; nicht vermessungstechnisch oder vor Ort bestätigt",
        "marker-color": "#1565c0",
        "marker-symbol": "fire-station",
        "marker-size": "medium",
        "title": "937 - Hydrant"
      }
    },
    {
      "type": "Feature",
      "id": "938",
      "geometry": {
        "type": "Point",
        "coordinates": [
          8.405692,
          54.707173
        ]
      },
      "properties": {
        "id": "938",
        "typ": "Hydrant",
        "menge_l_min": 1600,
        "quellkarte": "Utersum.pdf",
        "ortsname": "Utersum",
        "ortsquelle": "Utersum.pdf",
        "zuordnungsabstand_relativ": 0.79,
        "pdf_x_pt": 450.682,
        "pdf_y_von_oben_pt": 787.759,
        "koordinatenquelle": "eingebettete GeoPDF-Georeferenzierung",
        "lagehinweis": "kartografische Symbolposition; nicht vermessungstechnisch oder vor Ort bestätigt",
        "marker-color": "#1565c0",
        "marker-symbol": "fire-station",
        "marker-size": "medium",
        "title": "938 - Hydrant"
      }
    },
    {
      "type": "Feature",
      "id": "939",
      "geometry": {
        "type": "Point",
        "coordinates": [
          8.40377,
          54.70364
        ]
      },
      "properties": {
        "id": "939",
        "typ": "Hydrant",
        "menge_l_min": 1600,
        "quellkarte": "Utersum.pdf",
        "ortsname": "Utersum",
        "ortsquelle": "Utersum.pdf",
        "zuordnungsabstand_relativ": 0.811,
        "pdf_x_pt": 360.511,
        "pdf_y_von_oben_pt": 1065.631,
        "koordinatenquelle": "eingebettete GeoPDF-Georeferenzierung",
        "lagehinweis": "kartografische Symbolposition; nicht vermessungstechnisch oder vor Ort bestätigt",
        "marker-color": "#1565c0",
        "marker-symbol": "fire-station",
        "marker-size": "medium",
        "title": "939 - Hydrant"
      }
    },
    {
      "type": "Feature",
      "id": "941",
      "geometry": {
        "type": "Point",
        "coordinates": [
          8.399495,
          54.705143
        ]
      },
      "properties": {
        "id": "941",
        "typ": "E-Bohrbrunnen",
        "menge_l_min": null,
        "quellkarte": "Utersum.pdf",
        "ortsname": "Utersum",
        "ortsquelle": "Utersum.pdf",
        "zuordnungsabstand_relativ": 0.984,
        "pdf_x_pt": 166.259,
        "pdf_y_von_oben_pt": 945.679,
        "koordinatenquelle": "eingebettete GeoPDF-Georeferenzierung",
        "lagehinweis": "kartografische Symbolposition; nicht vermessungstechnisch oder vor Ort bestätigt",
        "marker-color": "#8e24aa",
        "marker-symbol": "industrial",
        "marker-size": "medium",
        "title": "941 - E-Bohrbrunnen"
      }
    },
    {
      "type": "Feature",
      "id": "942",
      "geometry": {
        "type": "Point",
        "coordinates": [
          8.400198,
          54.705108
        ]
      },
      "properties": {
        "id": "942",
        "typ": "Hydrant",
        "menge_l_min": 1600,
        "quellkarte": "Utersum.pdf",
        "ortsname": "Utersum",
        "ortsquelle": "Utersum.pdf",
        "zuordnungsabstand_relativ": 0.795,
        "pdf_x_pt": 198.369,
        "pdf_y_von_oben_pt": 948.66,
        "koordinatenquelle": "eingebettete GeoPDF-Georeferenzierung",
        "lagehinweis": "kartografische Symbolposition; nicht vermessungstechnisch oder vor Ort bestätigt",
        "marker-color": "#1565c0",
        "marker-symbol": "fire-station",
        "marker-size": "medium",
        "title": "942 - Hydrant"
      }
    },
    {
      "type": "Feature",
      "id": "943",
      "geometry": {
        "type": "Point",
        "coordinates": [
          8.400036,
          54.704487
        ]
      },
      "properties": {
        "id": "943",
        "typ": "Hydrant",
        "menge_l_min": 1600,
        "quellkarte": "Utersum.pdf",
        "ortsname": "Utersum",
        "ortsquelle": "Utersum.pdf",
        "zuordnungsabstand_relativ": 0.912,
        "pdf_x_pt": 190.525,
        "pdf_y_von_oben_pt": 997.527,
        "koordinatenquelle": "eingebettete GeoPDF-Georeferenzierung",
        "lagehinweis": "kartografische Symbolposition; nicht vermessungstechnisch oder vor Ort bestätigt",
        "marker-color": "#1565c0",
        "marker-symbol": "fire-station",
        "marker-size": "medium",
        "title": "943 - Hydrant"
      }
    },
    {
      "type": "Feature",
      "id": "944",
      "geometry": {
        "type": "Point",
        "coordinates": [
          8.399464,
          54.704061
        ]
      },
      "properties": {
        "id": "944",
        "typ": "Hydrant",
        "menge_l_min": 1600,
        "quellkarte": "Utersum.pdf",
        "ortsname": "Utersum",
        "ortsquelle": "Utersum.pdf",
        "zuordnungsabstand_relativ": 0.833,
        "pdf_x_pt": 164.11,
        "pdf_y_von_oben_pt": 1030.946,
        "koordinatenquelle": "eingebettete GeoPDF-Georeferenzierung",
        "lagehinweis": "kartografische Symbolposition; nicht vermessungstechnisch oder vor Ort bestätigt",
        "marker-color": "#1565c0",
        "marker-symbol": "fire-station",
        "marker-size": "medium",
        "title": "944 - Hydrant"
      }
    },
    {
      "type": "Feature",
      "id": "945",
      "geometry": {
        "type": "Point",
        "coordinates": [
          8.401867,
          54.703843
        ]
      },
      "properties": {
        "id": "945",
        "typ": "E-Bohrbrunnen",
        "menge_l_min": null,
        "quellkarte": "Utersum.pdf",
        "ortsname": "Utersum",
        "ortsquelle": "Utersum.pdf",
        "zuordnungsabstand_relativ": 0.974,
        "pdf_x_pt": 273.745,
        "pdf_y_von_oben_pt": 1048.951,
        "koordinatenquelle": "eingebettete GeoPDF-Georeferenzierung",
        "lagehinweis": "kartografische Symbolposition; nicht vermessungstechnisch oder vor Ort bestätigt",
        "marker-color": "#8e24aa",
        "marker-symbol": "industrial",
        "marker-size": "medium",
        "title": "945 - E-Bohrbrunnen"
      }
    },
    {
      "type": "Feature",
      "id": "946",
      "geometry": {
        "type": "Point",
        "coordinates": [
          8.399799,
          54.70332
        ]
      },
      "properties": {
        "id": "946",
        "typ": "Hydrant",
        "menge_l_min": 800,
        "quellkarte": "Utersum.pdf",
        "ortsname": "Utersum",
        "ortsquelle": "Utersum.pdf",
        "zuordnungsabstand_relativ": 0.785,
        "pdf_x_pt": 178.949,
        "pdf_y_von_oben_pt": 1089.46,
        "koordinatenquelle": "eingebettete GeoPDF-Georeferenzierung",
        "lagehinweis": "kartografische Symbolposition; nicht vermessungstechnisch oder vor Ort bestätigt",
        "marker-color": "#1565c0",
        "marker-symbol": "fire-station",
        "marker-size": "medium",
        "title": "946 - Hydrant"
      }
    },
    {
      "type": "Feature",
      "id": "947",
      "geometry": {
        "type": "Point",
        "coordinates": [
          8.400008,
          54.703172
        ]
      },
      "properties": {
        "id": "947",
        "typ": "E-Bohrbrunnen",
        "menge_l_min": null,
        "quellkarte": "Utersum.pdf",
        "ortsname": "Utersum",
        "ortsquelle": "Utersum.pdf",
        "zuordnungsabstand_relativ": 0.974,
        "pdf_x_pt": 188.374,
        "pdf_y_von_oben_pt": 1101.204,
        "koordinatenquelle": "eingebettete GeoPDF-Georeferenzierung",
        "lagehinweis": "kartografische Symbolposition; nicht vermessungstechnisch oder vor Ort bestätigt",
        "marker-color": "#8e24aa",
        "marker-symbol": "industrial",
        "marker-size": "medium",
        "title": "947 - E-Bohrbrunnen"
      }
    },
    {
      "type": "Feature",
      "id": "948",
      "geometry": {
        "type": "Point",
        "coordinates": [
          8.401055,
          54.703254
        ]
      },
      "properties": {
        "id": "948",
        "typ": "Hydrant",
        "menge_l_min": 800,
        "quellkarte": "Utersum.pdf",
        "ortsname": "Utersum",
        "ortsquelle": "Utersum.pdf",
        "zuordnungsabstand_relativ": 0.83,
        "pdf_x_pt": 236.251,
        "pdf_y_von_oben_pt": 1095.112,
        "koordinatenquelle": "eingebettete GeoPDF-Georeferenzierung",
        "lagehinweis": "kartografische Symbolposition; nicht vermessungstechnisch oder vor Ort bestätigt",
        "marker-color": "#1565c0",
        "marker-symbol": "fire-station",
        "marker-size": "medium",
        "title": "948 - Hydrant"
      }
    },
    {
      "type": "Feature",
      "id": "949",
      "geometry": {
        "type": "Point",
        "coordinates": [
          8.401187,
          54.702914
        ]
      },
      "properties": {
        "id": "949",
        "typ": "Hydrant",
        "menge_l_min": 800,
        "quellkarte": "Utersum.pdf",
        "ortsname": "Utersum",
        "ortsquelle": "Utersum.pdf",
        "zuordnungsabstand_relativ": 0.902,
        "pdf_x_pt": 242.033,
        "pdf_y_von_oben_pt": 1122.016,
        "koordinatenquelle": "eingebettete GeoPDF-Georeferenzierung",
        "lagehinweis": "kartografische Symbolposition; nicht vermessungstechnisch oder vor Ort bestätigt",
        "marker-color": "#1565c0",
        "marker-symbol": "fire-station",
        "marker-size": "medium",
        "title": "949 - Hydrant"
      }
    },
    {
      "type": "Feature",
      "id": "951",
      "geometry": {
        "type": "Point",
        "coordinates": [
          8.401773,
          54.70291
        ]
      },
      "properties": {
        "id": "951",
        "typ": "E-Bohrbrunnen",
        "menge_l_min": null,
        "quellkarte": "Utersum.pdf",
        "ortsname": "Utersum",
        "ortsquelle": "Utersum.pdf",
        "zuordnungsabstand_relativ": 0.974,
        "pdf_x_pt": 268.808,
        "pdf_y_von_oben_pt": 1122.496,
        "koordinatenquelle": "eingebettete GeoPDF-Georeferenzierung",
        "lagehinweis": "kartografische Symbolposition; nicht vermessungstechnisch oder vor Ort bestätigt",
        "marker-color": "#8e24aa",
        "marker-symbol": "industrial",
        "marker-size": "medium",
        "title": "951 - E-Bohrbrunnen"
      }
    },
    {
      "type": "Feature",
      "id": "952",
      "geometry": {
        "type": "Point",
        "coordinates": [
          8.401972,
          54.70275
        ]
      },
      "properties": {
        "id": "952",
        "typ": "Hydrant",
        "menge_l_min": 800,
        "quellkarte": "Utersum.pdf",
        "ortsname": "Utersum",
        "ortsquelle": "Utersum.pdf",
        "zuordnungsabstand_relativ": 1.124,
        "pdf_x_pt": 277.804,
        "pdf_y_von_oben_pt": 1135.206,
        "koordinatenquelle": "eingebettete GeoPDF-Georeferenzierung",
        "lagehinweis": "kartografische Symbolposition; nicht vermessungstechnisch oder vor Ort bestätigt",
        "marker-color": "#1565c0",
        "marker-symbol": "fire-station",
        "marker-size": "medium",
        "title": "952 - Hydrant"
      }
    }
  ]
}