{
  "type": "FeatureCollection",
  "name": "Wyk_Boldixum",
  "features": [
    {
      "type": "Feature",
      "id": "250",
      "geometry": {
        "type": "Point",
        "coordinates": [
          8.559257,
          54.692754
        ]
      },
      "properties": {
        "id": "250",
        "typ": "Hydrant",
        "menge_l_min": 1600,
        "quellkarte": "Wyk_Boldixum.pdf",
        "ortsname": "Wyk-Boldixum",
        "ortsquelle": "Wyk_Boldixum.pdf",
        "zuordnungsabstand_relativ": 0.809,
        "pdf_x_pt": 427.32,
        "pdf_y_von_oben_pt": 1150.988,
        "koordinatenquelle": "eingebettete GeoPDF-Georeferenzierung",
        "lagehinweis": "kartografische Symbolposition; nicht vermessungstechnisch oder vor Ort bestätigt",
        "marker-color": "#1565c0",
        "marker-symbol": "fire-station",
        "marker-size": "medium",
        "title": "250 - Hydrant"
      }
    },
    {
      "type": "Feature",
      "id": "251",
      "geometry": {
        "type": "Point",
        "coordinates": [
          8.558913,
          54.692381
        ]
      },
      "properties": {
        "id": "251",
        "typ": "Hydrant",
        "menge_l_min": 1600,
        "quellkarte": "Wyk_Boldixum.pdf",
        "ortsname": "Wyk-Boldixum",
        "ortsquelle": "Wyk_Boldixum.pdf",
        "zuordnungsabstand_relativ": 0.887,
        "pdf_x_pt": 414.071,
        "pdf_y_von_oben_pt": 1175.451,
        "koordinatenquelle": "eingebettete GeoPDF-Georeferenzierung",
        "lagehinweis": "kartografische Symbolposition; nicht vermessungstechnisch oder vor Ort bestätigt",
        "marker-color": "#1565c0",
        "marker-symbol": "fire-station",
        "marker-size": "medium",
        "title": "251 - Hydrant"
      }
    },
    {
      "type": "Feature",
      "id": "264",
      "geometry": {
        "type": "Point",
        "coordinates": [
          8.55533,
          54.693174
        ]
      },
      "properties": {
        "id": "264",
        "typ": "Hydrant",
        "menge_l_min": 3200,
        "quellkarte": "Wyk_Boldixum.pdf",
        "ortsname": "Wyk-Boldixum",
        "ortsquelle": "Wyk_Boldixum.pdf",
        "zuordnungsabstand_relativ": 0.787,
        "pdf_x_pt": 278.043,
        "pdf_y_von_oben_pt": 1122.581,
        "koordinatenquelle": "eingebettete GeoPDF-Georeferenzierung",
        "lagehinweis": "kartografische Symbolposition; nicht vermessungstechnisch oder vor Ort bestätigt",
        "marker-color": "#1565c0",
        "marker-symbol": "fire-station",
        "marker-size": "medium",
        "title": "264 - Hydrant"
      }
    },
    {
      "type": "Feature",
      "id": "265",
      "geometry": {
        "type": "Point",
        "coordinates": [
          8.557365,
          54.692509
        ]
      },
      "properties": {
        "id": "265",
        "typ": "Hydrant",
        "menge_l_min": 1600,
        "quellkarte": "Wyk_Boldixum.pdf",
        "ortsname": "Wyk-Boldixum",
        "ortsquelle": "Wyk_Boldixum.pdf",
        "zuordnungsabstand_relativ": 0.793,
        "pdf_x_pt": 355.201,
        "pdf_y_von_oben_pt": 1166.682,
        "koordinatenquelle": "eingebettete GeoPDF-Georeferenzierung",
        "lagehinweis": "kartografische Symbolposition; nicht vermessungstechnisch oder vor Ort bestätigt",
        "marker-color": "#1565c0",
        "marker-symbol": "fire-station",
        "marker-size": "medium",
        "title": "265 - Hydrant"
      }
    },
    {
      "type": "Feature",
      "id": "266",
      "geometry": {
        "type": "Point",
        "coordinates": [
          8.557926,
          54.693173
        ]
      },
      "properties": {
        "id": "266",
        "typ": "Hydrant",
        "menge_l_min": 1600,
        "quellkarte": "Wyk_Boldixum.pdf",
        "ortsname": "Wyk-Boldixum",
        "ortsquelle": "Wyk_Boldixum.pdf",
        "zuordnungsabstand_relativ": 0.826,
        "pdf_x_pt": 376.835,
        "pdf_y_von_oben_pt": 1123.159,
        "koordinatenquelle": "eingebettete GeoPDF-Georeferenzierung",
        "lagehinweis": "kartografische Symbolposition; nicht vermessungstechnisch oder vor Ort bestätigt",
        "marker-color": "#1565c0",
        "marker-symbol": "fire-station",
        "marker-size": "medium",
        "title": "266 - Hydrant"
      }
    },
    {
      "type": "Feature",
      "id": "267",
      "geometry": {
        "type": "Point",
        "coordinates": [
          8.55737,
          54.693968
        ]
      },
      "properties": {
        "id": "267",
        "typ": "Hydrant",
        "menge_l_min": 1600,
        "quellkarte": "Wyk_Boldixum.pdf",
        "ortsname": "Wyk-Boldixum",
        "ortsquelle": "Wyk_Boldixum.pdf",
        "zuordnungsabstand_relativ": 0.772,
        "pdf_x_pt": 355.986,
        "pdf_y_von_oben_pt": 1070.807,
        "koordinatenquelle": "eingebettete GeoPDF-Georeferenzierung",
        "lagehinweis": "kartografische Symbolposition; nicht vermessungstechnisch oder vor Ort bestätigt",
        "marker-color": "#1565c0",
        "marker-symbol": "fire-station",
        "marker-size": "medium",
        "title": "267 - Hydrant"
      }
    },
    {
      "type": "Feature",
      "id": "268",
      "geometry": {
        "type": "Point",
        "coordinates": [
          8.556509,
          54.694369
        ]
      },
      "properties": {
        "id": "268",
        "typ": "Hydrant",
        "menge_l_min": 3200,
        "quellkarte": "Wyk_Boldixum.pdf",
        "ortsname": "Wyk-Boldixum",
        "ortsquelle": "Wyk_Boldixum.pdf",
        "zuordnungsabstand_relativ": 0.9,
        "pdf_x_pt": 323.392,
        "pdf_y_von_oben_pt": 1044.28,
        "koordinatenquelle": "eingebettete GeoPDF-Georeferenzierung",
        "lagehinweis": "kartografische Symbolposition; nicht vermessungstechnisch oder vor Ort bestätigt",
        "marker-color": "#1565c0",
        "marker-symbol": "fire-station",
        "marker-size": "medium",
        "title": "268 - Hydrant"
      }
    },
    {
      "type": "Feature",
      "id": "269",
      "geometry": {
        "type": "Point",
        "coordinates": [
          8.557497,
          54.694906
        ]
      },
      "properties": {
        "id": "269",
        "typ": "Hydrant",
        "menge_l_min": 3200,
        "quellkarte": "Wyk_Boldixum.pdf",
        "ortsname": "Wyk-Boldixum",
        "ortsquelle": "Wyk_Boldixum.pdf",
        "zuordnungsabstand_relativ": 0.943,
        "pdf_x_pt": 361.207,
        "pdf_y_von_oben_pt": 1009.224,
        "koordinatenquelle": "eingebettete GeoPDF-Georeferenzierung",
        "lagehinweis": "kartografische Symbolposition; nicht vermessungstechnisch oder vor Ort bestätigt",
        "marker-color": "#1565c0",
        "marker-symbol": "fire-station",
        "marker-size": "medium",
        "title": "269 - Hydrant"
      }
    },
    {
      "type": "Feature",
      "id": "270",
      "geometry": {
        "type": "Point",
        "coordinates": [
          8.558884,
          54.694313
        ]
      },
      "properties": {
        "id": "270",
        "typ": "Hydrant",
        "menge_l_min": 3200,
        "quellkarte": "Wyk_Boldixum.pdf",
        "ortsname": "Wyk-Boldixum",
        "ortsquelle": "Wyk_Boldixum.pdf",
        "zuordnungsabstand_relativ": 0.795,
        "pdf_x_pt": 413.768,
        "pdf_y_von_oben_pt": 1048.518,
        "koordinatenquelle": "eingebettete GeoPDF-Georeferenzierung",
        "lagehinweis": "kartografische Symbolposition; nicht vermessungstechnisch oder vor Ort bestätigt",
        "marker-color": "#1565c0",
        "marker-symbol": "fire-station",
        "marker-size": "medium",
        "title": "270 - Hydrant"
      }
    },
    {
      "type": "Feature",
      "id": "271",
      "geometry": {
        "type": "Point",
        "coordinates": [
          8.559892,
          54.693691
        ]
      },
      "properties": {
        "id": "271",
        "typ": "Hydrant",
        "menge_l_min": 3200,
        "quellkarte": "Wyk_Boldixum.pdf",
        "ortsname": "Wyk-Boldixum",
        "ortsquelle": "Wyk_Boldixum.pdf",
        "zuordnungsabstand_relativ": 0.876,
        "pdf_x_pt": 451.876,
        "pdf_y_von_oben_pt": 1089.589,
        "koordinatenquelle": "eingebettete GeoPDF-Georeferenzierung",
        "lagehinweis": "kartografische Symbolposition; nicht vermessungstechnisch oder vor Ort bestätigt",
        "marker-color": "#1565c0",
        "marker-symbol": "fire-station",
        "marker-size": "medium",
        "title": "271 - Hydrant"
      }
    },
    {
      "type": "Feature",
      "id": "272",
      "geometry": {
        "type": "Point",
        "coordinates": [
          8.559641,
          54.69314
        ]
      },
      "properties": {
        "id": "272",
        "typ": "Hydrant",
        "menge_l_min": 1600,
        "quellkarte": "Wyk_Boldixum.pdf",
        "ortsname": "Wyk-Boldixum",
        "ortsquelle": "Wyk_Boldixum.pdf",
        "zuordnungsabstand_relativ": 0.926,
        "pdf_x_pt": 442.08,
        "pdf_y_von_oben_pt": 1125.711,
        "koordinatenquelle": "eingebettete GeoPDF-Georeferenzierung",
        "lagehinweis": "kartografische Symbolposition; nicht vermessungstechnisch oder vor Ort bestätigt",
        "marker-color": "#1565c0",
        "marker-symbol": "fire-station",
        "marker-size": "medium",
        "title": "272 - Hydrant"
      }
    },
    {
      "type": "Feature",
      "id": "275",
      "geometry": {
        "type": "Point",
        "coordinates": [
          8.562084,
          54.694027
        ]
      },
      "properties": {
        "id": "275",
        "typ": "E-Bohrbrunnen",
        "menge_l_min": null,
        "quellkarte": "Wyk_Boldixum.pdf",
        "ortsname": "Wyk-Boldixum",
        "ortsquelle": "Wyk_Boldixum.pdf",
        "zuordnungsabstand_relativ": 0.974,
        "pdf_x_pt": 535.415,
        "pdf_y_von_oben_pt": 1067.98,
        "koordinatenquelle": "eingebettete GeoPDF-Georeferenzierung",
        "lagehinweis": "kartografische Symbolposition; nicht vermessungstechnisch oder vor Ort bestätigt",
        "marker-color": "#8e24aa",
        "marker-symbol": "industrial",
        "marker-size": "medium",
        "title": "275 - E-Bohrbrunnen"
      }
    },
    {
      "type": "Feature",
      "id": "276",
      "geometry": {
        "type": "Point",
        "coordinates": [
          8.561326,
          54.693259
        ]
      },
      "properties": {
        "id": "276",
        "typ": "Hydrant",
        "menge_l_min": 1600,
        "quellkarte": "Wyk_Boldixum.pdf",
        "ortsname": "Wyk-Boldixum",
        "ortsquelle": "Wyk_Boldixum.pdf",
        "zuordnungsabstand_relativ": 0.852,
        "pdf_x_pt": 506.244,
        "pdf_y_von_oben_pt": 1118.287,
        "koordinatenquelle": "eingebettete GeoPDF-Georeferenzierung",
        "lagehinweis": "kartografische Symbolposition; nicht vermessungstechnisch oder vor Ort bestätigt",
        "marker-color": "#1565c0",
        "marker-symbol": "fire-station",
        "marker-size": "medium",
        "title": "276 - Hydrant"
      }
    },
    {
      "type": "Feature",
      "id": "282",
      "geometry": {
        "type": "Point",
        "coordinates": [
          8.565915,
          54.694232
        ]
      },
      "properties": {
        "id": "282",
        "typ": "Bohrbrunnen",
        "menge_l_min": null,
        "quellkarte": "Wyk_Boldixum.pdf",
        "ortsname": "Wyk-Boldixum",
        "ortsquelle": "Wyk_Boldixum.pdf",
        "zuordnungsabstand_relativ": 0.974,
        "pdf_x_pt": 681.268,
        "pdf_y_von_oben_pt": 1055.328,
        "koordinatenquelle": "eingebettete GeoPDF-Georeferenzierung",
        "lagehinweis": "kartografische Symbolposition; nicht vermessungstechnisch oder vor Ort bestätigt",
        "marker-color": "#f9a825",
        "marker-symbol": "water",
        "marker-size": "medium",
        "title": "282 - Bohrbrunnen"
      }
    },
    {
      "type": "Feature",
      "id": "283",
      "geometry": {
        "type": "Point",
        "coordinates": [
          8.564484,
          54.693791
        ]
      },
      "properties": {
        "id": "283",
        "typ": "Hydrant",
        "menge_l_min": 1600,
        "quellkarte": "Wyk_Boldixum.pdf",
        "ortsname": "Wyk-Boldixum",
        "ortsquelle": "Wyk_Boldixum.pdf",
        "zuordnungsabstand_relativ": 0.841,
        "pdf_x_pt": 626.634,
        "pdf_y_von_oben_pt": 1084.043,
        "koordinatenquelle": "eingebettete GeoPDF-Georeferenzierung",
        "lagehinweis": "kartografische Symbolposition; nicht vermessungstechnisch oder vor Ort bestätigt",
        "marker-color": "#1565c0",
        "marker-symbol": "fire-station",
        "marker-size": "medium",
        "title": "283 - Hydrant"
      }
    },
    {
      "type": "Feature",
      "id": "284",
      "geometry": {
        "type": "Point",
        "coordinates": [
          8.563565,
          54.692466
        ]
      },
      "properties": {
        "id": "284",
        "typ": "Hydrant",
        "menge_l_min": 1600,
        "quellkarte": "Wyk_Boldixum.pdf",
        "ortsname": "Wyk-Boldixum",
        "ortsquelle": "Wyk_Boldixum.pdf",
        "zuordnungsabstand_relativ": 0.793,
        "pdf_x_pt": 591.114,
        "pdf_y_von_oben_pt": 1170.877,
        "koordinatenquelle": "eingebettete GeoPDF-Georeferenzierung",
        "lagehinweis": "kartografische Symbolposition; nicht vermessungstechnisch oder vor Ort bestätigt",
        "marker-color": "#1565c0",
        "marker-symbol": "fire-station",
        "marker-size": "medium",
        "title": "284 - Hydrant"
      }
    },
    {
      "type": "Feature",
      "id": "303",
      "geometry": {
        "type": "Point",
        "coordinates": [
          8.567302,
          54.692823
        ]
      },
      "properties": {
        "id": "303",
        "typ": "Hydrant",
        "menge_l_min": "<400",
        "quellkarte": "Wyk_Boldixum.pdf",
        "ortsname": "Wyk-Boldixum",
        "ortsquelle": "Wyk_Boldixum.pdf",
        "zuordnungsabstand_relativ": 0.884,
        "pdf_x_pt": 733.469,
        "pdf_y_von_oben_pt": 1148.201,
        "koordinatenquelle": "eingebettete GeoPDF-Georeferenzierung",
        "lagehinweis": "kartografische Symbolposition; nicht vermessungstechnisch oder vor Ort bestätigt",
        "marker-color": "#1565c0",
        "marker-symbol": "fire-station",
        "marker-size": "medium",
        "title": "303 - Hydrant"
      }
    },
    {
      "type": "Feature",
      "id": "305",
      "geometry": {
        "type": "Point",
        "coordinates": [
          8.567135,
          54.692367
        ]
      },
      "properties": {
        "id": "305",
        "typ": "Hydrant",
        "menge_l_min": 400,
        "quellkarte": "Wyk_Boldixum.pdf",
        "ortsname": "Wyk-Boldixum",
        "ortsquelle": "Wyk_Boldixum.pdf",
        "zuordnungsabstand_relativ": 0.563,
        "pdf_x_pt": 726.935,
        "pdf_y_von_oben_pt": 1178.156,
        "koordinatenquelle": "eingebettete GeoPDF-Georeferenzierung",
        "lagehinweis": "kartografische Symbolposition; nicht vermessungstechnisch oder vor Ort bestätigt",
        "marker-color": "#1565c0",
        "marker-symbol": "fire-station",
        "marker-size": "medium",
        "title": "305 - Hydrant"
      }
    },
    {
      "type": "Feature",
      "id": "373",
      "geometry": {
        "type": "Point",
        "coordinates": [
          8.550357,
          54.694639
        ]
      },
      "properties": {
        "id": "373",
        "typ": "Hydrant",
        "menge_l_min": 3200,
        "quellkarte": "Wyk_Boldixum.pdf",
        "ortsname": "Wyk-Boldixum",
        "ortsquelle": "Wyk_Boldixum.pdf",
        "zuordnungsabstand_relativ": 0.879,
        "pdf_x_pt": 89.418,
        "pdf_y_von_oben_pt": 1025.211,
        "koordinatenquelle": "eingebettete GeoPDF-Georeferenzierung",
        "lagehinweis": "kartografische Symbolposition; nicht vermessungstechnisch oder vor Ort bestätigt",
        "marker-color": "#1565c0",
        "marker-symbol": "fire-station",
        "marker-size": "medium",
        "title": "373 - Hydrant"
      }
    },
    {
      "type": "Feature",
      "id": "374",
      "geometry": {
        "type": "Point",
        "coordinates": [
          8.552438,
          54.694677
        ]
      },
      "properties": {
        "id": "374",
        "typ": "Hydrant",
        "menge_l_min": 3200,
        "quellkarte": "Wyk_Boldixum.pdf",
        "ortsname": "Wyk-Boldixum",
        "ortsquelle": "Wyk_Boldixum.pdf",
        "zuordnungsabstand_relativ": 0.799,
        "pdf_x_pt": 168.631,
        "pdf_y_von_oben_pt": 1023.163,
        "koordinatenquelle": "eingebettete GeoPDF-Georeferenzierung",
        "lagehinweis": "kartografische Symbolposition; nicht vermessungstechnisch oder vor Ort bestätigt",
        "marker-color": "#1565c0",
        "marker-symbol": "fire-station",
        "marker-size": "medium",
        "title": "374 - Hydrant"
      }
    },
    {
      "type": "Feature",
      "id": "375",
      "geometry": {
        "type": "Point",
        "coordinates": [
          8.554491,
          54.694531
        ]
      },
      "properties": {
        "id": "375",
        "typ": "Hydrant",
        "menge_l_min": 3200,
        "quellkarte": "Wyk_Boldixum.pdf",
        "ortsname": "Wyk-Boldixum",
        "ortsquelle": "Wyk_Boldixum.pdf",
        "zuordnungsabstand_relativ": 1.02,
        "pdf_x_pt": 246.694,
        "pdf_y_von_oben_pt": 1033.21,
        "koordinatenquelle": "eingebettete GeoPDF-Georeferenzierung",
        "lagehinweis": "kartografische Symbolposition; nicht vermessungstechnisch oder vor Ort bestätigt",
        "marker-color": "#1565c0",
        "marker-symbol": "fire-station",
        "marker-size": "medium",
        "title": "375 - Hydrant"
      }
    },
    {
      "type": "Feature",
      "id": "381",
      "geometry": {
        "type": "Point",
        "coordinates": [
          8.556858,
          54.695325
        ]
      },
      "properties": {
        "id": "381",
        "typ": "Hydrant",
        "menge_l_min": 3200,
        "quellkarte": "Wyk_Boldixum.pdf",
        "ortsname": "Wyk-Boldixum",
        "ortsquelle": "Wyk_Boldixum.pdf",
        "zuordnungsabstand_relativ": 0.899,
        "pdf_x_pt": 337.087,
        "pdf_y_von_oben_pt": 981.554,
        "koordinatenquelle": "eingebettete GeoPDF-Georeferenzierung",
        "lagehinweis": "kartografische Symbolposition; nicht vermessungstechnisch oder vor Ort bestätigt",
        "marker-color": "#1565c0",
        "marker-symbol": "fire-station",
        "marker-size": "medium",
        "title": "381 - Hydrant"
      }
    },
    {
      "type": "Feature",
      "id": "382",
      "geometry": {
        "type": "Point",
        "coordinates": [
          8.553717,
          54.695307
        ]
      },
      "properties": {
        "id": "382",
        "typ": "Hydrant",
        "menge_l_min": 1600,
        "quellkarte": "Wyk_Boldixum.pdf",
        "ortsname": "Wyk-Boldixum",
        "ortsquelle": "Wyk_Boldixum.pdf",
        "zuordnungsabstand_relativ": 0.948,
        "pdf_x_pt": 217.525,
        "pdf_y_von_oben_pt": 982.054,
        "koordinatenquelle": "eingebettete GeoPDF-Georeferenzierung",
        "lagehinweis": "kartografische Symbolposition; nicht vermessungstechnisch oder vor Ort bestätigt",
        "marker-color": "#1565c0",
        "marker-symbol": "fire-station",
        "marker-size": "medium",
        "title": "382 - Hydrant"
      }
    },
    {
      "type": "Feature",
      "id": "383",
      "geometry": {
        "type": "Point",
        "coordinates": [
          8.554563,
          54.695103
        ]
      },
      "properties": {
        "id": "383",
        "typ": "Hydrant",
        "menge_l_min": 1600,
        "quellkarte": "Wyk_Boldixum.pdf",
        "ortsname": "Wyk-Boldixum",
        "ortsquelle": "Wyk_Boldixum.pdf",
        "zuordnungsabstand_relativ": 0.914,
        "pdf_x_pt": 249.664,
        "pdf_y_von_oben_pt": 995.623,
        "koordinatenquelle": "eingebettete GeoPDF-Georeferenzierung",
        "lagehinweis": "kartografische Symbolposition; nicht vermessungstechnisch oder vor Ort bestätigt",
        "marker-color": "#1565c0",
        "marker-symbol": "fire-station",
        "marker-size": "medium",
        "title": "383 - Hydrant"
      }
    },
    {
      "type": "Feature",
      "id": "384",
      "geometry": {
        "type": "Point",
        "coordinates": [
          8.555247,
          54.695261
        ]
      },
      "properties": {
        "id": "384",
        "typ": "Hydrant",
        "menge_l_min": 1600,
        "quellkarte": "Wyk_Boldixum.pdf",
        "ortsname": "Wyk-Boldixum",
        "ortsquelle": "Wyk_Boldixum.pdf",
        "zuordnungsabstand_relativ": 0.944,
        "pdf_x_pt": 275.741,
        "pdf_y_von_oben_pt": 985.405,
        "koordinatenquelle": "eingebettete GeoPDF-Georeferenzierung",
        "lagehinweis": "kartografische Symbolposition; nicht vermessungstechnisch oder vor Ort bestätigt",
        "marker-color": "#1565c0",
        "marker-symbol": "fire-station",
        "marker-size": "medium",
        "title": "384 - Hydrant"
      }
    },
    {
      "type": "Feature",
      "id": "385",
      "geometry": {
        "type": "Point",
        "coordinates": [
          8.555758,
          54.695786
        ]
      },
      "properties": {
        "id": "385",
        "typ": "Hydrant",
        "menge_l_min": 3200,
        "quellkarte": "Wyk_Boldixum.pdf",
        "ortsname": "Wyk-Boldixum",
        "ortsquelle": "Wyk_Boldixum.pdf",
        "zuordnungsabstand_relativ": 1.16,
        "pdf_x_pt": 295.387,
        "pdf_y_von_oben_pt": 951.011,
        "koordinatenquelle": "eingebettete GeoPDF-Georeferenzierung",
        "lagehinweis": "kartografische Symbolposition; nicht vermessungstechnisch oder vor Ort bestätigt",
        "marker-color": "#1565c0",
        "marker-symbol": "fire-station",
        "marker-size": "medium",
        "title": "385 - Hydrant"
      }
    },
    {
      "type": "Feature",
      "id": "386",
      "geometry": {
        "type": "Point",
        "coordinates": [
          8.55654,
          54.695866
        ]
      },
      "properties": {
        "id": "386",
        "typ": "Hydrant",
        "menge_l_min": 1600,
        "quellkarte": "Wyk_Boldixum.pdf",
        "ortsname": "Wyk-Boldixum",
        "ortsquelle": "Wyk_Boldixum.pdf",
        "zuordnungsabstand_relativ": 0.819,
        "pdf_x_pt": 325.179,
        "pdf_y_von_oben_pt": 945.977,
        "koordinatenquelle": "eingebettete GeoPDF-Georeferenzierung",
        "lagehinweis": "kartografische Symbolposition; nicht vermessungstechnisch oder vor Ort bestätigt",
        "marker-color": "#1565c0",
        "marker-symbol": "fire-station",
        "marker-size": "medium",
        "title": "386 - Hydrant"
      }
    },
    {
      "type": "Feature",
      "id": "387",
      "geometry": {
        "type": "Point",
        "coordinates": [
          8.555892,
          54.695982
        ]
      },
      "properties": {
        "id": "387",
        "typ": "Bohrbrunnen",
        "menge_l_min": null,
        "quellkarte": "Wyk_Boldixum.pdf",
        "ortsname": "Wyk-Boldixum",
        "ortsquelle": "Wyk_Boldixum.pdf",
        "zuordnungsabstand_relativ": 1.177,
        "pdf_x_pt": 300.591,
        "pdf_y_von_oben_pt": 938.17,
        "koordinatenquelle": "eingebettete GeoPDF-Georeferenzierung",
        "lagehinweis": "kartografische Symbolposition; nicht vermessungstechnisch oder vor Ort bestätigt",
        "marker-color": "#f9a825",
        "marker-symbol": "water",
        "marker-size": "medium",
        "title": "387 - Bohrbrunnen"
      }
    },
    {
      "type": "Feature",
      "id": "388",
      "geometry": {
        "type": "Point",
        "coordinates": [
          8.55497,
          54.696016
        ]
      },
      "properties": {
        "id": "388",
        "typ": "Hydrant",
        "menge_l_min": 3200,
        "quellkarte": "Wyk_Boldixum.pdf",
        "ortsname": "Wyk-Boldixum",
        "ortsquelle": "Wyk_Boldixum.pdf",
        "zuordnungsabstand_relativ": 1.188,
        "pdf_x_pt": 265.516,
        "pdf_y_von_oben_pt": 935.775,
        "koordinatenquelle": "eingebettete GeoPDF-Georeferenzierung",
        "lagehinweis": "kartografische Symbolposition; nicht vermessungstechnisch oder vor Ort bestätigt",
        "marker-color": "#1565c0",
        "marker-symbol": "fire-station",
        "marker-size": "medium",
        "title": "388 - Hydrant"
      }
    },
    {
      "type": "Feature",
      "id": "389",
      "geometry": {
        "type": "Point",
        "coordinates": [
          8.554039,
          54.696356
        ]
      },
      "properties": {
        "id": "389",
        "typ": "Hydrant",
        "menge_l_min": 3200,
        "quellkarte": "Wyk_Boldixum.pdf",
        "ortsname": "Wyk-Boldixum",
        "ortsquelle": "Wyk_Boldixum.pdf",
        "zuordnungsabstand_relativ": 0.888,
        "pdf_x_pt": 230.209,
        "pdf_y_von_oben_pt": 913.21,
        "koordinatenquelle": "eingebettete GeoPDF-Georeferenzierung",
        "lagehinweis": "kartografische Symbolposition; nicht vermessungstechnisch oder vor Ort bestätigt",
        "marker-color": "#1565c0",
        "marker-symbol": "fire-station",
        "marker-size": "medium",
        "title": "389 - Hydrant"
      }
    },
    {
      "type": "Feature",
      "id": "390",
      "geometry": {
        "type": "Point",
        "coordinates": [
          8.553623,
          54.696125
        ]
      },
      "properties": {
        "id": "390",
        "typ": "E-Bohrbrunnen",
        "menge_l_min": null,
        "quellkarte": "Wyk_Boldixum.pdf",
        "ortsname": "Wyk-Boldixum",
        "ortsquelle": "Wyk_Boldixum.pdf",
        "zuordnungsabstand_relativ": 0.974,
        "pdf_x_pt": 214.294,
        "pdf_y_von_oben_pt": 928.295,
        "koordinatenquelle": "eingebettete GeoPDF-Georeferenzierung",
        "lagehinweis": "kartografische Symbolposition; nicht vermessungstechnisch oder vor Ort bestätigt",
        "marker-color": "#8e24aa",
        "marker-symbol": "industrial",
        "marker-size": "medium",
        "title": "390 - E-Bohrbrunnen"
      }
    },
    {
      "type": "Feature",
      "id": "391",
      "geometry": {
        "type": "Point",
        "coordinates": [
          8.552943,
          54.696786
        ]
      },
      "properties": {
        "id": "391",
        "typ": "Hydrant",
        "menge_l_min": 3200,
        "quellkarte": "Wyk_Boldixum.pdf",
        "ortsname": "Wyk-Boldixum",
        "ortsquelle": "Wyk_Boldixum.pdf",
        "zuordnungsabstand_relativ": 1.084,
        "pdf_x_pt": 188.679,
        "pdf_y_von_oben_pt": 884.702,
        "koordinatenquelle": "eingebettete GeoPDF-Georeferenzierung",
        "lagehinweis": "kartografische Symbolposition; nicht vermessungstechnisch oder vor Ort bestätigt",
        "marker-color": "#1565c0",
        "marker-symbol": "fire-station",
        "marker-size": "medium",
        "title": "391 - Hydrant"
      }
    },
    {
      "type": "Feature",
      "id": "392",
      "geometry": {
        "type": "Point",
        "coordinates": [
          8.552408,
          54.697371
        ]
      },
      "properties": {
        "id": "392",
        "typ": "Hydrant",
        "menge_l_min": 3200,
        "quellkarte": "Wyk_Boldixum.pdf",
        "ortsname": "Wyk-Boldixum",
        "ortsquelle": "Wyk_Boldixum.pdf",
        "zuordnungsabstand_relativ": 1.335,
        "pdf_x_pt": 168.57,
        "pdf_y_von_oben_pt": 846.163,
        "koordinatenquelle": "eingebettete GeoPDF-Georeferenzierung",
        "lagehinweis": "kartografische Symbolposition; nicht vermessungstechnisch oder vor Ort bestätigt",
        "marker-color": "#1565c0",
        "marker-symbol": "fire-station",
        "marker-size": "medium",
        "title": "392 - Hydrant"
      }
    },
    {
      "type": "Feature",
      "id": "393",
      "geometry": {
        "type": "Point",
        "coordinates": [
          8.557538,
          54.696579
        ]
      },
      "properties": {
        "id": "393",
        "typ": "Hydrant",
        "menge_l_min": 1600,
        "quellkarte": "Wyk_Boldixum.pdf",
        "ortsname": "Wyk-Boldixum",
        "ortsquelle": "Wyk_Boldixum.pdf",
        "zuordnungsabstand_relativ": 1.263,
        "pdf_x_pt": 363.471,
        "pdf_y_von_oben_pt": 899.334,
        "koordinatenquelle": "eingebettete GeoPDF-Georeferenzierung",
        "lagehinweis": "kartografische Symbolposition; nicht vermessungstechnisch oder vor Ort bestätigt",
        "marker-color": "#1565c0",
        "marker-symbol": "fire-station",
        "marker-size": "medium",
        "title": "393 - Hydrant"
      }
    },
    {
      "type": "Feature",
      "id": "394",
      "geometry": {
        "type": "Point",
        "coordinates": [
          8.558214,
          54.697212
        ]
      },
      "properties": {
        "id": "394",
        "typ": "Hydrant",
        "menge_l_min": 1600,
        "quellkarte": "Wyk_Boldixum.pdf",
        "ortsname": "Wyk-Boldixum",
        "ortsquelle": "Wyk_Boldixum.pdf",
        "zuordnungsabstand_relativ": 0.261,
        "pdf_x_pt": 389.443,
        "pdf_y_von_oben_pt": 857.92,
        "koordinatenquelle": "eingebettete GeoPDF-Georeferenzierung",
        "lagehinweis": "kartografische Symbolposition; nicht vermessungstechnisch oder vor Ort bestätigt",
        "marker-color": "#1565c0",
        "marker-symbol": "fire-station",
        "marker-size": "medium",
        "title": "394 - Hydrant"
      }
    },
    {
      "type": "Feature",
      "id": "395",
      "geometry": {
        "type": "Point",
        "coordinates": [
          8.558364,
          54.697136
        ]
      },
      "properties": {
        "id": "395",
        "typ": "Hydrant",
        "menge_l_min": 1600,
        "quellkarte": "Wyk_Boldixum.pdf",
        "ortsname": "Wyk-Boldixum",
        "ortsquelle": "Wyk_Boldixum.pdf",
        "zuordnungsabstand_relativ": 0.396,
        "pdf_x_pt": 395.137,
        "pdf_y_von_oben_pt": 862.917,
        "koordinatenquelle": "eingebettete GeoPDF-Georeferenzierung",
        "lagehinweis": "kartografische Symbolposition; nicht vermessungstechnisch oder vor Ort bestätigt",
        "marker-color": "#1565c0",
        "marker-symbol": "fire-station",
        "marker-size": "medium",
        "title": "395 - Hydrant"
      }
    },
    {
      "type": "Feature",
      "id": "396",
      "geometry": {
        "type": "Point",
        "coordinates": [
          8.557436,
          54.697639
        ]
      },
      "properties": {
        "id": "396",
        "typ": "Bohrbrunnen",
        "menge_l_min": null,
        "quellkarte": "Wyk_Boldixum.pdf",
        "ortsname": "Wyk-Boldixum",
        "ortsquelle": "Wyk_Boldixum.pdf",
        "zuordnungsabstand_relativ": 0.12,
        "pdf_x_pt": 360.003,
        "pdf_y_von_oben_pt": 829.645,
        "koordinatenquelle": "eingebettete GeoPDF-Georeferenzierung",
        "lagehinweis": "kartografische Symbolposition; nicht vermessungstechnisch oder vor Ort bestätigt",
        "marker-color": "#f9a825",
        "marker-symbol": "water",
        "marker-size": "medium",
        "title": "396 - Bohrbrunnen"
      }
    },
    {
      "type": "Feature",
      "id": "397",
      "geometry": {
        "type": "Point",
        "coordinates": [
          8.556772,
          54.697908
        ]
      },
      "properties": {
        "id": "397",
        "typ": "Hydrant",
        "menge_l_min": 1600,
        "quellkarte": "Wyk_Boldixum.pdf",
        "ortsname": "Wyk-Boldixum",
        "ortsquelle": "Wyk_Boldixum.pdf",
        "zuordnungsabstand_relativ": 0.835,
        "pdf_x_pt": 334.863,
        "pdf_y_von_oben_pt": 811.874,
        "koordinatenquelle": "eingebettete GeoPDF-Georeferenzierung",
        "lagehinweis": "kartografische Symbolposition; nicht vermessungstechnisch oder vor Ort bestätigt",
        "marker-color": "#1565c0",
        "marker-symbol": "fire-station",
        "marker-size": "medium",
        "title": "397 - Hydrant"
      }
    },
    {
      "type": "Feature",
      "id": "398",
      "geometry": {
        "type": "Point",
        "coordinates": [
          8.5559,
          54.698194
        ]
      },
      "properties": {
        "id": "398",
        "typ": "Hydrant",
        "menge_l_min": 1600,
        "quellkarte": "Wyk_Boldixum.pdf",
        "ortsname": "Wyk-Boldixum",
        "ortsquelle": "Wyk_Boldixum.pdf",
        "zuordnungsabstand_relativ": 0.855,
        "pdf_x_pt": 301.776,
        "pdf_y_von_oben_pt": 792.863,
        "koordinatenquelle": "eingebettete GeoPDF-Georeferenzierung",
        "lagehinweis": "kartografische Symbolposition; nicht vermessungstechnisch oder vor Ort bestätigt",
        "marker-color": "#1565c0",
        "marker-symbol": "fire-station",
        "marker-size": "medium",
        "title": "398 - Hydrant"
      }
    },
    {
      "type": "Feature",
      "id": "399",
      "geometry": {
        "type": "Point",
        "coordinates": [
          8.554918,
          54.698403
        ]
      },
      "properties": {
        "id": "399",
        "typ": "Hydrant",
        "menge_l_min": 1600,
        "quellkarte": "Wyk_Boldixum.pdf",
        "ortsname": "Wyk-Boldixum",
        "ortsquelle": "Wyk_Boldixum.pdf",
        "zuordnungsabstand_relativ": 0.792,
        "pdf_x_pt": 264.507,
        "pdf_y_von_oben_pt": 778.917,
        "koordinatenquelle": "eingebettete GeoPDF-Georeferenzierung",
        "lagehinweis": "kartografische Symbolposition; nicht vermessungstechnisch oder vor Ort bestätigt",
        "marker-color": "#1565c0",
        "marker-symbol": "fire-station",
        "marker-size": "medium",
        "title": "399 - Hydrant"
      }
    },
    {
      "type": "Feature",
      "id": "400",
      "geometry": {
        "type": "Point",
        "coordinates": [
          8.569014,
          54.70831
        ]
      },
      "properties": {
        "id": "400",
        "typ": "Hydrant",
        "menge_l_min": 400,
        "quellkarte": "Wyk_Boldixum.pdf",
        "ortsname": "Wyk-Boldixum",
        "ortsquelle": "Wyk_Boldixum.pdf",
        "zuordnungsabstand_relativ": 1.069,
        "pdf_x_pt": 804.95,
        "pdf_y_von_oben_pt": 131.366,
        "koordinatenquelle": "eingebettete GeoPDF-Georeferenzierung",
        "lagehinweis": "kartografische Symbolposition; nicht vermessungstechnisch oder vor Ort bestätigt",
        "marker-color": "#1565c0",
        "marker-symbol": "fire-station",
        "marker-size": "medium",
        "title": "400 - Hydrant"
      }
    },
    {
      "type": "Feature",
      "id": "402",
      "geometry": {
        "type": "Point",
        "coordinates": [
          8.552334,
          54.696302
        ]
      },
      "properties": {
        "id": "402",
        "typ": "Hydrant",
        "menge_l_min": 1600,
        "quellkarte": "Wyk_Boldixum.pdf",
        "ortsname": "Wyk-Boldixum",
        "ortsquelle": "Wyk_Boldixum.pdf",
        "zuordnungsabstand_relativ": 0.791,
        "pdf_x_pt": 165.328,
        "pdf_y_von_oben_pt": 916.359,
        "koordinatenquelle": "eingebettete GeoPDF-Georeferenzierung",
        "lagehinweis": "kartografische Symbolposition; nicht vermessungstechnisch oder vor Ort bestätigt",
        "marker-color": "#1565c0",
        "marker-symbol": "fire-station",
        "marker-size": "medium",
        "title": "402 - Hydrant"
      }
    },
    {
      "type": "Feature",
      "id": "432",
      "geometry": {
        "type": "Point",
        "coordinates": [
          8.549354,
          54.695461
        ]
      },
      "properties": {
        "id": "432",
        "typ": "Hydrant",
        "menge_l_min": 1600,
        "quellkarte": "Wyk_Boldixum.pdf",
        "ortsname": "Wyk-Boldixum",
        "ortsquelle": "Wyk_Boldixum.pdf",
        "zuordnungsabstand_relativ": 0.918,
        "pdf_x_pt": 51.561,
        "pdf_y_von_oben_pt": 971.007,
        "koordinatenquelle": "eingebettete GeoPDF-Georeferenzierung",
        "lagehinweis": "kartografische Symbolposition; nicht vermessungstechnisch oder vor Ort bestätigt",
        "marker-color": "#1565c0",
        "marker-symbol": "fire-station",
        "marker-size": "medium",
        "title": "432 - Hydrant"
      }
    },
    {
      "type": "Feature",
      "id": "435",
      "geometry": {
        "type": "Point",
        "coordinates": [
          8.549721,
          54.696326
        ]
      },
      "properties": {
        "id": "435",
        "typ": "Hydrant",
        "menge_l_min": 1600,
        "quellkarte": "Wyk_Boldixum.pdf",
        "ortsname": "Wyk-Boldixum",
        "ortsquelle": "Wyk_Boldixum.pdf",
        "zuordnungsabstand_relativ": 0.878,
        "pdf_x_pt": 65.894,
        "pdf_y_von_oben_pt": 914.233,
        "koordinatenquelle": "eingebettete GeoPDF-Georeferenzierung",
        "lagehinweis": "kartografische Symbolposition; nicht vermessungstechnisch oder vor Ort bestätigt",
        "marker-color": "#1565c0",
        "marker-symbol": "fire-station",
        "marker-size": "medium",
        "title": "435 - Hydrant"
      }
    },
    {
      "type": "Feature",
      "id": "439",
      "geometry": {
        "type": "Point",
        "coordinates": [
          8.549133,
          54.697089
        ]
      },
      "properties": {
        "id": "439",
        "typ": "Hydrant",
        "menge_l_min": 1600,
        "quellkarte": "Wyk_Boldixum.pdf",
        "ortsname": "Wyk-Boldixum",
        "ortsquelle": "Wyk_Boldixum.pdf",
        "zuordnungsabstand_relativ": 0.768,
        "pdf_x_pt": 43.853,
        "pdf_y_von_oben_pt": 863.958,
        "koordinatenquelle": "eingebettete GeoPDF-Georeferenzierung",
        "lagehinweis": "kartografische Symbolposition; nicht vermessungstechnisch oder vor Ort bestätigt",
        "marker-color": "#1565c0",
        "marker-symbol": "fire-station",
        "marker-size": "medium",
        "title": "439 - Hydrant"
      }
    },
    {
      "type": "Feature",
      "id": "441",
      "geometry": {
        "type": "Point",
        "coordinates": [
          8.548901,
          54.697623
        ]
      },
      "properties": {
        "id": "441",
        "typ": "Hydrant",
        "menge_l_min": 1600,
        "quellkarte": "Wyk_Boldixum.pdf",
        "ortsname": "Wyk-Boldixum",
        "ortsquelle": "Wyk_Boldixum.pdf",
        "zuordnungsabstand_relativ": 0.792,
        "pdf_x_pt": 35.226,
        "pdf_y_von_oben_pt": 828.815,
        "koordinatenquelle": "eingebettete GeoPDF-Georeferenzierung",
        "lagehinweis": "kartografische Symbolposition; nicht vermessungstechnisch oder vor Ort bestätigt",
        "marker-color": "#1565c0",
        "marker-symbol": "fire-station",
        "marker-size": "medium",
        "title": "441 - Hydrant"
      }
    },
    {
      "type": "Feature",
      "id": "443",
      "geometry": {
        "type": "Point",
        "coordinates": [
          8.553639,
          54.69915
        ]
      },
      "properties": {
        "id": "443",
        "typ": "Hydrant",
        "menge_l_min": 1600,
        "quellkarte": "Wyk_Boldixum.pdf",
        "ortsname": "Wyk-Boldixum",
        "ortsquelle": "Wyk_Boldixum.pdf",
        "zuordnungsabstand_relativ": 1.274,
        "pdf_x_pt": 216.124,
        "pdf_y_von_oben_pt": 729.542,
        "koordinatenquelle": "eingebettete GeoPDF-Georeferenzierung",
        "lagehinweis": "kartografische Symbolposition; nicht vermessungstechnisch oder vor Ort bestätigt",
        "marker-color": "#1565c0",
        "marker-symbol": "fire-station",
        "marker-size": "medium",
        "title": "443 - Hydrant"
      }
    },
    {
      "type": "Feature",
      "id": "444",
      "geometry": {
        "type": "Point",
        "coordinates": [
          8.552523,
          54.69836
        ]
      },
      "properties": {
        "id": "444",
        "typ": "Bohrbrunnen",
        "menge_l_min": null,
        "quellkarte": "Wyk_Boldixum.pdf",
        "ortsname": "Wyk-Boldixum",
        "ortsquelle": "Wyk_Boldixum.pdf",
        "zuordnungsabstand_relativ": 1.55,
        "pdf_x_pt": 173.356,
        "pdf_y_von_oben_pt": 781.205,
        "koordinatenquelle": "eingebettete GeoPDF-Georeferenzierung",
        "lagehinweis": "kartografische Symbolposition; nicht vermessungstechnisch oder vor Ort bestätigt",
        "marker-color": "#f9a825",
        "marker-symbol": "water",
        "marker-size": "medium",
        "title": "444 - Bohrbrunnen"
      }
    },
    {
      "type": "Feature",
      "id": "445",
      "geometry": {
        "type": "Point",
        "coordinates": [
          8.551496,
          54.697943
        ]
      },
      "properties": {
        "id": "445",
        "typ": "Hydrant",
        "menge_l_min": 3200,
        "quellkarte": "Wyk_Boldixum.pdf",
        "ortsname": "Wyk-Boldixum",
        "ortsquelle": "Wyk_Boldixum.pdf",
        "zuordnungsabstand_relativ": 1.101,
        "pdf_x_pt": 134.1,
        "pdf_y_von_oben_pt": 808.385,
        "koordinatenquelle": "eingebettete GeoPDF-Georeferenzierung",
        "lagehinweis": "kartografische Symbolposition; nicht vermessungstechnisch oder vor Ort bestätigt",
        "marker-color": "#1565c0",
        "marker-symbol": "fire-station",
        "marker-size": "medium",
        "title": "445 - Hydrant"
      }
    },
    {
      "type": "Feature",
      "id": "446",
      "geometry": {
        "type": "Point",
        "coordinates": [
          8.552478,
          54.699837
        ]
      },
      "properties": {
        "id": "446",
        "typ": "Hydrant",
        "menge_l_min": 1600,
        "quellkarte": "Wyk_Boldixum.pdf",
        "ortsname": "Wyk-Boldixum",
        "ortsquelle": "Wyk_Boldixum.pdf",
        "zuordnungsabstand_relativ": 0.922,
        "pdf_x_pt": 172.237,
        "pdf_y_von_oben_pt": 684.108,
        "koordinatenquelle": "eingebettete GeoPDF-Georeferenzierung",
        "lagehinweis": "kartografische Symbolposition; nicht vermessungstechnisch oder vor Ort bestätigt",
        "marker-color": "#1565c0",
        "marker-symbol": "fire-station",
        "marker-size": "medium",
        "title": "446 - Hydrant"
      }
    },
    {
      "type": "Feature",
      "id": "447",
      "geometry": {
        "type": "Point",
        "coordinates": [
          8.550982,
          54.700569
        ]
      },
      "properties": {
        "id": "447",
        "typ": "Hydrant",
        "menge_l_min": 1600,
        "quellkarte": "Wyk_Boldixum.pdf",
        "ortsname": "Wyk-Boldixum",
        "ortsquelle": "Wyk_Boldixum.pdf",
        "zuordnungsabstand_relativ": 1.03,
        "pdf_x_pt": 115.622,
        "pdf_y_von_oben_pt": 635.672,
        "koordinatenquelle": "eingebettete GeoPDF-Georeferenzierung",
        "lagehinweis": "kartografische Symbolposition; nicht vermessungstechnisch oder vor Ort bestätigt",
        "marker-color": "#1565c0",
        "marker-symbol": "fire-station",
        "marker-size": "medium",
        "title": "447 - Hydrant"
      }
    },
    {
      "type": "Feature",
      "id": "448",
      "geometry": {
        "type": "Point",
        "coordinates": [
          8.550618,
          54.699614
        ]
      },
      "properties": {
        "id": "448",
        "typ": "Hydrant",
        "menge_l_min": 1600,
        "quellkarte": "Wyk_Boldixum.pdf",
        "ortsname": "Wyk-Boldixum",
        "ortsquelle": "Wyk_Boldixum.pdf",
        "zuordnungsabstand_relativ": 0.79,
        "pdf_x_pt": 101.39,
        "pdf_y_von_oben_pt": 698.362,
        "koordinatenquelle": "eingebettete GeoPDF-Georeferenzierung",
        "lagehinweis": "kartografische Symbolposition; nicht vermessungstechnisch oder vor Ort bestätigt",
        "marker-color": "#1565c0",
        "marker-symbol": "fire-station",
        "marker-size": "medium",
        "title": "448 - Hydrant"
      }
    },
    {
      "type": "Feature",
      "id": "449",
      "geometry": {
        "type": "Point",
        "coordinates": [
          8.549236,
          54.699038
        ]
      },
      "properties": {
        "id": "449",
        "typ": "Hydrant",
        "menge_l_min": 3200,
        "quellkarte": "Wyk_Boldixum.pdf",
        "ortsname": "Wyk-Boldixum",
        "ortsquelle": "Wyk_Boldixum.pdf",
        "zuordnungsabstand_relativ": 1.195,
        "pdf_x_pt": 48.558,
        "pdf_y_von_oben_pt": 735.92,
        "koordinatenquelle": "eingebettete GeoPDF-Georeferenzierung",
        "lagehinweis": "kartografische Symbolposition; nicht vermessungstechnisch oder vor Ort bestätigt",
        "marker-color": "#1565c0",
        "marker-symbol": "fire-station",
        "marker-size": "medium",
        "title": "449 - Hydrant"
      }
    },
    {
      "type": "Feature",
      "id": "452",
      "geometry": {
        "type": "Point",
        "coordinates": [
          8.549727,
          54.699523
        ]
      },
      "properties": {
        "id": "452",
        "typ": "Bohrbrunnen",
        "menge_l_min": null,
        "quellkarte": "Wyk_Boldixum.pdf",
        "ortsname": "Wyk-Boldixum",
        "ortsquelle": "Wyk_Boldixum.pdf",
        "zuordnungsabstand_relativ": 0.748,
        "pdf_x_pt": 67.413,
        "pdf_y_von_oben_pt": 704.162,
        "koordinatenquelle": "eingebettete GeoPDF-Georeferenzierung",
        "lagehinweis": "kartografische Symbolposition; nicht vermessungstechnisch oder vor Ort bestätigt",
        "marker-color": "#f9a825",
        "marker-symbol": "water",
        "marker-size": "medium",
        "title": "452 - Bohrbrunnen"
      }
    },
    {
      "type": "Feature",
      "id": "453",
      "geometry": {
        "type": "Point",
        "coordinates": [
          8.549018,
          54.698822
        ]
      },
      "properties": {
        "id": "453",
        "typ": "Bohrbrunnen",
        "menge_l_min": null,
        "quellkarte": "Wyk_Boldixum.pdf",
        "ortsname": "Wyk-Boldixum",
        "ortsquelle": "Wyk_Boldixum.pdf",
        "zuordnungsabstand_relativ": 0.984,
        "pdf_x_pt": 40.156,
        "pdf_y_von_oben_pt": 750.038,
        "koordinatenquelle": "eingebettete GeoPDF-Georeferenzierung",
        "lagehinweis": "kartografische Symbolposition; nicht vermessungstechnisch oder vor Ort bestätigt",
        "marker-color": "#f9a825",
        "marker-symbol": "water",
        "marker-size": "medium",
        "title": "453 - Bohrbrunnen"
      }
    },
    {
      "type": "Feature",
      "id": "454",
      "geometry": {
        "type": "Point",
        "coordinates": [
          8.549382,
          54.700955
        ]
      },
      "properties": {
        "id": "454",
        "typ": "Hydrant",
        "menge_l_min": 1600,
        "quellkarte": "Wyk_Boldixum.pdf",
        "ortsname": "Wyk-Boldixum",
        "ortsquelle": "Wyk_Boldixum.pdf",
        "zuordnungsabstand_relativ": 0.867,
        "pdf_x_pt": 54.884,
        "pdf_y_von_oben_pt": 609.986,
        "koordinatenquelle": "eingebettete GeoPDF-Georeferenzierung",
        "lagehinweis": "kartografische Symbolposition; nicht vermessungstechnisch oder vor Ort bestätigt",
        "marker-color": "#1565c0",
        "marker-symbol": "fire-station",
        "marker-size": "medium",
        "title": "454 - Hydrant"
      }
    }
  ]
}