{
  "type": "FeatureCollection",
  "name": "Wyk_Süd_West",
  "features": [
    {
      "type": "Feature",
      "id": "163",
      "geometry": {
        "type": "Point",
        "coordinates": [
          8.555421,
          54.680598
        ]
      },
      "properties": {
        "id": "163",
        "typ": "Hydrant",
        "menge_l_min": 1600,
        "quellkarte": "Wyk_Süd_West.pdf",
        "ortsname": "Wyk auf Föhr (Südwest)",
        "ortsquelle": "Wyk_Süd_West.pdf",
        "zuordnungsabstand_relativ": 0.547,
        "pdf_x_pt": 1170.859,
        "pdf_y_von_oben_pt": 629.329,
        "koordinatenquelle": "eingebettete GeoPDF-Georeferenzierung",
        "lagehinweis": "kartografische Symbolposition; nicht vermessungstechnisch oder vor Ort bestätigt",
        "marker-color": "#1565c0",
        "marker-symbol": "fire-station",
        "marker-size": "medium",
        "title": "163 - Hydrant"
      }
    },
    {
      "type": "Feature",
      "id": "164",
      "geometry": {
        "type": "Point",
        "coordinates": [
          8.553903,
          54.681011
        ]
      },
      "properties": {
        "id": "164",
        "typ": "Hydrant",
        "menge_l_min": 1600,
        "quellkarte": "Wyk_Süd_West.pdf",
        "ortsname": "Wyk auf Föhr (Südwest)",
        "ortsquelle": "Wyk_Süd_West.pdf",
        "zuordnungsabstand_relativ": 0.937,
        "pdf_x_pt": 1110.726,
        "pdf_y_von_oben_pt": 600.647,
        "koordinatenquelle": "eingebettete GeoPDF-Georeferenzierung",
        "lagehinweis": "kartografische Symbolposition; nicht vermessungstechnisch oder vor Ort bestätigt",
        "marker-color": "#1565c0",
        "marker-symbol": "fire-station",
        "marker-size": "medium",
        "title": "164 - Hydrant"
      }
    },
    {
      "type": "Feature",
      "id": "165",
      "geometry": {
        "type": "Point",
        "coordinates": [
          8.552355,
          54.681461
        ]
      },
      "properties": {
        "id": "165",
        "typ": "Hydrant",
        "menge_l_min": 1600,
        "quellkarte": "Wyk_Süd_West.pdf",
        "ortsname": "Wyk auf Föhr (Südwest)",
        "ortsquelle": "Wyk_Süd_West.pdf",
        "zuordnungsabstand_relativ": 0.615,
        "pdf_x_pt": 1049.421,
        "pdf_y_von_oben_pt": 569.41,
        "koordinatenquelle": "eingebettete GeoPDF-Georeferenzierung",
        "lagehinweis": "kartografische Symbolposition; nicht vermessungstechnisch oder vor Ort bestätigt",
        "marker-color": "#1565c0",
        "marker-symbol": "fire-station",
        "marker-size": "medium",
        "title": "165 - Hydrant"
      }
    },
    {
      "type": "Feature",
      "id": "166",
      "geometry": {
        "type": "Point",
        "coordinates": [
          8.552853,
          54.681969
        ]
      },
      "properties": {
        "id": "166",
        "typ": "Hydrant",
        "menge_l_min": 1600,
        "quellkarte": "Wyk_Süd_West.pdf",
        "ortsname": "Wyk auf Föhr (Südwest)",
        "ortsquelle": "Wyk_Süd_West.pdf",
        "zuordnungsabstand_relativ": 0.583,
        "pdf_x_pt": 1069.449,
        "pdf_y_von_oben_pt": 534.723,
        "koordinatenquelle": "eingebettete GeoPDF-Georeferenzierung",
        "lagehinweis": "kartografische Symbolposition; nicht vermessungstechnisch oder vor Ort bestätigt",
        "marker-color": "#1565c0",
        "marker-symbol": "fire-station",
        "marker-size": "medium",
        "title": "166 - Hydrant"
      }
    },
    {
      "type": "Feature",
      "id": "167",
      "geometry": {
        "type": "Point",
        "coordinates": [
          8.551798,
          54.680819
        ]
      },
      "properties": {
        "id": "167",
        "typ": "Hydrant",
        "menge_l_min": 1600,
        "quellkarte": "Wyk_Süd_West.pdf",
        "ortsname": "Wyk auf Föhr (Südwest)",
        "ortsquelle": "Wyk_Süd_West.pdf",
        "zuordnungsabstand_relativ": 1.107,
        "pdf_x_pt": 1027.023,
        "pdf_y_von_oben_pt": 613.213,
        "koordinatenquelle": "eingebettete GeoPDF-Georeferenzierung",
        "lagehinweis": "kartografische Symbolposition; nicht vermessungstechnisch oder vor Ort bestätigt",
        "marker-color": "#1565c0",
        "marker-symbol": "fire-station",
        "marker-size": "medium",
        "title": "167 - Hydrant"
      }
    },
    {
      "type": "Feature",
      "id": "168",
      "geometry": {
        "type": "Point",
        "coordinates": [
          8.551585,
          54.680753
        ]
      },
      "properties": {
        "id": "168",
        "typ": "E-Bohrbrunnen",
        "menge_l_min": null,
        "quellkarte": "Wyk_Süd_West.pdf",
        "ortsname": "Wyk auf Föhr (Südwest)",
        "ortsquelle": "Wyk_Süd_West.pdf",
        "zuordnungsabstand_relativ": 1.543,
        "pdf_x_pt": 1018.547,
        "pdf_y_von_oben_pt": 617.683,
        "koordinatenquelle": "eingebettete GeoPDF-Georeferenzierung",
        "lagehinweis": "kartografische Symbolposition; nicht vermessungstechnisch oder vor Ort bestätigt",
        "marker-color": "#8e24aa",
        "marker-symbol": "industrial",
        "marker-size": "medium",
        "title": "168 - E-Bohrbrunnen"
      }
    },
    {
      "type": "Feature",
      "id": "169",
      "geometry": {
        "type": "Point",
        "coordinates": [
          8.551196,
          54.680363
        ]
      },
      "properties": {
        "id": "169",
        "typ": "Hydrant",
        "menge_l_min": 1600,
        "quellkarte": "Wyk_Süd_West.pdf",
        "ortsname": "Wyk auf Föhr (Südwest)",
        "ortsquelle": "Wyk_Süd_West.pdf",
        "zuordnungsabstand_relativ": 0.816,
        "pdf_x_pt": 1002.892,
        "pdf_y_von_oben_pt": 644.34,
        "koordinatenquelle": "eingebettete GeoPDF-Georeferenzierung",
        "lagehinweis": "kartografische Symbolposition; nicht vermessungstechnisch oder vor Ort bestätigt",
        "marker-color": "#1565c0",
        "marker-symbol": "fire-station",
        "marker-size": "medium",
        "title": "169 - Hydrant"
      }
    },
    {
      "type": "Feature",
      "id": "170",
      "geometry": {
        "type": "Point",
        "coordinates": [
          8.550464,
          54.680449
        ]
      },
      "properties": {
        "id": "170",
        "typ": "Hydrant",
        "menge_l_min": 1600,
        "quellkarte": "Wyk_Süd_West.pdf",
        "ortsname": "Wyk auf Föhr (Südwest)",
        "ortsquelle": "Wyk_Süd_West.pdf",
        "zuordnungsabstand_relativ": 0.788,
        "pdf_x_pt": 973.876,
        "pdf_y_von_oben_pt": 638.234,
        "koordinatenquelle": "eingebettete GeoPDF-Georeferenzierung",
        "lagehinweis": "kartografische Symbolposition; nicht vermessungstechnisch oder vor Ort bestätigt",
        "marker-color": "#1565c0",
        "marker-symbol": "fire-station",
        "marker-size": "medium",
        "title": "170 - Hydrant"
      }
    },
    {
      "type": "Feature",
      "id": "172",
      "geometry": {
        "type": "Point",
        "coordinates": [
          8.550011,
          54.680927
        ]
      },
      "properties": {
        "id": "172",
        "typ": "Hydrant",
        "menge_l_min": 1600,
        "quellkarte": "Wyk_Süd_West.pdf",
        "ortsname": "Wyk auf Föhr (Südwest)",
        "ortsquelle": "Wyk_Süd_West.pdf",
        "zuordnungsabstand_relativ": 0.835,
        "pdf_x_pt": 956.074,
        "pdf_y_von_oben_pt": 605.375,
        "koordinatenquelle": "eingebettete GeoPDF-Georeferenzierung",
        "lagehinweis": "kartografische Symbolposition; nicht vermessungstechnisch oder vor Ort bestätigt",
        "marker-color": "#1565c0",
        "marker-symbol": "fire-station",
        "marker-size": "medium",
        "title": "172 - Hydrant"
      }
    },
    {
      "type": "Feature",
      "id": "173",
      "geometry": {
        "type": "Point",
        "coordinates": [
          8.551238,
          54.681787
        ]
      },
      "properties": {
        "id": "173",
        "typ": "Hydrant",
        "menge_l_min": 1600,
        "quellkarte": "Wyk_Süd_West.pdf",
        "ortsname": "Wyk auf Föhr (Südwest)",
        "ortsquelle": "Wyk_Süd_West.pdf",
        "zuordnungsabstand_relativ": 1.028,
        "pdf_x_pt": 1005.222,
        "pdf_y_von_oben_pt": 546.76,
        "koordinatenquelle": "eingebettete GeoPDF-Georeferenzierung",
        "lagehinweis": "kartografische Symbolposition; nicht vermessungstechnisch oder vor Ort bestätigt",
        "marker-color": "#1565c0",
        "marker-symbol": "fire-station",
        "marker-size": "medium",
        "title": "173 - Hydrant"
      }
    },
    {
      "type": "Feature",
      "id": "174",
      "geometry": {
        "type": "Point",
        "coordinates": [
          8.549823,
          54.682174
        ]
      },
      "properties": {
        "id": "174",
        "typ": "Hydrant",
        "menge_l_min": 1600,
        "quellkarte": "Wyk_Süd_West.pdf",
        "ortsname": "Wyk auf Föhr (Südwest)",
        "ortsquelle": "Wyk_Süd_West.pdf",
        "zuordnungsabstand_relativ": 1.031,
        "pdf_x_pt": 949.186,
        "pdf_y_von_oben_pt": 519.87,
        "koordinatenquelle": "eingebettete GeoPDF-Georeferenzierung",
        "lagehinweis": "kartografische Symbolposition; nicht vermessungstechnisch oder vor Ort bestätigt",
        "marker-color": "#1565c0",
        "marker-symbol": "fire-station",
        "marker-size": "medium",
        "title": "174 - Hydrant"
      }
    },
    {
      "type": "Feature",
      "id": "175",
      "geometry": {
        "type": "Point",
        "coordinates": [
          8.548179,
          54.68065
        ]
      },
      "properties": {
        "id": "175",
        "typ": "Hydrant",
        "menge_l_min": 1600,
        "quellkarte": "Wyk_Süd_West.pdf",
        "ortsname": "Wyk auf Föhr (Südwest)",
        "ortsquelle": "Wyk_Süd_West.pdf",
        "zuordnungsabstand_relativ": 0.835,
        "pdf_x_pt": 883.209,
        "pdf_y_von_oben_pt": 623.891,
        "koordinatenquelle": "eingebettete GeoPDF-Georeferenzierung",
        "lagehinweis": "kartografische Symbolposition; nicht vermessungstechnisch oder vor Ort bestätigt",
        "marker-color": "#1565c0",
        "marker-symbol": "fire-station",
        "marker-size": "medium",
        "title": "175 - Hydrant"
      }
    },
    {
      "type": "Feature",
      "id": "176",
      "geometry": {
        "type": "Point",
        "coordinates": [
          8.547481,
          54.680812
        ]
      },
      "properties": {
        "id": "176",
        "typ": "Hydrant",
        "menge_l_min": 1600,
        "quellkarte": "Wyk_Süd_West.pdf",
        "ortsname": "Wyk auf Föhr (Südwest)",
        "ortsquelle": "Wyk_Süd_West.pdf",
        "zuordnungsabstand_relativ": 0.815,
        "pdf_x_pt": 855.548,
        "pdf_y_von_oben_pt": 612.646,
        "koordinatenquelle": "eingebettete GeoPDF-Georeferenzierung",
        "lagehinweis": "kartografische Symbolposition; nicht vermessungstechnisch oder vor Ort bestätigt",
        "marker-color": "#1565c0",
        "marker-symbol": "fire-station",
        "marker-size": "medium",
        "title": "176 - Hydrant"
      }
    },
    {
      "type": "Feature",
      "id": "177",
      "geometry": {
        "type": "Point",
        "coordinates": [
          8.54659,
          54.680815
        ]
      },
      "properties": {
        "id": "177",
        "typ": "Hydrant",
        "menge_l_min": 1600,
        "quellkarte": "Wyk_Süd_West.pdf",
        "ortsname": "Wyk auf Föhr (Südwest)",
        "ortsquelle": "Wyk_Süd_West.pdf",
        "zuordnungsabstand_relativ": 0.906,
        "pdf_x_pt": 820.155,
        "pdf_y_von_oben_pt": 612.146,
        "koordinatenquelle": "eingebettete GeoPDF-Georeferenzierung",
        "lagehinweis": "kartografische Symbolposition; nicht vermessungstechnisch oder vor Ort bestätigt",
        "marker-color": "#1565c0",
        "marker-symbol": "fire-station",
        "marker-size": "medium",
        "title": "177 - Hydrant"
      }
    },
    {
      "type": "Feature",
      "id": "178",
      "geometry": {
        "type": "Point",
        "coordinates": [
          8.547673,
          54.682238
        ]
      },
      "properties": {
        "id": "178",
        "typ": "Hydrant",
        "menge_l_min": 1600,
        "quellkarte": "Wyk_Süd_West.pdf",
        "ortsname": "Wyk auf Föhr (Südwest)",
        "ortsquelle": "Wyk_Süd_West.pdf",
        "zuordnungsabstand_relativ": 1.089,
        "pdf_x_pt": 863.799,
        "pdf_y_von_oben_pt": 514.906,
        "koordinatenquelle": "eingebettete GeoPDF-Georeferenzierung",
        "lagehinweis": "kartografische Symbolposition; nicht vermessungstechnisch oder vor Ort bestätigt",
        "marker-color": "#1565c0",
        "marker-symbol": "fire-station",
        "marker-size": "medium",
        "title": "178 - Hydrant"
      }
    },
    {
      "type": "Feature",
      "id": "179",
      "geometry": {
        "type": "Point",
        "coordinates": [
          8.548873,
          54.681932
        ]
      },
      "properties": {
        "id": "179",
        "typ": "Hydrant",
        "menge_l_min": 1600,
        "quellkarte": "Wyk_Süd_West.pdf",
        "ortsname": "Wyk auf Föhr (Südwest)",
        "ortsquelle": "Wyk_Süd_West.pdf",
        "zuordnungsabstand_relativ": 0.605,
        "pdf_x_pt": 911.34,
        "pdf_y_von_oben_pt": 536.193,
        "koordinatenquelle": "eingebettete GeoPDF-Georeferenzierung",
        "lagehinweis": "kartografische Symbolposition; nicht vermessungstechnisch oder vor Ort bestätigt",
        "marker-color": "#1565c0",
        "marker-symbol": "fire-station",
        "marker-size": "medium",
        "title": "179 - Hydrant"
      }
    },
    {
      "type": "Feature",
      "id": "180",
      "geometry": {
        "type": "Point",
        "coordinates": [
          8.548139,
          54.682669
        ]
      },
      "properties": {
        "id": "180",
        "typ": "Hydrant",
        "menge_l_min": 1600,
        "quellkarte": "Wyk_Süd_West.pdf",
        "ortsname": "Wyk auf Föhr (Südwest)",
        "ortsquelle": "Wyk_Süd_West.pdf",
        "zuordnungsabstand_relativ": 1.103,
        "pdf_x_pt": 882.5,
        "pdf_y_von_oben_pt": 485.475,
        "koordinatenquelle": "eingebettete GeoPDF-Georeferenzierung",
        "lagehinweis": "kartografische Symbolposition; nicht vermessungstechnisch oder vor Ort bestätigt",
        "marker-color": "#1565c0",
        "marker-symbol": "fire-station",
        "marker-size": "medium",
        "title": "180 - Hydrant"
      }
    },
    {
      "type": "Feature",
      "id": "182",
      "geometry": {
        "type": "Point",
        "coordinates": [
          8.546928,
          54.68301
        ]
      },
      "properties": {
        "id": "182",
        "typ": "Hydrant",
        "menge_l_min": 1600,
        "quellkarte": "Wyk_Süd_West.pdf",
        "ortsname": "Wyk auf Föhr (Südwest)",
        "ortsquelle": "Wyk_Süd_West.pdf",
        "zuordnungsabstand_relativ": 0.963,
        "pdf_x_pt": 834.555,
        "pdf_y_von_oben_pt": 461.835,
        "koordinatenquelle": "eingebettete GeoPDF-Georeferenzierung",
        "lagehinweis": "kartografische Symbolposition; nicht vermessungstechnisch oder vor Ort bestätigt",
        "marker-color": "#1565c0",
        "marker-symbol": "fire-station",
        "marker-size": "medium",
        "title": "182 - Hydrant"
      }
    },
    {
      "type": "Feature",
      "id": "183",
      "geometry": {
        "type": "Point",
        "coordinates": [
          8.546275,
          54.682339
        ]
      },
      "properties": {
        "id": "183",
        "typ": "Hydrant",
        "menge_l_min": 1600,
        "quellkarte": "Wyk_Süd_West.pdf",
        "ortsname": "Wyk auf Föhr (Südwest)",
        "ortsquelle": "Wyk_Süd_West.pdf",
        "zuordnungsabstand_relativ": 0.579,
        "pdf_x_pt": 808.314,
        "pdf_y_von_oben_pt": 507.664,
        "koordinatenquelle": "eingebettete GeoPDF-Georeferenzierung",
        "lagehinweis": "kartografische Symbolposition; nicht vermessungstechnisch oder vor Ort bestätigt",
        "marker-color": "#1565c0",
        "marker-symbol": "fire-station",
        "marker-size": "medium",
        "title": "183 - Hydrant"
      }
    },
    {
      "type": "Feature",
      "id": "184",
      "geometry": {
        "type": "Point",
        "coordinates": [
          8.545994,
          54.682214
        ]
      },
      "properties": {
        "id": "184",
        "typ": "E-Bohrbrunnen",
        "menge_l_min": null,
        "quellkarte": "Wyk_Süd_West.pdf",
        "ortsname": "Wyk auf Föhr (Südwest)",
        "ortsquelle": "Wyk_Süd_West.pdf",
        "zuordnungsabstand_relativ": 0.974,
        "pdf_x_pt": 797.092,
        "pdf_y_von_oben_pt": 516.156,
        "koordinatenquelle": "eingebettete GeoPDF-Georeferenzierung",
        "lagehinweis": "kartografische Symbolposition; nicht vermessungstechnisch oder vor Ort bestätigt",
        "marker-color": "#8e24aa",
        "marker-symbol": "industrial",
        "marker-size": "medium",
        "title": "184 - E-Bohrbrunnen"
      }
    },
    {
      "type": "Feature",
      "id": "185",
      "geometry": {
        "type": "Point",
        "coordinates": [
          8.545677,
          54.681609
        ]
      },
      "properties": {
        "id": "185",
        "typ": "Hydrant",
        "menge_l_min": 1600,
        "quellkarte": "Wyk_Süd_West.pdf",
        "ortsname": "Wyk auf Föhr (Südwest)",
        "ortsquelle": "Wyk_Süd_West.pdf",
        "zuordnungsabstand_relativ": 0.986,
        "pdf_x_pt": 784.246,
        "pdf_y_von_oben_pt": 557.525,
        "koordinatenquelle": "eingebettete GeoPDF-Georeferenzierung",
        "lagehinweis": "kartografische Symbolposition; nicht vermessungstechnisch oder vor Ort bestätigt",
        "marker-color": "#1565c0",
        "marker-symbol": "fire-station",
        "marker-size": "medium",
        "title": "185 - Hydrant"
      }
    },
    {
      "type": "Feature",
      "id": "186",
      "geometry": {
        "type": "Point",
        "coordinates": [
          8.544903,
          54.680719
        ]
      },
      "properties": {
        "id": "186",
        "typ": "Hydrant",
        "menge_l_min": 1600,
        "quellkarte": "Wyk_Süd_West.pdf",
        "ortsname": "Wyk auf Föhr (Südwest)",
        "ortsquelle": "Wyk_Süd_West.pdf",
        "zuordnungsabstand_relativ": 0.809,
        "pdf_x_pt": 753.091,
        "pdf_y_von_oben_pt": 618.336,
        "koordinatenquelle": "eingebettete GeoPDF-Georeferenzierung",
        "lagehinweis": "kartografische Symbolposition; nicht vermessungstechnisch oder vor Ort bestätigt",
        "marker-color": "#1565c0",
        "marker-symbol": "fire-station",
        "marker-size": "medium",
        "title": "186 - Hydrant"
      }
    },
    {
      "type": "Feature",
      "id": "195",
      "geometry": {
        "type": "Point",
        "coordinates": [
          8.554613,
          54.68225
        ]
      },
      "properties": {
        "id": "195",
        "typ": "Hydrant",
        "menge_l_min": 1600,
        "quellkarte": "Wyk_Süd_West.pdf",
        "ortsname": "Wyk auf Föhr (Südwest)",
        "ortsquelle": "Wyk_Süd_West.pdf",
        "zuordnungsabstand_relativ": 1.085,
        "pdf_x_pt": 1139.487,
        "pdf_y_von_oben_pt": 515.906,
        "koordinatenquelle": "eingebettete GeoPDF-Georeferenzierung",
        "lagehinweis": "kartografische Symbolposition; nicht vermessungstechnisch oder vor Ort bestätigt",
        "marker-color": "#1565c0",
        "marker-symbol": "fire-station",
        "marker-size": "medium",
        "title": "195 - Hydrant"
      }
    },
    {
      "type": "Feature",
      "id": "196",
      "geometry": {
        "type": "Point",
        "coordinates": [
          8.555372,
          54.683049
        ]
      },
      "properties": {
        "id": "196",
        "typ": "Hydrant",
        "menge_l_min": 1600,
        "quellkarte": "Wyk_Süd_West.pdf",
        "ortsname": "Wyk auf Föhr (Südwest)",
        "ortsquelle": "Wyk_Süd_West.pdf",
        "zuordnungsabstand_relativ": 1.135,
        "pdf_x_pt": 1169.956,
        "pdf_y_von_oben_pt": 461.28,
        "koordinatenquelle": "eingebettete GeoPDF-Georeferenzierung",
        "lagehinweis": "kartografische Symbolposition; nicht vermessungstechnisch oder vor Ort bestätigt",
        "marker-color": "#1565c0",
        "marker-symbol": "fire-station",
        "marker-size": "medium",
        "title": "196 - Hydrant"
      }
    },
    {
      "type": "Feature",
      "id": "199",
      "geometry": {
        "type": "Point",
        "coordinates": [
          8.553444,
          54.682701
        ]
      },
      "properties": {
        "id": "199",
        "typ": "Hydrant",
        "menge_l_min": 1600,
        "quellkarte": "Wyk_Süd_West.pdf",
        "ortsname": "Wyk auf Föhr (Südwest)",
        "ortsquelle": "Wyk_Süd_West.pdf",
        "zuordnungsabstand_relativ": 0.817,
        "pdf_x_pt": 1093.241,
        "pdf_y_von_oben_pt": 484.675,
        "koordinatenquelle": "eingebettete GeoPDF-Georeferenzierung",
        "lagehinweis": "kartografische Symbolposition; nicht vermessungstechnisch oder vor Ort bestätigt",
        "marker-color": "#1565c0",
        "marker-symbol": "fire-station",
        "marker-size": "medium",
        "title": "199 - Hydrant"
      }
    },
    {
      "type": "Feature",
      "id": "200",
      "geometry": {
        "type": "Point",
        "coordinates": [
          8.554217,
          54.68358
        ]
      },
      "properties": {
        "id": "200",
        "typ": "Hydrant",
        "menge_l_min": 1600,
        "quellkarte": "Wyk_Süd_West.pdf",
        "ortsname": "Wyk auf Föhr (Südwest)",
        "ortsquelle": "Wyk_Süd_West.pdf",
        "zuordnungsabstand_relativ": 0.818,
        "pdf_x_pt": 1124.324,
        "pdf_y_von_oben_pt": 424.637,
        "koordinatenquelle": "eingebettete GeoPDF-Georeferenzierung",
        "lagehinweis": "kartografische Symbolposition; nicht vermessungstechnisch oder vor Ort bestätigt",
        "marker-color": "#1565c0",
        "marker-symbol": "fire-station",
        "marker-size": "medium",
        "title": "200 - Hydrant"
      }
    },
    {
      "type": "Feature",
      "id": "202",
      "geometry": {
        "type": "Point",
        "coordinates": [
          8.554755,
          54.68413
        ]
      },
      "properties": {
        "id": "202",
        "typ": "Hydrant",
        "menge_l_min": 1600,
        "quellkarte": "Wyk_Süd_West.pdf",
        "ortsname": "Wyk auf Föhr (Südwest)",
        "ortsquelle": "Wyk_Süd_West.pdf",
        "zuordnungsabstand_relativ": 1.089,
        "pdf_x_pt": 1145.915,
        "pdf_y_von_oben_pt": 387.041,
        "koordinatenquelle": "eingebettete GeoPDF-Georeferenzierung",
        "lagehinweis": "kartografische Symbolposition; nicht vermessungstechnisch oder vor Ort bestätigt",
        "marker-color": "#1565c0",
        "marker-symbol": "fire-station",
        "marker-size": "medium",
        "title": "202 - Hydrant"
      }
    },
    {
      "type": "Feature",
      "id": "203",
      "geometry": {
        "type": "Point",
        "coordinates": [
          8.552415,
          54.683023
        ]
      },
      "properties": {
        "id": "203",
        "typ": "Hydrant",
        "menge_l_min": 1600,
        "quellkarte": "Wyk_Süd_West.pdf",
        "ortsname": "Wyk auf Föhr (Südwest)",
        "ortsquelle": "Wyk_Süd_West.pdf",
        "zuordnungsabstand_relativ": 0.987,
        "pdf_x_pt": 1052.515,
        "pdf_y_von_oben_pt": 462.326,
        "koordinatenquelle": "eingebettete GeoPDF-Georeferenzierung",
        "lagehinweis": "kartografische Symbolposition; nicht vermessungstechnisch oder vor Ort bestätigt",
        "marker-color": "#1565c0",
        "marker-symbol": "fire-station",
        "marker-size": "medium",
        "title": "203 - Hydrant"
      }
    },
    {
      "type": "Feature",
      "id": "204",
      "geometry": {
        "type": "Point",
        "coordinates": [
          8.553885,
          54.684421
        ]
      },
      "properties": {
        "id": "204",
        "typ": "Hydrant",
        "menge_l_min": 1600,
        "quellkarte": "Wyk_Süd_West.pdf",
        "ortsname": "Wyk auf Föhr (Südwest)",
        "ortsquelle": "Wyk_Süd_West.pdf",
        "zuordnungsabstand_relativ": 0.865,
        "pdf_x_pt": 1111.499,
        "pdf_y_von_oben_pt": 366.86,
        "koordinatenquelle": "eingebettete GeoPDF-Georeferenzierung",
        "lagehinweis": "kartografische Symbolposition; nicht vermessungstechnisch oder vor Ort bestätigt",
        "marker-color": "#1565c0",
        "marker-symbol": "fire-station",
        "marker-size": "medium",
        "title": "204 - Hydrant"
      }
    },
    {
      "type": "Feature",
      "id": "205",
      "geometry": {
        "type": "Point",
        "coordinates": [
          8.551479,
          54.683292
        ]
      },
      "properties": {
        "id": "205",
        "typ": "Hydrant",
        "menge_l_min": 1600,
        "quellkarte": "Wyk_Süd_West.pdf",
        "ortsname": "Wyk auf Föhr (Südwest)",
        "ortsquelle": "Wyk_Süd_West.pdf",
        "zuordnungsabstand_relativ": 0.775,
        "pdf_x_pt": 1015.43,
        "pdf_y_von_oben_pt": 443.659,
        "koordinatenquelle": "eingebettete GeoPDF-Georeferenzierung",
        "lagehinweis": "kartografische Symbolposition; nicht vermessungstechnisch oder vor Ort bestätigt",
        "marker-color": "#1565c0",
        "marker-symbol": "fire-station",
        "marker-size": "medium",
        "title": "205 - Hydrant"
      }
    },
    {
      "type": "Feature",
      "id": "206",
      "geometry": {
        "type": "Point",
        "coordinates": [
          8.551981,
          54.683896
        ]
      },
      "properties": {
        "id": "206",
        "typ": "Hydrant",
        "menge_l_min": 1600,
        "quellkarte": "Wyk_Süd_West.pdf",
        "ortsname": "Wyk auf Föhr (Südwest)",
        "ortsquelle": "Wyk_Süd_West.pdf",
        "zuordnungsabstand_relativ": 0.912,
        "pdf_x_pt": 1035.631,
        "pdf_y_von_oben_pt": 402.383,
        "koordinatenquelle": "eingebettete GeoPDF-Georeferenzierung",
        "lagehinweis": "kartografische Symbolposition; nicht vermessungstechnisch oder vor Ort bestätigt",
        "marker-color": "#1565c0",
        "marker-symbol": "fire-station",
        "marker-size": "medium",
        "title": "206 - Hydrant"
      }
    },
    {
      "type": "Feature",
      "id": "207",
      "geometry": {
        "type": "Point",
        "coordinates": [
          8.552523,
          54.684549
        ]
      },
      "properties": {
        "id": "207",
        "typ": "Hydrant",
        "menge_l_min": 1600,
        "quellkarte": "Wyk_Süd_West.pdf",
        "ortsname": "Wyk auf Föhr (Südwest)",
        "ortsquelle": "Wyk_Süd_West.pdf",
        "zuordnungsabstand_relativ": 0.708,
        "pdf_x_pt": 1057.441,
        "pdf_y_von_oben_pt": 357.762,
        "koordinatenquelle": "eingebettete GeoPDF-Georeferenzierung",
        "lagehinweis": "kartografische Symbolposition; nicht vermessungstechnisch oder vor Ort bestätigt",
        "marker-color": "#1565c0",
        "marker-symbol": "fire-station",
        "marker-size": "medium",
        "title": "207 - Hydrant"
      }
    },
    {
      "type": "Feature",
      "id": "208",
      "geometry": {
        "type": "Point",
        "coordinates": [
          8.552831,
          54.685382
        ]
      },
      "properties": {
        "id": "208",
        "typ": "Hydrant",
        "menge_l_min": 1600,
        "quellkarte": "Wyk_Süd_West.pdf",
        "ortsname": "Wyk auf Föhr (Südwest)",
        "ortsquelle": "Wyk_Süd_West.pdf",
        "zuordnungsabstand_relativ": 0.882,
        "pdf_x_pt": 1070.048,
        "pdf_y_von_oben_pt": 300.727,
        "koordinatenquelle": "eingebettete GeoPDF-Georeferenzierung",
        "lagehinweis": "kartografische Symbolposition; nicht vermessungstechnisch oder vor Ort bestätigt",
        "marker-color": "#1565c0",
        "marker-symbol": "fire-station",
        "marker-size": "medium",
        "title": "208 - Hydrant"
      }
    },
    {
      "type": "Feature",
      "id": "209",
      "geometry": {
        "type": "Point",
        "coordinates": [
          8.5513,
          54.684051
        ]
      },
      "properties": {
        "id": "209",
        "typ": "E-Bohrbrunnen",
        "menge_l_min": null,
        "quellkarte": "Wyk_Süd_West.pdf",
        "ortsname": "Wyk auf Föhr (Südwest)",
        "ortsquelle": "Wyk_Süd_West.pdf",
        "zuordnungsabstand_relativ": 0.974,
        "pdf_x_pt": 1008.672,
        "pdf_y_von_oben_pt": 391.586,
        "koordinatenquelle": "eingebettete GeoPDF-Georeferenzierung",
        "lagehinweis": "kartografische Symbolposition; nicht vermessungstechnisch oder vor Ort bestätigt",
        "marker-color": "#8e24aa",
        "marker-symbol": "industrial",
        "marker-size": "medium",
        "title": "209 - E-Bohrbrunnen"
      }
    },
    {
      "type": "Feature",
      "id": "210",
      "geometry": {
        "type": "Point",
        "coordinates": [
          8.550825,
          54.684254
        ]
      },
      "properties": {
        "id": "210",
        "typ": "Hydrant",
        "menge_l_min": 1600,
        "quellkarte": "Wyk_Süd_West.pdf",
        "ortsname": "Wyk auf Föhr (Südwest)",
        "ortsquelle": "Wyk_Süd_West.pdf",
        "zuordnungsabstand_relativ": 0.84,
        "pdf_x_pt": 989.888,
        "pdf_y_von_oben_pt": 377.572,
        "koordinatenquelle": "eingebettete GeoPDF-Georeferenzierung",
        "lagehinweis": "kartografische Symbolposition; nicht vermessungstechnisch oder vor Ort bestätigt",
        "marker-color": "#1565c0",
        "marker-symbol": "fire-station",
        "marker-size": "medium",
        "title": "210 - Hydrant"
      }
    },
    {
      "type": "Feature",
      "id": "212",
      "geometry": {
        "type": "Point",
        "coordinates": [
          8.551849,
          54.685568
        ]
      },
      "properties": {
        "id": "212",
        "typ": "Hydrant",
        "menge_l_min": 1600,
        "quellkarte": "Wyk_Süd_West.pdf",
        "ortsname": "Wyk auf Föhr (Südwest)",
        "ortsquelle": "Wyk_Süd_West.pdf",
        "zuordnungsabstand_relativ": 1.089,
        "pdf_x_pt": 1031.144,
        "pdf_y_von_oben_pt": 287.715,
        "koordinatenquelle": "eingebettete GeoPDF-Georeferenzierung",
        "lagehinweis": "kartografische Symbolposition; nicht vermessungstechnisch oder vor Ort bestätigt",
        "marker-color": "#1565c0",
        "marker-symbol": "fire-station",
        "marker-size": "medium",
        "title": "212 - Hydrant"
      }
    },
    {
      "type": "Feature",
      "id": "213",
      "geometry": {
        "type": "Point",
        "coordinates": [
          8.549542,
          54.684653
        ]
      },
      "properties": {
        "id": "213",
        "typ": "Hydrant",
        "menge_l_min": 1600,
        "quellkarte": "Wyk_Süd_West.pdf",
        "ortsname": "Wyk auf Föhr (Südwest)",
        "ortsquelle": "Wyk_Süd_West.pdf",
        "zuordnungsabstand_relativ": 0.83,
        "pdf_x_pt": 939.11,
        "pdf_y_von_oben_pt": 349.845,
        "koordinatenquelle": "eingebettete GeoPDF-Georeferenzierung",
        "lagehinweis": "kartografische Symbolposition; nicht vermessungstechnisch oder vor Ort bestätigt",
        "marker-color": "#1565c0",
        "marker-symbol": "fire-station",
        "marker-size": "medium",
        "title": "213 - Hydrant"
      }
    },
    {
      "type": "Feature",
      "id": "214",
      "geometry": {
        "type": "Point",
        "coordinates": [
          8.550783,
          54.68587
        ]
      },
      "properties": {
        "id": "214",
        "typ": "Hydrant",
        "menge_l_min": 1600,
        "quellkarte": "Wyk_Süd_West.pdf",
        "ortsname": "Wyk auf Föhr (Südwest)",
        "ortsquelle": "Wyk_Süd_West.pdf",
        "zuordnungsabstand_relativ": 0.873,
        "pdf_x_pt": 988.921,
        "pdf_y_von_oben_pt": 266.781,
        "koordinatenquelle": "eingebettete GeoPDF-Georeferenzierung",
        "lagehinweis": "kartografische Symbolposition; nicht vermessungstechnisch oder vor Ort bestätigt",
        "marker-color": "#1565c0",
        "marker-symbol": "fire-station",
        "marker-size": "medium",
        "title": "214 - Hydrant"
      }
    },
    {
      "type": "Feature",
      "id": "215",
      "geometry": {
        "type": "Point",
        "coordinates": [
          8.548325,
          54.684652
        ]
      },
      "properties": {
        "id": "215",
        "typ": "Hydrant",
        "menge_l_min": 1600,
        "quellkarte": "Wyk_Süd_West.pdf",
        "ortsname": "Wyk auf Föhr (Südwest)",
        "ortsquelle": "Wyk_Süd_West.pdf",
        "zuordnungsabstand_relativ": 0.837,
        "pdf_x_pt": 890.773,
        "pdf_y_von_oben_pt": 349.632,
        "koordinatenquelle": "eingebettete GeoPDF-Georeferenzierung",
        "lagehinweis": "kartografische Symbolposition; nicht vermessungstechnisch oder vor Ort bestätigt",
        "marker-color": "#1565c0",
        "marker-symbol": "fire-station",
        "marker-size": "medium",
        "title": "215 - Hydrant"
      }
    },
    {
      "type": "Feature",
      "id": "216",
      "geometry": {
        "type": "Point",
        "coordinates": [
          8.549037,
          54.685525
        ]
      },
      "properties": {
        "id": "216",
        "typ": "Hydrant",
        "menge_l_min": 1600,
        "quellkarte": "Wyk_Süd_West.pdf",
        "ortsname": "Wyk auf Föhr (Südwest)",
        "ortsquelle": "Wyk_Süd_West.pdf",
        "zuordnungsabstand_relativ": 0.868,
        "pdf_x_pt": 919.422,
        "pdf_y_von_oben_pt": 289.975,
        "koordinatenquelle": "eingebettete GeoPDF-Georeferenzierung",
        "lagehinweis": "kartografische Symbolposition; nicht vermessungstechnisch oder vor Ort bestätigt",
        "marker-color": "#1565c0",
        "marker-symbol": "fire-station",
        "marker-size": "medium",
        "title": "216 - Hydrant"
      }
    },
    {
      "type": "Feature",
      "id": "217",
      "geometry": {
        "type": "Point",
        "coordinates": [
          8.549697,
          54.686314
        ]
      },
      "properties": {
        "id": "217",
        "typ": "Hydrant",
        "menge_l_min": 1600,
        "quellkarte": "Wyk_Süd_West.pdf",
        "ortsname": "Wyk auf Föhr (Südwest)",
        "ortsquelle": "Wyk_Süd_West.pdf",
        "zuordnungsabstand_relativ": 1.1,
        "pdf_x_pt": 945.973,
        "pdf_y_von_oben_pt": 236.036,
        "koordinatenquelle": "eingebettete GeoPDF-Georeferenzierung",
        "lagehinweis": "kartografische Symbolposition; nicht vermessungstechnisch oder vor Ort bestätigt",
        "marker-color": "#1565c0",
        "marker-symbol": "fire-station",
        "marker-size": "medium",
        "title": "217 - Hydrant"
      }
    },
    {
      "type": "Feature",
      "id": "218",
      "geometry": {
        "type": "Point",
        "coordinates": [
          8.550154,
          54.686872
        ]
      },
      "properties": {
        "id": "218",
        "typ": "Hydrant",
        "menge_l_min": 1600,
        "quellkarte": "Wyk_Süd_West.pdf",
        "ortsname": "Wyk auf Föhr (Südwest)",
        "ortsquelle": "Wyk_Süd_West.pdf",
        "zuordnungsabstand_relativ": 0.864,
        "pdf_x_pt": 964.385,
        "pdf_y_von_oben_pt": 197.917,
        "koordinatenquelle": "eingebettete GeoPDF-Georeferenzierung",
        "lagehinweis": "kartografische Symbolposition; nicht vermessungstechnisch oder vor Ort bestätigt",
        "marker-color": "#1565c0",
        "marker-symbol": "fire-station",
        "marker-size": "medium",
        "title": "218 - Hydrant"
      }
    },
    {
      "type": "Feature",
      "id": "243",
      "geometry": {
        "type": "Point",
        "coordinates": [
          8.553823,
          54.686544
        ]
      },
      "properties": {
        "id": "243",
        "typ": "Hydrant",
        "menge_l_min": 1600,
        "quellkarte": "Wyk_Süd_West.pdf",
        "ortsname": "Wyk auf Föhr (Südwest)",
        "ortsquelle": "Wyk_Süd_West.pdf",
        "zuordnungsabstand_relativ": 0.779,
        "pdf_x_pt": 1109.95,
        "pdf_y_von_oben_pt": 221.326,
        "koordinatenquelle": "eingebettete GeoPDF-Georeferenzierung",
        "lagehinweis": "kartografische Symbolposition; nicht vermessungstechnisch oder vor Ort bestätigt",
        "marker-color": "#1565c0",
        "marker-symbol": "fire-station",
        "marker-size": "medium",
        "title": "243 - Hydrant"
      }
    },
    {
      "type": "Feature",
      "id": "244",
      "geometry": {
        "type": "Point",
        "coordinates": [
          8.555042,
          54.687115
        ]
      },
      "properties": {
        "id": "244",
        "typ": "Hydrant",
        "menge_l_min": 1600,
        "quellkarte": "Wyk_Süd_West.pdf",
        "ortsname": "Wyk auf Föhr (Südwest)",
        "ortsquelle": "Wyk_Süd_West.pdf",
        "zuordnungsabstand_relativ": 0.838,
        "pdf_x_pt": 1158.645,
        "pdf_y_von_oben_pt": 182.505,
        "koordinatenquelle": "eingebettete GeoPDF-Georeferenzierung",
        "lagehinweis": "kartografische Symbolposition; nicht vermessungstechnisch oder vor Ort bestätigt",
        "marker-color": "#1565c0",
        "marker-symbol": "fire-station",
        "marker-size": "medium",
        "title": "244 - Hydrant"
      }
    },
    {
      "type": "Feature",
      "id": "245",
      "geometry": {
        "type": "Point",
        "coordinates": [
          8.555095,
          54.687773
        ]
      },
      "properties": {
        "id": "245",
        "typ": "Hydrant",
        "menge_l_min": 1600,
        "quellkarte": "Wyk_Süd_West.pdf",
        "ortsname": "Wyk auf Föhr (Südwest)",
        "ortsquelle": "Wyk_Süd_West.pdf",
        "zuordnungsabstand_relativ": 0.549,
        "pdf_x_pt": 1161.039,
        "pdf_y_von_oben_pt": 137.467,
        "koordinatenquelle": "eingebettete GeoPDF-Georeferenzierung",
        "lagehinweis": "kartografische Symbolposition; nicht vermessungstechnisch oder vor Ort bestätigt",
        "marker-color": "#1565c0",
        "marker-symbol": "fire-station",
        "marker-size": "medium",
        "title": "245 - Hydrant"
      }
    },
    {
      "type": "Feature",
      "id": "247",
      "geometry": {
        "type": "Point",
        "coordinates": [
          8.552737,
          54.68665
        ]
      },
      "properties": {
        "id": "247",
        "typ": "Hydrant",
        "menge_l_min": 1600,
        "quellkarte": "Wyk_Süd_West.pdf",
        "ortsname": "Wyk auf Föhr (Südwest)",
        "ortsquelle": "Wyk_Süd_West.pdf",
        "zuordnungsabstand_relativ": 1.203,
        "pdf_x_pt": 1066.867,
        "pdf_y_von_oben_pt": 213.827,
        "koordinatenquelle": "eingebettete GeoPDF-Georeferenzierung",
        "lagehinweis": "kartografische Symbolposition; nicht vermessungstechnisch oder vor Ort bestätigt",
        "marker-color": "#1565c0",
        "marker-symbol": "fire-station",
        "marker-size": "medium",
        "title": "247 - Hydrant"
      }
    },
    {
      "type": "Feature",
      "id": "248",
      "geometry": {
        "type": "Point",
        "coordinates": [
          8.553683,
          54.687043
        ]
      },
      "properties": {
        "id": "248",
        "typ": "Hydrant",
        "menge_l_min": 1600,
        "quellkarte": "Wyk_Süd_West.pdf",
        "ortsname": "Wyk auf Föhr (Südwest)",
        "ortsquelle": "Wyk_Süd_West.pdf",
        "zuordnungsabstand_relativ": 0.911,
        "pdf_x_pt": 1104.611,
        "pdf_y_von_oben_pt": 187.14,
        "koordinatenquelle": "eingebettete GeoPDF-Georeferenzierung",
        "lagehinweis": "kartografische Symbolposition; nicht vermessungstechnisch oder vor Ort bestätigt",
        "marker-color": "#1565c0",
        "marker-symbol": "fire-station",
        "marker-size": "medium",
        "title": "248 - Hydrant"
      }
    },
    {
      "type": "Feature",
      "id": "249",
      "geometry": {
        "type": "Point",
        "coordinates": [
          8.554131,
          54.687759
        ]
      },
      "properties": {
        "id": "249",
        "typ": "Hydrant",
        "menge_l_min": 1600,
        "quellkarte": "Wyk_Süd_West.pdf",
        "ortsname": "Wyk auf Föhr (Südwest)",
        "ortsquelle": "Wyk_Süd_West.pdf",
        "zuordnungsabstand_relativ": 0.793,
        "pdf_x_pt": 1122.742,
        "pdf_y_von_oben_pt": 138.129,
        "koordinatenquelle": "eingebettete GeoPDF-Georeferenzierung",
        "lagehinweis": "kartografische Symbolposition; nicht vermessungstechnisch oder vor Ort bestätigt",
        "marker-color": "#1565c0",
        "marker-symbol": "fire-station",
        "marker-size": "medium",
        "title": "249 - Hydrant"
      }
    },
    {
      "type": "Feature",
      "id": "252",
      "geometry": {
        "type": "Point",
        "coordinates": [
          8.555002,
          54.688626
        ]
      },
      "properties": {
        "id": "252",
        "typ": "Hydrant",
        "menge_l_min": 1600,
        "quellkarte": "Wyk_Süd_West.pdf",
        "ortsname": "Wyk auf Föhr (Südwest)",
        "ortsquelle": "Wyk_Süd_West.pdf",
        "zuordnungsabstand_relativ": 1.006,
        "pdf_x_pt": 1157.684,
        "pdf_y_von_oben_pt": 78.947,
        "koordinatenquelle": "eingebettete GeoPDF-Georeferenzierung",
        "lagehinweis": "kartografische Symbolposition; nicht vermessungstechnisch oder vor Ort bestätigt",
        "marker-color": "#1565c0",
        "marker-symbol": "fire-station",
        "marker-size": "medium",
        "title": "252 - Hydrant"
      }
    },
    {
      "type": "Feature",
      "id": "253",
      "geometry": {
        "type": "Point",
        "coordinates": [
          8.552064,
          54.687097
        ]
      },
      "properties": {
        "id": "253",
        "typ": "Hydrant",
        "menge_l_min": 1600,
        "quellkarte": "Wyk_Süd_West.pdf",
        "ortsname": "Wyk auf Föhr (Südwest)",
        "ortsquelle": "Wyk_Süd_West.pdf",
        "zuordnungsabstand_relativ": 0.797,
        "pdf_x_pt": 1040.355,
        "pdf_y_von_oben_pt": 183.008,
        "koordinatenquelle": "eingebettete GeoPDF-Georeferenzierung",
        "lagehinweis": "kartografische Symbolposition; nicht vermessungstechnisch oder vor Ort bestätigt",
        "marker-color": "#1565c0",
        "marker-symbol": "fire-station",
        "marker-size": "medium",
        "title": "253 - Hydrant"
      }
    },
    {
      "type": "Feature",
      "id": "254",
      "geometry": {
        "type": "Point",
        "coordinates": [
          8.552845,
          54.687644
        ]
      },
      "properties": {
        "id": "254",
        "typ": "Hydrant",
        "menge_l_min": 1600,
        "quellkarte": "Wyk_Süd_West.pdf",
        "ortsname": "Wyk auf Föhr (Südwest)",
        "ortsquelle": "Wyk_Süd_West.pdf",
        "zuordnungsabstand_relativ": 0.828,
        "pdf_x_pt": 1071.612,
        "pdf_y_von_oben_pt": 145.714,
        "koordinatenquelle": "eingebettete GeoPDF-Georeferenzierung",
        "lagehinweis": "kartografische Symbolposition; nicht vermessungstechnisch oder vor Ort bestätigt",
        "marker-color": "#1565c0",
        "marker-symbol": "fire-station",
        "marker-size": "medium",
        "title": "254 - Hydrant"
      }
    },
    {
      "type": "Feature",
      "id": "255",
      "geometry": {
        "type": "Point",
        "coordinates": [
          8.550867,
          54.687723
        ]
      },
      "properties": {
        "id": "255",
        "typ": "Hydrant",
        "menge_l_min": 1600,
        "quellkarte": "Wyk_Süd_West.pdf",
        "ortsname": "Wyk auf Föhr (Südwest)",
        "ortsquelle": "Wyk_Süd_West.pdf",
        "zuordnungsabstand_relativ": 0.824,
        "pdf_x_pt": 993.091,
        "pdf_y_von_oben_pt": 139.775,
        "koordinatenquelle": "eingebettete GeoPDF-Georeferenzierung",
        "lagehinweis": "kartografische Symbolposition; nicht vermessungstechnisch oder vor Ort bestätigt",
        "marker-color": "#1565c0",
        "marker-symbol": "fire-station",
        "marker-size": "medium",
        "title": "255 - Hydrant"
      }
    },
    {
      "type": "Feature",
      "id": "256",
      "geometry": {
        "type": "Point",
        "coordinates": [
          8.552046,
          54.687864
        ]
      },
      "properties": {
        "id": "256",
        "typ": "Hydrant",
        "menge_l_min": 1600,
        "quellkarte": "Wyk_Süd_West.pdf",
        "ortsname": "Wyk auf Föhr (Südwest)",
        "ortsquelle": "Wyk_Süd_West.pdf",
        "zuordnungsabstand_relativ": 0.847,
        "pdf_x_pt": 1039.968,
        "pdf_y_von_oben_pt": 130.41,
        "koordinatenquelle": "eingebettete GeoPDF-Georeferenzierung",
        "lagehinweis": "kartografische Symbolposition; nicht vermessungstechnisch oder vor Ort bestätigt",
        "marker-color": "#1565c0",
        "marker-symbol": "fire-station",
        "marker-size": "medium",
        "title": "256 - Hydrant"
      }
    },
    {
      "type": "Feature",
      "id": "257",
      "geometry": {
        "type": "Point",
        "coordinates": [
          8.553049,
          54.688391
        ]
      },
      "properties": {
        "id": "257",
        "typ": "Hydrant",
        "menge_l_min": 1600,
        "quellkarte": "Wyk_Süd_West.pdf",
        "ortsname": "Wyk auf Föhr (Südwest)",
        "ortsquelle": "Wyk_Süd_West.pdf",
        "zuordnungsabstand_relativ": 0.856,
        "pdf_x_pt": 1080.032,
        "pdf_y_von_oben_pt": 94.552,
        "koordinatenquelle": "eingebettete GeoPDF-Georeferenzierung",
        "lagehinweis": "kartografische Symbolposition; nicht vermessungstechnisch oder vor Ort bestätigt",
        "marker-color": "#1565c0",
        "marker-symbol": "fire-station",
        "marker-size": "medium",
        "title": "257 - Hydrant"
      }
    },
    {
      "type": "Feature",
      "id": "259",
      "geometry": {
        "type": "Point",
        "coordinates": [
          8.552296,
          54.689417
        ]
      },
      "properties": {
        "id": "259",
        "typ": "Hydrant",
        "menge_l_min": 1600,
        "quellkarte": "Wyk_Süd_West.pdf",
        "ortsname": "Wyk auf Föhr (Südwest)",
        "ortsquelle": "Wyk_Süd_West.pdf",
        "zuordnungsabstand_relativ": 0.755,
        "pdf_x_pt": 1050.573,
        "pdf_y_von_oben_pt": 24.02,
        "koordinatenquelle": "eingebettete GeoPDF-Georeferenzierung",
        "lagehinweis": "kartografische Symbolposition; nicht vermessungstechnisch oder vor Ort bestätigt",
        "marker-color": "#1565c0",
        "marker-symbol": "fire-station",
        "marker-size": "medium",
        "title": "259 - Hydrant"
      }
    },
    {
      "type": "Feature",
      "id": "273",
      "geometry": {
        "type": "Point",
        "coordinates": [
          8.554263,
          54.688329
        ]
      },
      "properties": {
        "id": "273",
        "typ": "Hydrant",
        "menge_l_min": 1600,
        "quellkarte": "Wyk_Süd_West.pdf",
        "ortsname": "Wyk auf Föhr (Südwest)",
        "ortsquelle": "Wyk_Süd_West.pdf",
        "zuordnungsabstand_relativ": 0.789,
        "pdf_x_pt": 1128.212,
        "pdf_y_von_oben_pt": 99.126,
        "koordinatenquelle": "eingebettete GeoPDF-Georeferenzierung",
        "lagehinweis": "kartografische Symbolposition; nicht vermessungstechnisch oder vor Ort bestätigt",
        "marker-color": "#1565c0",
        "marker-symbol": "fire-station",
        "marker-size": "medium",
        "title": "273 - Hydrant"
      }
    },
    {
      "type": "Feature",
      "id": "309",
      "geometry": {
        "type": "Point",
        "coordinates": [
          8.526827,
          54.684925
        ]
      },
      "properties": {
        "id": "309",
        "typ": "Hydrant",
        "menge_l_min": 3200,
        "quellkarte": "Wyk_Süd_West.pdf",
        "ortsname": "Wyk auf Föhr (Südwest)",
        "ortsquelle": "Wyk_Süd_West.pdf",
        "zuordnungsabstand_relativ": 1.122,
        "pdf_x_pt": 37.006,
        "pdf_y_von_oben_pt": 325.351,
        "koordinatenquelle": "eingebettete GeoPDF-Georeferenzierung",
        "lagehinweis": "kartografische Symbolposition; nicht vermessungstechnisch oder vor Ort bestätigt",
        "marker-color": "#1565c0",
        "marker-symbol": "fire-station",
        "marker-size": "medium",
        "title": "309 - Hydrant"
      }
    },
    {
      "type": "Feature",
      "id": "310",
      "geometry": {
        "type": "Point",
        "coordinates": [
          8.529489,
          54.683264
        ]
      },
      "properties": {
        "id": "310",
        "typ": "Hydrant",
        "menge_l_min": 3200,
        "quellkarte": "Wyk_Süd_West.pdf",
        "ortsname": "Wyk auf Föhr (Südwest)",
        "ortsquelle": "Wyk_Süd_West.pdf",
        "zuordnungsabstand_relativ": 0.78,
        "pdf_x_pt": 141.996,
        "pdf_y_von_oben_pt": 439.924,
        "koordinatenquelle": "eingebettete GeoPDF-Georeferenzierung",
        "lagehinweis": "kartografische Symbolposition; nicht vermessungstechnisch oder vor Ort bestätigt",
        "marker-color": "#1565c0",
        "marker-symbol": "fire-station",
        "marker-size": "medium",
        "title": "310 - Hydrant"
      }
    },
    {
      "type": "Feature",
      "id": "311",
      "geometry": {
        "type": "Point",
        "coordinates": [
          8.531747,
          54.683065
        ]
      },
      "properties": {
        "id": "311",
        "typ": "Hydrant",
        "menge_l_min": 3200,
        "quellkarte": "Wyk_Süd_West.pdf",
        "ortsname": "Wyk auf Föhr (Südwest)",
        "ortsquelle": "Wyk_Süd_West.pdf",
        "zuordnungsabstand_relativ": 0.873,
        "pdf_x_pt": 231.562,
        "pdf_y_von_oben_pt": 454.106,
        "koordinatenquelle": "eingebettete GeoPDF-Georeferenzierung",
        "lagehinweis": "kartografische Symbolposition; nicht vermessungstechnisch oder vor Ort bestätigt",
        "marker-color": "#1565c0",
        "marker-symbol": "fire-station",
        "marker-size": "medium",
        "title": "311 - Hydrant"
      }
    },
    {
      "type": "Feature",
      "id": "312",
      "geometry": {
        "type": "Point",
        "coordinates": [
          8.53455,
          54.682837
        ]
      },
      "properties": {
        "id": "312",
        "typ": "Hydrant",
        "menge_l_min": 3200,
        "quellkarte": "Wyk_Süd_West.pdf",
        "ortsname": "Wyk auf Föhr (Südwest)",
        "ortsquelle": "Wyk_Süd_West.pdf",
        "zuordnungsabstand_relativ": 1.091,
        "pdf_x_pt": 342.816,
        "pdf_y_von_oben_pt": 470.487,
        "koordinatenquelle": "eingebettete GeoPDF-Georeferenzierung",
        "lagehinweis": "kartografische Symbolposition; nicht vermessungstechnisch oder vor Ort bestätigt",
        "marker-color": "#1565c0",
        "marker-symbol": "fire-station",
        "marker-size": "medium",
        "title": "312 - Hydrant"
      }
    },
    {
      "type": "Feature",
      "id": "313",
      "geometry": {
        "type": "Point",
        "coordinates": [
          8.535273,
          54.682144
        ]
      },
      "properties": {
        "id": "313",
        "typ": "Hydrant",
        "menge_l_min": 1600,
        "quellkarte": "Wyk_Süd_West.pdf",
        "ortsname": "Wyk auf Föhr (Südwest)",
        "ortsquelle": "Wyk_Süd_West.pdf",
        "zuordnungsabstand_relativ": 1.191,
        "pdf_x_pt": 371.227,
        "pdf_y_von_oben_pt": 518.191,
        "koordinatenquelle": "eingebettete GeoPDF-Georeferenzierung",
        "lagehinweis": "kartografische Symbolposition; nicht vermessungstechnisch oder vor Ort bestätigt",
        "marker-color": "#1565c0",
        "marker-symbol": "fire-station",
        "marker-size": "medium",
        "title": "313 - Hydrant"
      }
    },
    {
      "type": "Feature",
      "id": "315",
      "geometry": {
        "type": "Point",
        "coordinates": [
          8.53735,
          54.682431
        ]
      },
      "properties": {
        "id": "315",
        "typ": "Hydrant",
        "menge_l_min": 1600,
        "quellkarte": "Wyk_Süd_West.pdf",
        "ortsname": "Wyk auf Föhr (Südwest)",
        "ortsquelle": "Wyk_Süd_West.pdf",
        "zuordnungsabstand_relativ": 0.817,
        "pdf_x_pt": 453.858,
        "pdf_y_von_oben_pt": 499.005,
        "koordinatenquelle": "eingebettete GeoPDF-Georeferenzierung",
        "lagehinweis": "kartografische Symbolposition; nicht vermessungstechnisch oder vor Ort bestätigt",
        "marker-color": "#1565c0",
        "marker-symbol": "fire-station",
        "marker-size": "medium",
        "title": "315 - Hydrant"
      }
    },
    {
      "type": "Feature",
      "id": "316",
      "geometry": {
        "type": "Point",
        "coordinates": [
          8.537616,
          54.682559
        ]
      },
      "properties": {
        "id": "316",
        "typ": "Hydrant",
        "menge_l_min": 1600,
        "quellkarte": "Wyk_Süd_West.pdf",
        "ortsname": "Wyk auf Föhr (Südwest)",
        "ortsquelle": "Wyk_Süd_West.pdf",
        "zuordnungsabstand_relativ": 0.888,
        "pdf_x_pt": 464.47,
        "pdf_y_von_oben_pt": 490.34,
        "koordinatenquelle": "eingebettete GeoPDF-Georeferenzierung",
        "lagehinweis": "kartografische Symbolposition; nicht vermessungstechnisch oder vor Ort bestätigt",
        "marker-color": "#1565c0",
        "marker-symbol": "fire-station",
        "marker-size": "medium",
        "title": "316 - Hydrant"
      }
    },
    {
      "type": "Feature",
      "id": "317",
      "geometry": {
        "type": "Point",
        "coordinates": [
          8.538623,
          54.683128
        ]
      },
      "properties": {
        "id": "317",
        "typ": "Hydrant",
        "menge_l_min": 1600,
        "quellkarte": "Wyk_Süd_West.pdf",
        "ortsname": "Wyk auf Föhr (Südwest)",
        "ortsquelle": "Wyk_Süd_West.pdf",
        "zuordnungsabstand_relativ": 0.816,
        "pdf_x_pt": 504.708,
        "pdf_y_von_oben_pt": 451.572,
        "koordinatenquelle": "eingebettete GeoPDF-Georeferenzierung",
        "lagehinweis": "kartografische Symbolposition; nicht vermessungstechnisch oder vor Ort bestätigt",
        "marker-color": "#1565c0",
        "marker-symbol": "fire-station",
        "marker-size": "medium",
        "title": "317 - Hydrant"
      }
    },
    {
      "type": "Feature",
      "id": "318",
      "geometry": {
        "type": "Point",
        "coordinates": [
          8.540893,
          54.681291
        ]
      },
      "properties": {
        "id": "318",
        "typ": "Hydrant",
        "menge_l_min": 1600,
        "quellkarte": "Wyk_Süd_West.pdf",
        "ortsname": "Wyk auf Föhr (Südwest)",
        "ortsquelle": "Wyk_Süd_West.pdf",
        "zuordnungsabstand_relativ": 0.827,
        "pdf_x_pt": 594.055,
        "pdf_y_von_oben_pt": 578.047,
        "koordinatenquelle": "eingebettete GeoPDF-Georeferenzierung",
        "lagehinweis": "kartografische Symbolposition; nicht vermessungstechnisch oder vor Ort bestätigt",
        "marker-color": "#1565c0",
        "marker-symbol": "fire-station",
        "marker-size": "medium",
        "title": "318 - Hydrant"
      }
    },
    {
      "type": "Feature",
      "id": "319",
      "geometry": {
        "type": "Point",
        "coordinates": [
          8.542749,
          54.683359
        ]
      },
      "properties": {
        "id": "319",
        "typ": "Hydrant",
        "menge_l_min": 1600,
        "quellkarte": "Wyk_Süd_West.pdf",
        "ortsname": "Wyk auf Föhr (Südwest)",
        "ortsquelle": "Wyk_Süd_West.pdf",
        "zuordnungsabstand_relativ": 0.814,
        "pdf_x_pt": 668.726,
        "pdf_y_von_oben_pt": 436.784,
        "koordinatenquelle": "eingebettete GeoPDF-Georeferenzierung",
        "lagehinweis": "kartografische Symbolposition; nicht vermessungstechnisch oder vor Ort bestätigt",
        "marker-color": "#1565c0",
        "marker-symbol": "fire-station",
        "marker-size": "medium",
        "title": "319 - Hydrant"
      }
    },
    {
      "type": "Feature",
      "id": "320",
      "geometry": {
        "type": "Point",
        "coordinates": [
          8.540985,
          54.683685
        ]
      },
      "properties": {
        "id": "320",
        "typ": "E-Bohrbrunnen",
        "menge_l_min": null,
        "quellkarte": "Wyk_Süd_West.pdf",
        "ortsname": "Wyk auf Föhr (Südwest)",
        "ortsquelle": "Wyk_Süd_West.pdf",
        "zuordnungsabstand_relativ": 0.984,
        "pdf_x_pt": 598.781,
        "pdf_y_von_oben_pt": 414.011,
        "koordinatenquelle": "eingebettete GeoPDF-Georeferenzierung",
        "lagehinweis": "kartografische Symbolposition; nicht vermessungstechnisch oder vor Ort bestätigt",
        "marker-color": "#8e24aa",
        "marker-symbol": "industrial",
        "marker-size": "medium",
        "title": "320 - E-Bohrbrunnen"
      }
    },
    {
      "type": "Feature",
      "id": "321",
      "geometry": {
        "type": "Point",
        "coordinates": [
          8.541676,
          54.684538
        ]
      },
      "properties": {
        "id": "321",
        "typ": "Hydrant",
        "menge_l_min": 1600,
        "quellkarte": "Wyk_Süd_West.pdf",
        "ortsname": "Wyk auf Föhr (Südwest)",
        "ortsquelle": "Wyk_Süd_West.pdf",
        "zuordnungsabstand_relativ": 0.806,
        "pdf_x_pt": 626.627,
        "pdf_y_von_oben_pt": 355.685,
        "koordinatenquelle": "eingebettete GeoPDF-Georeferenzierung",
        "lagehinweis": "kartografische Symbolposition; nicht vermessungstechnisch oder vor Ort bestätigt",
        "marker-color": "#1565c0",
        "marker-symbol": "fire-station",
        "marker-size": "medium",
        "title": "321 - Hydrant"
      }
    },
    {
      "type": "Feature",
      "id": "322",
      "geometry": {
        "type": "Point",
        "coordinates": [
          8.540705,
          54.68392
        ]
      },
      "properties": {
        "id": "322",
        "typ": "Hydrant",
        "menge_l_min": 1600,
        "quellkarte": "Wyk_Süd_West.pdf",
        "ortsname": "Wyk auf Föhr (Südwest)",
        "ortsquelle": "Wyk_Süd_West.pdf",
        "zuordnungsabstand_relativ": 0.929,
        "pdf_x_pt": 587.77,
        "pdf_y_von_oben_pt": 397.802,
        "koordinatenquelle": "eingebettete GeoPDF-Georeferenzierung",
        "lagehinweis": "kartografische Symbolposition; nicht vermessungstechnisch oder vor Ort bestätigt",
        "marker-color": "#1565c0",
        "marker-symbol": "fire-station",
        "marker-size": "medium",
        "title": "322 - Hydrant"
      }
    },
    {
      "type": "Feature",
      "id": "323",
      "geometry": {
        "type": "Point",
        "coordinates": [
          8.539748,
          54.684185
        ]
      },
      "properties": {
        "id": "323",
        "typ": "Hydrant",
        "menge_l_min": 1600,
        "quellkarte": "Wyk_Süd_West.pdf",
        "ortsname": "Wyk auf Föhr (Südwest)",
        "ortsquelle": "Wyk_Süd_West.pdf",
        "zuordnungsabstand_relativ": 0.969,
        "pdf_x_pt": 549.87,
        "pdf_y_von_oben_pt": 379.386,
        "koordinatenquelle": "eingebettete GeoPDF-Georeferenzierung",
        "lagehinweis": "kartografische Symbolposition; nicht vermessungstechnisch oder vor Ort bestätigt",
        "marker-color": "#1565c0",
        "marker-symbol": "fire-station",
        "marker-size": "medium",
        "title": "323 - Hydrant"
      }
    },
    {
      "type": "Feature",
      "id": "325",
      "geometry": {
        "type": "Point",
        "coordinates": [
          8.540375,
          54.684912
        ]
      },
      "properties": {
        "id": "325",
        "typ": "Hydrant",
        "menge_l_min": 1600,
        "quellkarte": "Wyk_Süd_West.pdf",
        "ortsname": "Wyk auf Föhr (Südwest)",
        "ortsquelle": "Wyk_Süd_West.pdf",
        "zuordnungsabstand_relativ": 0.753,
        "pdf_x_pt": 575.138,
        "pdf_y_von_oben_pt": 329.74,
        "koordinatenquelle": "eingebettete GeoPDF-Georeferenzierung",
        "lagehinweis": "kartografische Symbolposition; nicht vermessungstechnisch oder vor Ort bestätigt",
        "marker-color": "#1565c0",
        "marker-symbol": "fire-station",
        "marker-size": "medium",
        "title": "325 - Hydrant"
      }
    },
    {
      "type": "Feature",
      "id": "326",
      "geometry": {
        "type": "Point",
        "coordinates": [
          8.541136,
          54.685762
        ]
      },
      "properties": {
        "id": "326",
        "typ": "Hydrant",
        "menge_l_min": 1600,
        "quellkarte": "Wyk_Süd_West.pdf",
        "ortsname": "Wyk auf Föhr (Südwest)",
        "ortsquelle": "Wyk_Süd_West.pdf",
        "zuordnungsabstand_relativ": 0.93,
        "pdf_x_pt": 605.726,
        "pdf_y_von_oben_pt": 271.646,
        "koordinatenquelle": "eingebettete GeoPDF-Georeferenzierung",
        "lagehinweis": "kartografische Symbolposition; nicht vermessungstechnisch oder vor Ort bestätigt",
        "marker-color": "#1565c0",
        "marker-symbol": "fire-station",
        "marker-size": "medium",
        "title": "326 - Hydrant"
      }
    },
    {
      "type": "Feature",
      "id": "327",
      "geometry": {
        "type": "Point",
        "coordinates": [
          8.547342,
          54.685727
        ]
      },
      "properties": {
        "id": "327",
        "typ": "Hydrant",
        "menge_l_min": 1600,
        "quellkarte": "Wyk_Süd_West.pdf",
        "ortsname": "Wyk auf Föhr (Südwest)",
        "ortsquelle": "Wyk_Süd_West.pdf",
        "zuordnungsabstand_relativ": 0.826,
        "pdf_x_pt": 852.218,
        "pdf_y_von_oben_pt": 275.679,
        "koordinatenquelle": "eingebettete GeoPDF-Georeferenzierung",
        "lagehinweis": "kartografische Symbolposition; nicht vermessungstechnisch oder vor Ort bestätigt",
        "marker-color": "#1565c0",
        "marker-symbol": "fire-station",
        "marker-size": "medium",
        "title": "327 - Hydrant"
      }
    },
    {
      "type": "Feature",
      "id": "328",
      "geometry": {
        "type": "Point",
        "coordinates": [
          8.547992,
          54.686274
        ]
      },
      "properties": {
        "id": "328",
        "typ": "Hydrant",
        "menge_l_min": 1600,
        "quellkarte": "Wyk_Süd_West.pdf",
        "ortsname": "Wyk auf Föhr (Südwest)",
        "ortsquelle": "Wyk_Süd_West.pdf",
        "zuordnungsabstand_relativ": 1.148,
        "pdf_x_pt": 878.251,
        "pdf_y_von_oben_pt": 238.329,
        "koordinatenquelle": "eingebettete GeoPDF-Georeferenzierung",
        "lagehinweis": "kartografische Symbolposition; nicht vermessungstechnisch oder vor Ort bestätigt",
        "marker-color": "#1565c0",
        "marker-symbol": "fire-station",
        "marker-size": "medium",
        "title": "328 - Hydrant"
      }
    },
    {
      "type": "Feature",
      "id": "329",
      "geometry": {
        "type": "Point",
        "coordinates": [
          8.54865,
          54.686653
        ]
      },
      "properties": {
        "id": "329",
        "typ": "Hydrant",
        "menge_l_min": 1600,
        "quellkarte": "Wyk_Süd_West.pdf",
        "ortsname": "Wyk auf Föhr (Südwest)",
        "ortsquelle": "Wyk_Süd_West.pdf",
        "zuordnungsabstand_relativ": 0.928,
        "pdf_x_pt": 904.572,
        "pdf_y_von_oben_pt": 212.547,
        "koordinatenquelle": "eingebettete GeoPDF-Georeferenzierung",
        "lagehinweis": "kartografische Symbolposition; nicht vermessungstechnisch oder vor Ort bestätigt",
        "marker-color": "#1565c0",
        "marker-symbol": "fire-station",
        "marker-size": "medium",
        "title": "329 - Hydrant"
      }
    },
    {
      "type": "Feature",
      "id": "330",
      "geometry": {
        "type": "Point",
        "coordinates": [
          8.54559,
          54.68536
        ]
      },
      "properties": {
        "id": "330",
        "typ": "Hydrant",
        "menge_l_min": 1600,
        "quellkarte": "Wyk_Süd_West.pdf",
        "ortsname": "Wyk auf Föhr (Südwest)",
        "ortsquelle": "Wyk_Süd_West.pdf",
        "zuordnungsabstand_relativ": 0.92,
        "pdf_x_pt": 782.437,
        "pdf_y_von_oben_pt": 300.352,
        "koordinatenquelle": "eingebettete GeoPDF-Georeferenzierung",
        "lagehinweis": "kartografische Symbolposition; nicht vermessungstechnisch oder vor Ort bestätigt",
        "marker-color": "#1565c0",
        "marker-symbol": "fire-station",
        "marker-size": "medium",
        "title": "330 - Hydrant"
      }
    },
    {
      "type": "Feature",
      "id": "331",
      "geometry": {
        "type": "Point",
        "coordinates": [
          8.543453,
          54.685959
        ]
      },
      "properties": {
        "id": "331",
        "typ": "Hydrant",
        "menge_l_min": 1600,
        "quellkarte": "Wyk_Süd_West.pdf",
        "ortsname": "Wyk auf Föhr (Südwest)",
        "ortsquelle": "Wyk_Süd_West.pdf",
        "zuordnungsabstand_relativ": 0.841,
        "pdf_x_pt": 697.852,
        "pdf_y_von_oben_pt": 258.751,
        "koordinatenquelle": "eingebettete GeoPDF-Georeferenzierung",
        "lagehinweis": "kartografische Symbolposition; nicht vermessungstechnisch oder vor Ort bestätigt",
        "marker-color": "#1565c0",
        "marker-symbol": "fire-station",
        "marker-size": "medium",
        "title": "331 - Hydrant"
      }
    },
    {
      "type": "Feature",
      "id": "332",
      "geometry": {
        "type": "Point",
        "coordinates": [
          8.544795,
          54.686958
        ]
      },
      "properties": {
        "id": "332",
        "typ": "Hydrant",
        "menge_l_min": 1600,
        "quellkarte": "Wyk_Süd_West.pdf",
        "ortsname": "Wyk auf Föhr (Südwest)",
        "ortsquelle": "Wyk_Süd_West.pdf",
        "zuordnungsabstand_relativ": 0.983,
        "pdf_x_pt": 751.597,
        "pdf_y_von_oben_pt": 190.617,
        "koordinatenquelle": "eingebettete GeoPDF-Georeferenzierung",
        "lagehinweis": "kartografische Symbolposition; nicht vermessungstechnisch oder vor Ort bestätigt",
        "marker-color": "#1565c0",
        "marker-symbol": "fire-station",
        "marker-size": "medium",
        "title": "332 - Hydrant"
      }
    },
    {
      "type": "Feature",
      "id": "333",
      "geometry": {
        "type": "Point",
        "coordinates": [
          8.542853,
          54.686817
        ]
      },
      "properties": {
        "id": "333",
        "typ": "Hydrant",
        "menge_l_min": 1600,
        "quellkarte": "Wyk_Süd_West.pdf",
        "ortsname": "Wyk auf Föhr (Südwest)",
        "ortsquelle": "Wyk_Süd_West.pdf",
        "zuordnungsabstand_relativ": 1.159,
        "pdf_x_pt": 674.385,
        "pdf_y_von_oben_pt": 199.799,
        "koordinatenquelle": "eingebettete GeoPDF-Georeferenzierung",
        "lagehinweis": "kartografische Symbolposition; nicht vermessungstechnisch oder vor Ort bestätigt",
        "marker-color": "#1565c0",
        "marker-symbol": "fire-station",
        "marker-size": "medium",
        "title": "333 - Hydrant"
      }
    },
    {
      "type": "Feature",
      "id": "335",
      "geometry": {
        "type": "Point",
        "coordinates": [
          8.543606,
          54.687642
        ]
      },
      "properties": {
        "id": "335",
        "typ": "Hydrant",
        "menge_l_min": 1600,
        "quellkarte": "Wyk_Süd_West.pdf",
        "ortsname": "Wyk auf Föhr (Südwest)",
        "ortsquelle": "Wyk_Süd_West.pdf",
        "zuordnungsabstand_relativ": 0.954,
        "pdf_x_pt": 704.667,
        "pdf_y_von_oben_pt": 143.477,
        "koordinatenquelle": "eingebettete GeoPDF-Georeferenzierung",
        "lagehinweis": "kartografische Symbolposition; nicht vermessungstechnisch oder vor Ort bestätigt",
        "marker-color": "#1565c0",
        "marker-symbol": "fire-station",
        "marker-size": "medium",
        "title": "335 - Hydrant"
      }
    },
    {
      "type": "Feature",
      "id": "336",
      "geometry": {
        "type": "Point",
        "coordinates": [
          8.54176,
          54.686428
        ]
      },
      "properties": {
        "id": "336",
        "typ": "Hydrant",
        "menge_l_min": 1600,
        "quellkarte": "Wyk_Süd_West.pdf",
        "ortsname": "Wyk auf Föhr (Südwest)",
        "ortsquelle": "Wyk_Süd_West.pdf",
        "zuordnungsabstand_relativ": 0.937,
        "pdf_x_pt": 630.802,
        "pdf_y_von_oben_pt": 226.189,
        "koordinatenquelle": "eingebettete GeoPDF-Georeferenzierung",
        "lagehinweis": "kartografische Symbolposition; nicht vermessungstechnisch oder vor Ort bestätigt",
        "marker-color": "#1565c0",
        "marker-symbol": "fire-station",
        "marker-size": "medium",
        "title": "336 - Hydrant"
      }
    },
    {
      "type": "Feature",
      "id": "337",
      "geometry": {
        "type": "Point",
        "coordinates": [
          8.542377,
          54.687189
        ]
      },
      "properties": {
        "id": "337",
        "typ": "Hydrant",
        "menge_l_min": 1600,
        "quellkarte": "Wyk_Süd_West.pdf",
        "ortsname": "Wyk auf Föhr (Südwest)",
        "ortsquelle": "Wyk_Süd_West.pdf",
        "zuordnungsabstand_relativ": 0.861,
        "pdf_x_pt": 655.663,
        "pdf_y_von_oben_pt": 174.197,
        "koordinatenquelle": "eingebettete GeoPDF-Georeferenzierung",
        "lagehinweis": "kartografische Symbolposition; nicht vermessungstechnisch oder vor Ort bestätigt",
        "marker-color": "#1565c0",
        "marker-symbol": "fire-station",
        "marker-size": "medium",
        "title": "337 - Hydrant"
      }
    },
    {
      "type": "Feature",
      "id": "338",
      "geometry": {
        "type": "Point",
        "coordinates": [
          8.542959,
          54.68786
        ]
      },
      "properties": {
        "id": "338",
        "typ": "Hydrant",
        "menge_l_min": 1600,
        "quellkarte": "Wyk_Süd_West.pdf",
        "ortsname": "Wyk auf Föhr (Südwest)",
        "ortsquelle": "Wyk_Süd_West.pdf",
        "zuordnungsabstand_relativ": 0.543,
        "pdf_x_pt": 679.079,
        "pdf_y_von_oben_pt": 128.318,
        "koordinatenquelle": "eingebettete GeoPDF-Georeferenzierung",
        "lagehinweis": "kartografische Symbolposition; nicht vermessungstechnisch oder vor Ort bestätigt",
        "marker-color": "#1565c0",
        "marker-symbol": "fire-station",
        "marker-size": "medium",
        "title": "338 - Hydrant"
      }
    },
    {
      "type": "Feature",
      "id": "339",
      "geometry": {
        "type": "Point",
        "coordinates": [
          8.541601,
          54.687405
        ]
      },
      "properties": {
        "id": "339",
        "typ": "Hydrant",
        "menge_l_min": 1600,
        "quellkarte": "Wyk_Süd_West.pdf",
        "ortsname": "Wyk auf Föhr (Südwest)",
        "ortsquelle": "Wyk_Süd_West.pdf",
        "zuordnungsabstand_relativ": 0.884,
        "pdf_x_pt": 624.954,
        "pdf_y_von_oben_pt": 159.212,
        "koordinatenquelle": "eingebettete GeoPDF-Georeferenzierung",
        "lagehinweis": "kartografische Symbolposition; nicht vermessungstechnisch oder vor Ort bestätigt",
        "marker-color": "#1565c0",
        "marker-symbol": "fire-station",
        "marker-size": "medium",
        "title": "339 - Hydrant"
      }
    },
    {
      "type": "Feature",
      "id": "340",
      "geometry": {
        "type": "Point",
        "coordinates": [
          8.541737,
          54.688167
        ]
      },
      "properties": {
        "id": "340",
        "typ": "Hydrant",
        "menge_l_min": 1600,
        "quellkarte": "Wyk_Süd_West.pdf",
        "ortsname": "Wyk auf Föhr (Südwest)",
        "ortsquelle": "Wyk_Süd_West.pdf",
        "zuordnungsabstand_relativ": 0.87,
        "pdf_x_pt": 630.683,
        "pdf_y_von_oben_pt": 107.008,
        "koordinatenquelle": "eingebettete GeoPDF-Georeferenzierung",
        "lagehinweis": "kartografische Symbolposition; nicht vermessungstechnisch oder vor Ort bestätigt",
        "marker-color": "#1565c0",
        "marker-symbol": "fire-station",
        "marker-size": "medium",
        "title": "340 - Hydrant"
      }
    },
    {
      "type": "Feature",
      "id": "341",
      "geometry": {
        "type": "Point",
        "coordinates": [
          8.542353,
          54.688777
        ]
      },
      "properties": {
        "id": "341",
        "typ": "Hydrant",
        "menge_l_min": 1600,
        "quellkarte": "Wyk_Süd_West.pdf",
        "ortsname": "Wyk auf Föhr (Südwest)",
        "ortsquelle": "Wyk_Süd_West.pdf",
        "zuordnungsabstand_relativ": 0.638,
        "pdf_x_pt": 655.425,
        "pdf_y_von_oben_pt": 65.335,
        "koordinatenquelle": "eingebettete GeoPDF-Georeferenzierung",
        "lagehinweis": "kartografische Symbolposition; nicht vermessungstechnisch oder vor Ort bestätigt",
        "marker-color": "#1565c0",
        "marker-symbol": "fire-station",
        "marker-size": "medium",
        "title": "341 - Hydrant"
      }
    },
    {
      "type": "Feature",
      "id": "342",
      "geometry": {
        "type": "Point",
        "coordinates": [
          8.54839,
          54.687335
        ]
      },
      "properties": {
        "id": "342",
        "typ": "Hydrant",
        "menge_l_min": 1600,
        "quellkarte": "Wyk_Süd_West.pdf",
        "ortsname": "Wyk auf Föhr (Südwest)",
        "ortsquelle": "Wyk_Süd_West.pdf",
        "zuordnungsabstand_relativ": 0.785,
        "pdf_x_pt": 894.544,
        "pdf_y_von_oben_pt": 165.76,
        "koordinatenquelle": "eingebettete GeoPDF-Georeferenzierung",
        "lagehinweis": "kartografische Symbolposition; nicht vermessungstechnisch oder vor Ort bestätigt",
        "marker-color": "#1565c0",
        "marker-symbol": "fire-station",
        "marker-size": "medium",
        "title": "342 - Hydrant"
      }
    },
    {
      "type": "Feature",
      "id": "343",
      "geometry": {
        "type": "Point",
        "coordinates": [
          8.548034,
          54.687941
        ]
      },
      "properties": {
        "id": "343",
        "typ": "Hydrant",
        "menge_l_min": 1600,
        "quellkarte": "Wyk_Süd_West.pdf",
        "ortsname": "Wyk auf Föhr (Südwest)",
        "ortsquelle": "Wyk_Süd_West.pdf",
        "zuordnungsabstand_relativ": 1.128,
        "pdf_x_pt": 880.656,
        "pdf_y_von_oben_pt": 124.087,
        "koordinatenquelle": "eingebettete GeoPDF-Georeferenzierung",
        "lagehinweis": "kartografische Symbolposition; nicht vermessungstechnisch oder vor Ort bestätigt",
        "marker-color": "#1565c0",
        "marker-symbol": "fire-station",
        "marker-size": "medium",
        "title": "343 - Hydrant"
      }
    },
    {
      "type": "Feature",
      "id": "345",
      "geometry": {
        "type": "Point",
        "coordinates": [
          8.548418,
          54.688691
        ]
      },
      "properties": {
        "id": "345",
        "typ": "Hydrant",
        "menge_l_min": 1600,
        "quellkarte": "Wyk_Süd_West.pdf",
        "ortsname": "Wyk auf Föhr (Südwest)",
        "ortsquelle": "Wyk_Süd_West.pdf",
        "zuordnungsabstand_relativ": 0.599,
        "pdf_x_pt": 896.233,
        "pdf_y_von_oben_pt": 72.773,
        "koordinatenquelle": "eingebettete GeoPDF-Georeferenzierung",
        "lagehinweis": "kartografische Symbolposition; nicht vermessungstechnisch oder vor Ort bestätigt",
        "marker-color": "#1565c0",
        "marker-symbol": "fire-station",
        "marker-size": "medium",
        "title": "345 - Hydrant"
      }
    },
    {
      "type": "Feature",
      "id": "346",
      "geometry": {
        "type": "Point",
        "coordinates": [
          8.549202,
          54.688615
        ]
      },
      "properties": {
        "id": "346",
        "typ": "Hydrant",
        "menge_l_min": 1600,
        "quellkarte": "Wyk_Süd_West.pdf",
        "ortsname": "Wyk auf Föhr (Südwest)",
        "ortsquelle": "Wyk_Süd_West.pdf",
        "zuordnungsabstand_relativ": 1.007,
        "pdf_x_pt": 927.331,
        "pdf_y_von_oben_pt": 78.205,
        "koordinatenquelle": "eingebettete GeoPDF-Georeferenzierung",
        "lagehinweis": "kartografische Symbolposition; nicht vermessungstechnisch oder vor Ort bestätigt",
        "marker-color": "#1565c0",
        "marker-symbol": "fire-station",
        "marker-size": "medium",
        "title": "346 - Hydrant"
      }
    },
    {
      "type": "Feature",
      "id": "347",
      "geometry": {
        "type": "Point",
        "coordinates": [
          8.549754,
          54.689063
        ]
      },
      "properties": {
        "id": "347",
        "typ": "Hydrant",
        "menge_l_min": 1600,
        "quellkarte": "Wyk_Süd_West.pdf",
        "ortsname": "Wyk auf Föhr (Südwest)",
        "ortsquelle": "Wyk_Süd_West.pdf",
        "zuordnungsabstand_relativ": 1.153,
        "pdf_x_pt": 949.476,
        "pdf_y_von_oben_pt": 47.604,
        "koordinatenquelle": "eingebettete GeoPDF-Georeferenzierung",
        "lagehinweis": "kartografische Symbolposition; nicht vermessungstechnisch oder vor Ort bestätigt",
        "marker-color": "#1565c0",
        "marker-symbol": "fire-station",
        "marker-size": "medium",
        "title": "347 - Hydrant"
      }
    },
    {
      "type": "Feature",
      "id": "348",
      "geometry": {
        "type": "Point",
        "coordinates": [
          8.549301,
          54.689462
        ]
      },
      "properties": {
        "id": "348",
        "typ": "Hydrant",
        "menge_l_min": 1600,
        "quellkarte": "Wyk_Süd_West.pdf",
        "ortsname": "Wyk auf Föhr (Südwest)",
        "ortsquelle": "Wyk_Süd_West.pdf",
        "zuordnungsabstand_relativ": 0.813,
        "pdf_x_pt": 931.655,
        "pdf_y_von_oben_pt": 20.194,
        "koordinatenquelle": "eingebettete GeoPDF-Georeferenzierung",
        "lagehinweis": "kartografische Symbolposition; nicht vermessungstechnisch oder vor Ort bestätigt",
        "marker-color": "#1565c0",
        "marker-symbol": "fire-station",
        "marker-size": "medium",
        "title": "348 - Hydrant"
      }
    },
    {
      "type": "Feature",
      "id": "349",
      "geometry": {
        "type": "Point",
        "coordinates": [
          8.547962,
          54.688949
        ]
      },
      "properties": {
        "id": "349",
        "typ": "E-Bohrbrunnen",
        "menge_l_min": null,
        "quellkarte": "Wyk_Süd_West.pdf",
        "ortsname": "Wyk auf Föhr (Südwest)",
        "ortsquelle": "Wyk_Süd_West.pdf",
        "zuordnungsabstand_relativ": 1.203,
        "pdf_x_pt": 878.248,
        "pdf_y_von_oben_pt": 55.012,
        "koordinatenquelle": "eingebettete GeoPDF-Georeferenzierung",
        "lagehinweis": "kartografische Symbolposition; nicht vermessungstechnisch oder vor Ort bestätigt",
        "marker-color": "#8e24aa",
        "marker-symbol": "industrial",
        "marker-size": "medium",
        "title": "349 - E-Bohrbrunnen"
      }
    },
    {
      "type": "Feature",
      "id": "350",
      "geometry": {
        "type": "Point",
        "coordinates": [
          8.545834,
          54.688022
        ]
      },
      "properties": {
        "id": "350",
        "typ": "Hydrant",
        "menge_l_min": 1600,
        "quellkarte": "Wyk_Süd_West.pdf",
        "ortsname": "Wyk auf Föhr (Südwest)",
        "ortsquelle": "Wyk_Süd_West.pdf",
        "zuordnungsabstand_relativ": 0.848,
        "pdf_x_pt": 793.339,
        "pdf_y_von_oben_pt": 117.988,
        "koordinatenquelle": "eingebettete GeoPDF-Georeferenzierung",
        "lagehinweis": "kartografische Symbolposition; nicht vermessungstechnisch oder vor Ort bestätigt",
        "marker-color": "#1565c0",
        "marker-symbol": "fire-station",
        "marker-size": "medium",
        "title": "350 - Hydrant"
      }
    },
    {
      "type": "Feature",
      "id": "351",
      "geometry": {
        "type": "Point",
        "coordinates": [
          8.546718,
          54.689227
        ]
      },
      "properties": {
        "id": "351",
        "typ": "Hydrant",
        "menge_l_min": 1600,
        "quellkarte": "Wyk_Süd_West.pdf",
        "ortsname": "Wyk auf Föhr (Südwest)",
        "ortsquelle": "Wyk_Süd_West.pdf",
        "zuordnungsabstand_relativ": 1.224,
        "pdf_x_pt": 828.957,
        "pdf_y_von_oben_pt": 35.603,
        "koordinatenquelle": "eingebettete GeoPDF-Georeferenzierung",
        "lagehinweis": "kartografische Symbolposition; nicht vermessungstechnisch oder vor Ort bestätigt",
        "marker-color": "#1565c0",
        "marker-symbol": "fire-station",
        "marker-size": "medium",
        "title": "351 - Hydrant"
      }
    },
    {
      "type": "Feature",
      "id": "353",
      "geometry": {
        "type": "Point",
        "coordinates": [
          8.543681,
          54.688685
        ]
      },
      "properties": {
        "id": "353",
        "typ": "Hydrant",
        "menge_l_min": 1600,
        "quellkarte": "Wyk_Süd_West.pdf",
        "ortsname": "Wyk auf Föhr (Südwest)",
        "ortsquelle": "Wyk_Süd_West.pdf",
        "zuordnungsabstand_relativ": 0.832,
        "pdf_x_pt": 708.118,
        "pdf_y_von_oben_pt": 71.973,
        "koordinatenquelle": "eingebettete GeoPDF-Georeferenzierung",
        "lagehinweis": "kartografische Symbolposition; nicht vermessungstechnisch oder vor Ort bestätigt",
        "marker-color": "#1565c0",
        "marker-symbol": "fire-station",
        "marker-size": "medium",
        "title": "353 - Hydrant"
      }
    },
    {
      "type": "Feature",
      "id": "355",
      "geometry": {
        "type": "Point",
        "coordinates": [
          8.544194,
          54.68929
        ]
      },
      "properties": {
        "id": "355",
        "typ": "Hydrant",
        "menge_l_min": 1600,
        "quellkarte": "Wyk_Süd_West.pdf",
        "ortsname": "Wyk auf Föhr (Südwest)",
        "ortsquelle": "Wyk_Süd_West.pdf",
        "zuordnungsabstand_relativ": 0.913,
        "pdf_x_pt": 728.775,
        "pdf_y_von_oben_pt": 30.674,
        "koordinatenquelle": "eingebettete GeoPDF-Georeferenzierung",
        "lagehinweis": "kartografische Symbolposition; nicht vermessungstechnisch oder vor Ort bestätigt",
        "marker-color": "#1565c0",
        "marker-symbol": "fire-station",
        "marker-size": "medium",
        "title": "355 - Hydrant"
      }
    },
    {
      "type": "Feature",
      "id": "359",
      "geometry": {
        "type": "Point",
        "coordinates": [
          8.551533,
          54.689297
        ]
      },
      "properties": {
        "id": "359",
        "typ": "Hydrant",
        "menge_l_min": 1600,
        "quellkarte": "Wyk_Süd_West.pdf",
        "ortsname": "Wyk auf Föhr (Südwest)",
        "ortsquelle": "Wyk_Süd_West.pdf",
        "zuordnungsabstand_relativ": 0.837,
        "pdf_x_pt": 1020.217,
        "pdf_y_von_oben_pt": 32.033,
        "koordinatenquelle": "eingebettete GeoPDF-Georeferenzierung",
        "lagehinweis": "kartografische Symbolposition; nicht vermessungstechnisch oder vor Ort bestätigt",
        "marker-color": "#1565c0",
        "marker-symbol": "fire-station",
        "marker-size": "medium",
        "title": "359 - Hydrant"
      }
    },
    {
      "type": "Feature",
      "id": "621",
      "geometry": {
        "type": "Point",
        "coordinates": [
          8.5264,
          54.683465
        ]
      },
      "properties": {
        "id": "621",
        "typ": "Hydrant",
        "menge_l_min": 1600,
        "quellkarte": "Wyk_Süd_West.pdf",
        "ortsname": "Wyk auf Föhr (Südwest)",
        "ortsquelle": "Wyk_Süd_West.pdf",
        "zuordnungsabstand_relativ": 0.909,
        "pdf_x_pt": 19.385,
        "pdf_y_von_oben_pt": 425.31,
        "koordinatenquelle": "eingebettete GeoPDF-Georeferenzierung",
        "lagehinweis": "kartografische Symbolposition; nicht vermessungstechnisch oder vor Ort bestätigt",
        "marker-color": "#1565c0",
        "marker-symbol": "fire-station",
        "marker-size": "medium",
        "title": "621 - Hydrant"
      }
    }
  ]
}